[{"cname":"北京","cen":"bj","districts":[{"pinyin":"chaoyang","name":"朝阳","regions":[{"pinyin":"anhuili","name":"安慧桥"},{"pinyin":"anzhenqiao","name":"安贞"},{"pinyin":"aoyuncun","name":"奥运村"},{"pinyin":"baiziwan","name":"百子湾"},{"pinyin":"dblz","name":"八里庄"},{"pinyin":"beishatan","name":"北沙滩"},{"pinyin":"bjbeiyuan","name":"北苑"},{"pinyin":"cbd","name":"CBD"},{"pinyin":"changying","name":"常营"},{"pinyin":"chaoqingbankuai","name":"朝青板块"},{"pinyin":"chaowaidajie","name":"朝外大街"},{"pinyin":"chaoyanggongyuan","name":"朝阳公园"},{"pinyin":"chaoyangzhoubian","name":"朝阳周边"},{"pinyin":"ciyunsi","name":"慈云寺"},{"pinyin":"dashanzi","name":"大山子"},{"pinyin":"datun","name":"大屯"},{"pinyin":"dawanglu","name":"大望路"},{"pinyin":"dingfuzhuang","name":"定福庄"},{"pinyin":"dongba","name":"东坝"},{"pinyin":"dongdaqiao","name":"东大桥"},{"pinyin":"dougezhuang","name":"豆各庄"},{"pinyin":"fatou","name":"垡头"},{"pinyin":"ganluyuan","name":"甘露园"},{"pinyin":"gaobeidianbj","name":"高碑店"},{"pinyin":"gongti","name":"工体"},{"pinyin":"guangqumen","name":"广渠门"},{"pinyin":"guanzhuang","name":"管庄"},{"pinyin":"guomao","name":"国贸"},{"pinyin":"guozhan","name":"国展"},{"pinyin":"hepingjie","name":"和平街"},{"pinyin":"hongmiao","name":"红庙"},{"pinyin":"huajiadi","name":"花家地"},{"pinyin":"huanlegu","name":"欢乐谷"},{"pinyin":"bjhuaweiqiao","name":"华威桥"},{"pinyin":"huixl","name":"惠新里"},{"pinyin":"hxxj","name":"惠新西街"},{"pinyin":"hujialou","name":"呼家楼"},{"pinyin":"jiangtailu","name":"将台路"},{"pinyin":"jianwaidajie","name":"建外大街"},{"pinyin":"bjjianxq","name":"健翔桥"},{"pinyin":"jingguangqiao","name":"京广桥"},{"pinyin":"jinsong","name":"劲松"},{"pinyin":"jiuxianqiao","name":"酒仙桥"},{"pinyin":"laiguangying","name":"来广营"},{"pinyin":"liufang","name":"柳芳"},{"pinyin":"maizidian","name":"麦子店"},{"pinyin":"meiticun","name":"媒体村"},{"pinyin":"nanmofang","name":"南磨房"},{"pinyin":"bjnst","name":"南沙滩"},{"pinyin":"bjnyzlg","name":"农业展览馆"},{"pinyin":"panjiayuan","name":"潘家园"},{"pinyin":"sanlitun","name":"三里屯"},{"pinyin":"sanyuanqiao","name":"三元桥"},{"pinyin":"shaoyaoju","name":"芍药居"},{"pinyin":"bjsg","name":"胜古"},{"pinyin":"shibalidian","name":"十八里店"},{"pinyin":"shifoying","name":"石佛营"},{"pinyin":"shilibao","name":"十里堡"},{"pinyin":"shilihe","name":"十里河"},{"pinyin":"shoudujichang","name":"首都机场"},{"pinyin":"shuangjing","name":"双井"},{"pinyin":"bjshuangqiao","name":"双桥"},{"pinyin":"shuiduizi","name":"水碓子"},{"pinyin":"bjsihui","name":"四惠"},{"pinyin":"bjsyuli","name":"松榆里"},{"pinyin":"bjsunhe","name":"孙河"},{"pinyin":"taiyanggong","name":"太阳宫"},{"pinyin":"tianshuiyuan","name":"甜水园"},{"pinyin":"tuanjiehu","name":"团结湖"},{"pinyin":"wangjing","name":"望京"},{"pinyin":"xiaoguan","name":"小关"},{"pinyin":"xiaohongmen","name":"小红门"},{"pinyin":"xibahe","name":"西坝河"},{"pinyin":"yansha","name":"燕莎"},{"pinyin":"yaojiayuan","name":"姚家园"},{"pinyin":"yayuncun","name":"亚运村"},{"pinyin":"xiaoying","name":"亚运村小营"},{"pinyin":"zuojiazhuang","name":"左家庄"}]},{"pinyin":"haidian","name":"海淀","regions":[{"pinyin":"annz","name":"安宁庄"},{"pinyin":"baishiqiao","name":"白石桥"},{"pinyin":"beihangbj","name":"北航"},{"pinyin":"beijingdaxue","name":"北京大学"},{"pinyin":"beitaipingzhuang","name":"北太平庄"},{"pinyin":"beiwalu","name":"北洼路"},{"pinyin":"changwa","name":"厂洼"},{"pinyin":"chedg","name":"车道沟"},{"pinyin":"dazhongsi","name":"大钟寺"},{"pinyin":"dinghuisi","name":"定慧寺"},{"pinyin":"bjenjili","name":"恩济里"},{"pinyin":"erlizhuang","name":"二里庄"},{"pinyin":"ganjiakou","name":"甘家口"},{"pinyin":"gongzhufen","name":"公主坟"},{"pinyin":"haidianzhoubian","name":"海淀周边"},{"pinyin":"hangtianqiao","name":"航天桥"},{"pinyin":"huayuanqiao","name":"花园桥"},{"pinyin":"bjjiaoda","name":"交通大学"},{"pinyin":"jimenqiao","name":"蓟门桥"},{"pinyin":"bjjinhegou","name":"金沟河"},{"pinyin":"junbo","name":"军博"},{"pinyin":"bjlxqiao","name":"联想桥"},{"pinyin":"malianwa","name":"马连洼"},{"pinyin":"minggq","name":"明光桥"},{"pinyin":"mudanyuan","name":"牡丹园"},{"pinyin":"qinghe","name":"清河"},{"pinyin":"qinghuadaxue","name":"清华大学"},{"pinyin":"renmindaxue","name":"人民大学"},{"pinyin":"shangdi","name":"上地"},{"pinyin":"shijicheng","name":"世纪城"},{"pinyin":"shuangyushu","name":"双榆树"},{"pinyin":"sijiqinghd","name":"四季青"},{"pinyin":"suzhoujie","name":"苏州街"},{"pinyin":"suzhouqiao","name":"苏州桥"},{"pinyin":"tiancunlu","name":"田村"},{"pinyin":"wanliubj","name":"万柳"},{"pinyin":"wanliu","name":"万泉河"},{"pinyin":"wanshouluhd","name":"万寿路"},{"pinyin":"wanss","name":"万寿寺"},{"pinyin":"baiyilu","name":"魏公村"},{"pinyin":"bjwq","name":"温泉"},{"pinyin":"bjwcc","name":"五彩城"},{"pinyin":"wudaokou","name":"五道口"},{"pinyin":"wukesong","name":"五棵松"},{"pinyin":"bjwuluju","name":"五路居"},{"pinyin":"xiangshanhd","name":"香山"},{"pinyin":"bjxjh","name":"肖家河"},{"pinyin":"balizhuang","name":"西八里庄"},{"pinyin":"xibeiwang","name":"西北旺"},{"pinyin":"xierqi","name":"西二旗"},{"pinyin":"xisanqi","name":"西三旗"},{"pinyin":"xs","name":"西山"},{"pinyin":"xiyuanbj","name":"西苑"},{"pinyin":"xueyuanlu","name":"学院路"},{"pinyin":"bjxylb","name":"学院路北"},{"pinyin":"yongdinglu","name":"永定路"},{"pinyin":"bjyql","name":"玉泉路"},{"pinyin":"zhaojunmiao","name":"皂君庙"},{"pinyin":"zengguanglu","name":"增光路"},{"pinyin":"zhichunlu","name":"知春路"},{"pinyin":"zhongguancun","name":"中关村"},{"pinyin":"zizhuqiao","name":"紫竹桥"}]},{"pinyin":"dongcheng","name":"东城","regions":[{"pinyin":"andingmen","name":"安定门"},{"pinyin":"beijingzhan","name":"北京站"},{"pinyin":"beixinqiao","name":"北新桥"},{"pinyin":"chaoyangmen","name":"朝阳门"},{"pinyin":"dengshikou","name":"灯市口"},{"pinyin":"dongchengzhoubian","name":"东城周边"},{"pinyin":"dongsan","name":"东单"},{"pinyin":"dongsi","name":"东四"},{"pinyin":"dongsishitiao","name":"东四十条"},{"pinyin":"dongzhimen","name":"东直门"},{"pinyin":"dongzhimenwai","name":"东直门外"},{"pinyin":"haiyuncang","name":"海运仓"},{"pinyin":"hepingli","name":"和平里"},{"pinyin":"jianguomen","name":"建国门"},{"pinyin":"jiaodaokou","name":"交道口"},{"pinyin":"jingshan","name":"景山"},{"pinyin":"shatan","name":"沙滩"},{"pinyin":"wangfujing","name":"王府井"},{"pinyin":"yonghegong","name":"雍和宫"}]},{"pinyin":"xicheng","name":"西城","regions":[{"pinyin":"baiwanzhuang","name":"百万庄"},{"pinyin":"chegongzhuang","name":"车公庄"},{"pinyin":"deshengmen","name":"德胜门"},{"pinyin":"dianmen","name":"地安门"},{"pinyin":"fuchengmen","name":"阜成门"},{"pinyin":"fuxingmen","name":"复兴门"},{"pinyin":"guanyuan","name":"官园"},{"pinyin":"shishahai","name":"鼓楼"},{"pinyin":"jierongjie","name":"金融街"},{"pinyin":"jishuitan","name":"积水潭"},{"pinyin":"liupukang","name":"六铺炕"},{"pinyin":"madian","name":"马甸"},{"pinyin":"muxidi","name":"木樨地"},{"pinyin":"baiyunlu","name":"南礼士路"},{"pinyin":"sanlihe","name":"三里河"},{"pinyin":"shichahai","name":"什刹海"},{"pinyin":"xiaoxitian","name":"小西天"},{"pinyin":"xibianmen","name":"西便门"},{"pinyin":"xichengzhoubian","name":"西城周边"},{"pinyin":"xidan","name":"西单"},{"pinyin":"xinjie","name":"新街口"},{"pinyin":"xisi","name":"西四"},{"pinyin":"xizhimen","name":"西直门"},{"pinyin":"yuetan","name":"月坛"},{"pinyin":"zhanlanlu","name":"展览路"},{"pinyin":"zhenwumiao","name":"真武庙"}]},{"pinyin":"chongwen","name":"崇文","regions":[{"pinyin":"chongwenmen","name":"崇文门"},{"pinyin":"chongwenzhoubian","name":"崇文周边"},{"pinyin":"ciqikou","name":"磁器口"},{"pinyin":"donghuashi","name":"东花市"},{"pinyin":"fahuasi","name":"法华寺"},{"pinyin":"guangminglou","name":"光明楼"},{"pinyin":"guangqumennei","name":"广渠门"},{"pinyin":"longtanhu","name":"龙潭湖"},{"pinyin":"qianmen","name":"前门"},{"pinyin":"tiantan","name":"天坛"},{"pinyin":"tiyuguanlu","name":"体育馆路"},{"pinyin":"xinshijie","name":"新世界"},{"pinyin":"yongdingmen","name":"永定门"}]},{"pinyin":"xuanwu","name":"宣武","regions":[{"pinyin":"baiguanglu","name":"白广路"},{"pinyin":"baizhifang","name":"白纸坊"},{"pinyin":"caishikou","name":"菜市口"},{"pinyin":"changchunjie","name":"长椿街"},{"pinyin":"chunshujiedao","name":"椿树街道"},{"pinyin":"daguanyuan","name":"大观园"},{"pinyin":"dazhalan","name":"大栅栏"},{"pinyin":"guanganmennei","name":"广安门内"},{"pinyin":"guanganmenwai","name":"广安门外"},{"pinyin":"hepingmen","name":"和平门"},{"pinyin":"honglian","name":"红莲"},{"pinyin":"hufangqiao","name":"虎坊桥"},{"pinyin":"maliandao","name":"马连道"},{"pinyin":"nancaiyuan","name":"南菜园"},{"pinyin":"niujie","name":"牛街"},{"pinyin":"taoranting","name":"陶然亭"},{"pinyin":"tianningsi","name":"天宁寺"},{"pinyin":"bjtianqiao","name":"天桥"},{"pinyin":"xuanwumen","name":"宣武门"},{"pinyin":"xuanwuzhoubian","name":"宣武周边"},{"pinyin":"zhushikou","name":"珠市口"}]},{"pinyin":"fengtai","name":"丰台","regions":[{"pinyin":"beidadi","name":"北大地"},{"pinyin":"caihuying","name":"菜户营"},{"pinyin":"caoqiao","name":"草桥"},{"pinyin":"changxindian","name":"长辛店"},{"pinyin":"chengshousi","name":"成寿寺"},{"pinyin":"dahongmen","name":"大红门"},{"pinyin":"donggaodi","name":"东高地"},{"pinyin":"dongtiejiangying","name":"东铁匠营"},{"pinyin":"fangzhuang","name":"方庄"},{"pinyin":"fengtailu","name":"丰台路"},{"pinyin":"fengtaitiyuguan","name":"丰台体育馆"},{"pinyin":"fengtaizhoubian","name":"丰台周边"},{"pinyin":"fengyiqiao","name":"丰益桥"},{"pinyin":"ftheyi","name":"和义"},{"pinyin":"huaxiang","name":"花乡"},{"pinyin":"jiaomen","name":"角门"},{"pinyin":"jiayuan","name":"嘉园"},{"pinyin":"bjkdq","name":"看丹桥"},{"pinyin":"kejiyuanqu","name":"科技园区"},{"pinyin":"lianhuachi","name":"莲花池"},{"pinyin":"liujiayao","name":"刘家窑"},{"pinyin":"liuliqiao","name":"六里桥"},{"pinyin":"lizeqiao","name":"丽泽桥"},{"pinyin":"lugouqiao","name":"卢沟桥"},{"pinyin":"majiabao","name":"马家堡"},{"pinyin":"muxiyuan","name":"木樨园"},{"pinyin":"nanyuan","name":"南苑"},{"pinyin":"puhuangyu","name":"蒲黄榆"},{"pinyin":"qilizhuang","name":"七里庄"},{"pinyin":"qingta","name":"青塔"},{"pinyin":"shijiegongyuan","name":"世界公园"},{"pinyin":"songjiazhuang","name":"宋家庄"},{"pinyin":"taipingqiao","name":"太平桥"},{"pinyin":"wulidianbj","name":"五里店"},{"pinyin":"xikezhan","name":"西客站"},{"pinyin":"xiluoyuan","name":"西罗园"},{"pinyin":"xinfadi","name":"新发地"},{"pinyin":"yangqiao","name":"洋桥"},{"pinyin":"youanmen","name":"右安门"},{"pinyin":"yuegezhuang","name":"岳各庄"},{"pinyin":"yungang","name":"云岗"},{"pinyin":"yuquanying","name":"玉泉营"},{"pinyin":"zhaogongkou","name":"赵公口"},{"pinyin":"bjzbjd","name":"总部基地"},{"pinyin":"zuoanmen","name":"左安门"}]},{"pinyin":"tongzhouqu","name":"通州","regions":[{"pinyin":"baliqiao","name":"八里桥"},{"pinyin":"batongqinggui","name":"八通轻轨沿线"},{"pinyin":"bgbeiguan","name":"北关"},{"pinyin":"beiguanhuandao","name":"北关环岛"},{"pinyin":"ciqu","name":"次渠"},{"pinyin":"dongguanbj","name":"东关"},{"pinyin":"guoyuan","name":"果园"},{"pinyin":"jiukeshu","name":"九棵树"},{"pinyin":"linheli","name":"临河里"},{"pinyin":"liyuan","name":"梨园"},{"pinyin":"luc","name":"潞城"},{"pinyin":"majuqiao","name":"马驹桥"},{"pinyin":"qiaozhuang","name":"乔庄"},{"pinyin":"beiyuan","name":"通州北苑"},{"pinyin":"tongzhouzhoubian","name":"通州周边"},{"pinyin":"tuqiao","name":"土桥"},{"pinyin":"wuyihuayuan","name":"武夷花园"},{"pinyin":"huoxian","name":"漷县"},{"pinyin":"ximen","name":"西门"},{"pinyin":"xinhuadajie","name":"新华大街"},{"pinyin":"bjyld","name":"永乐店"},{"pinyin":"yongshun","name":"永顺"},{"pinyin":"yunhedajie","name":"运河大街"},{"pinyin":"yuqiao","name":"玉桥"},{"pinyin":"zhangjiawan","name":"张家湾"},{"pinyin":"zhongcang","name":"中仓"}]},{"pinyin":"shijingshan","name":"石景山","regions":[{"pinyin":"babaoshan","name":"八宝山"},{"pinyin":"badachu","name":"八大处"},{"pinyin":"bajiao","name":"八角"},{"pinyin":"guangn","name":"广宁"},{"pinyin":"guchenglu","name":"古城"},{"pinyin":"jindingjie","name":"金顶街"},{"pinyin":"laoshanbj","name":"老山"},{"pinyin":"lugu","name":"鲁谷"},{"pinyin":"mushikou","name":"模式口"},{"pinyin":"pingguoyuan","name":"苹果园"},{"pinyin":"shijingshanzhoubian","name":"石景山周边"},{"pinyin":"wulituo","name":"五里坨"},{"pinyin":"xishanbj","name":"西山"},{"pinyin":"yamenkou","name":"衙门口"},{"pinyin":"yangzhuang","name":"杨庄"},{"pinyin":"yongle","name":"永乐"},{"pinyin":"yuquanlu","name":"玉泉路"}]},{"pinyin":"fangshan","name":"房山","regions":[{"pinyin":"changyangbj","name":"长阳"},{"pinyin":"doudian","name":"窦店"},{"pinyin":"fangshancg","name":"房山城关"},{"pinyin":"fangshanzhoubian","name":"房山周边"},{"pinyin":"hanhecun","name":"韩村河"},{"pinyin":"liangxiang","name":"良乡"},{"pinyin":"liulihe","name":"琉璃河"},{"pinyin":"yancun","name":"阎村"},{"pinyin":"yanshanfs","name":"燕山"},{"pinyin":"yingfeng","name":"迎风"},{"pinyin":"zhoukd","name":"周口店"}]},{"pinyin":"changping","name":"昌平","regions":[{"pinyin":"bjbaishan","name":"百善"},{"pinyin":"beiqijia","name":"北七家"},{"pinyin":"changpingxiancheng","name":"昌平县城"},{"pinyin":"changpingzhoubian","name":"昌平周边"},{"pinyin":"cpchengbei","name":"城北"},{"pinyin":"cpchengnan","name":"城南"},{"pinyin":"dongxiaokou","name":"东小口"},{"pinyin":"huilongguan","name":"回龙观"},{"pinyin":"huoying","name":"霍营"},{"pinyin":"lishuiqiao","name":"立水桥"},{"pinyin":"longze","name":"龙泽"},{"pinyin":"nankou","name":"南口"},{"pinyin":"bjnsz","name":"南邵镇"},{"pinyin":"shahe","name":"沙河"},{"pinyin":"tiantongyuan","name":"天通苑"},{"pinyin":"xiaotangshan","name":"小汤山"},{"pinyin":"yangfang","name":"阳坊"}]},{"pinyin":"daxing","name":"大兴","regions":[{"pinyin":"binhe","name":"滨河"},{"pinyin":"daxingzhoubian","name":"大兴周边"},{"pinyin":"bjgmd","name":"高米店"},{"pinyin":"jingkaigaosu","name":"观音寺"},{"pinyin":"haizijiao","name":"海子角"},{"pinyin":"huangcunbj","name":"黄村"},{"pinyin":"jiugong","name":"旧宫"},{"pinyin":"linxiaolu","name":"林校路"},{"pinyin":"panggz","name":"庞各庄"},{"pinyin":"qingy","name":"清源"},{"pinyin":"bjswyyjd","name":"生物医药基地"},{"pinyin":"tongxingyuan","name":"同兴园"},{"pinyin":"xihongmen","name":"西红门"},{"pinyin":"xingfengdajie","name":"兴丰大街"},{"pinyin":"xinghuadajie","name":"兴华大街"},{"pinyin":"xingong","name":"新宫"},{"pinyin":"xingyedajie","name":"兴业大街"},{"pinyin":"bjyhz","name":"瀛海镇"},{"pinyin":"yizhuang","name":"亦庄"},{"pinyin":"qingheyuan","name":"郁花园"},{"pinyin":"bjzy","name":"枣园"}]},{"pinyin":"shunyi","name":"顺义","regions":[{"pinyin":"guangming","name":"光明"},{"pinyin":"houshayu","name":"后沙峪"},{"pinyin":"jianxin","name":"建新"},{"pinyin":"jichangbj","name":"机场"},{"pinyin":"liqiao","name":"李桥"},{"pinyin":"mapo","name":"马坡"},{"pinyin":"nancai","name":"南彩"},{"pinyin":"shenglibj","name":"胜利"},{"pinyin":"shiyuan","name":"石园"},{"pinyin":"shunyichengqu","name":"顺义城区"},{"pinyin":"shunyizhoubian","name":"顺义周边"},{"pinyin":"tianzhu","name":"天竺"},{"pinyin":"xinguozhan","name":"新国展"},{"pinyin":"yangzhen","name":"杨镇"},{"pinyin":"yulong","name":"裕龙"},{"pinyin":"zhongyangbsq","name":"中央别墅区"}]},{"pinyin":"miyun","name":"密云","regions":[{"pinyin":"miyunchengqu","name":"密云城区"},{"pinyin":"bulaotun","name":"不老屯"},{"pinyin":"xiwengzhuang","name":"溪翁庄"},{"pinyin":"miyunzhoubian","name":"密云周边"}]},{"pinyin":"huairou","name":"怀柔","regions":[{"pinyin":"yanqi","name":"雁栖"},{"pinyin":"qiaozi","name":"桥梓"},{"pinyin":"huairoubj","name":"怀柔城区"},{"pinyin":"bohaizhen","name":"渤海镇"},{"pinyin":"miaoc","name":"庙城"},{"pinyin":"huairouzhoubian","name":"怀柔周边"}]},{"pinyin":"yanqing","name":"延庆","regions":[{"pinyin":"yanqingchengqu","name":"延庆城区"},{"pinyin":"dayushu","name":"大榆树"},{"pinyin":"badaling","name":"八达岭"},{"pinyin":"bjkz","name":"康庄"},{"pinyin":"yanqingzhoubian","name":"延庆周边"}]},{"pinyin":"pinggu","name":"平谷","regions":[{"pinyin":"jinhaihu","name":"金海湖"},{"pinyin":"binhelu","name":"滨河路"},{"pinyin":"pingguchengqu","name":"平谷城区"},{"pinyin":"xingg","name":"兴谷"},{"pinyin":"yuy","name":"渔阳"},{"pinyin":"wangxz","name":"王辛庄"},{"pinyin":"pingguzhoubian","name":"平谷周边"}]},{"pinyin":"mentougou","name":"门头沟","regions":[{"pinyin":"bjdayu","name":"大峪"},{"pinyin":"dongxinfang","name":"东辛房"},{"pinyin":"longquan","name":"龙泉"},{"pinyin":"chengzijiedao","name":"城子街道"},{"pinyin":"yongding","name":"永定"},{"pinyin":"tanzhesi","name":"潭柘寺"},{"pinyin":"junzhuang","name":"军庄"},{"pinyin":"mentougouzhoubian","name":"门头沟周边"}]},{"pinyin":"bjyanjiao","name":"燕郊","regions":[{"pinyin":"bjybl","name":"迎宾路"},{"pinyin":"bjdsq","name":"东市区"},{"pinyin":"bjcq","name":"城区"},{"pinyin":"bjcbh","name":"潮白河"},{"pinyin":"bjdc","name":"大厂"},{"pinyin":"bjysl","name":"燕顺路"}]},{"pinyin":"beijingzhoubian","name":"北京周边","regions":[{"pinyin":"bjxianghe","name":"香河"},{"pinyin":"bjzz","name":"涿州"},{"pinyin":"bjsanhe","name":"三河"},{"pinyin":"bjyq","name":"永清"},{"pinyin":"bjguan","name":"固安"}]}]},{"cname":"上海","cen":"sh","districts":[{"pinyin":"huangpu","name":"黄浦","regions":[{"pinyin":"bansongyuanlu","name":"半淞园路"},{"pinyin":"dongjiadu","name":"董家渡"},{"pinyin":"huangpuzhoubian","name":"黄浦周边"},{"pinyin":"laoximen","name":"老西门"},{"pinyin":"nanjingdonglush","name":"南京东路"},{"pinyin":"nanpudaqiao","name":"南浦大桥"},{"pinyin":"nanwt","name":"南外滩"},{"pinyin":"penglaigongyuan","name":"蓬莱公园"},{"pinyin":"renminguangchang","name":"人民广场"},{"pinyin":"waitan","name":"外滩/十六铺"},{"pinyin":"xizangnanlu","name":"西藏南路"},{"pinyin":"xieqiao","name":"斜桥"},{"pinyin":"yuyuan","name":"豫园"}]},{"pinyin":"luwan","name":"卢湾","regions":[{"pinyin":"dapuqiao","name":"打浦桥"},{"pinyin":"fuxinggongyuan","name":"复兴公园"},{"pinyin":"huaihaigongyuan","name":"淮海公园"},{"pinyin":"huaihaizhonglu","name":"淮海中路"},{"pinyin":"lubanlu","name":"鲁班路"},{"pinyin":"luwanzhoubian","name":"卢湾周边"},{"pinyin":"ruijinerlu","name":"瑞金二路"},{"pinyin":"shibobinjiang","name":"世博滨江"},{"pinyin":"wuliqiao","name":"五里桥"},{"pinyin":"xintiandi","name":"新天地"},{"pinyin":"zhongshannyl","name":"中山南一路"}]},{"pinyin":"jingan","name":"静安","regions":[{"pinyin":"beijingxilu","name":"北京西路"},{"pinyin":"caijiadu","name":"曹家渡"},{"pinyin":"jiangninglu","name":"江宁路"},{"pinyin":"jingansi","name":"静安寺"},{"pinyin":"jinganzhoubian","name":"静安周边"},{"pinyin":"nanjingxilu","name":"南京西路"},{"pinyin":"shanghaidianshidai","name":"上海电视台"},{"pinyin":"xikanglu","name":"西康路"},{"pinyin":"xinzhalu","name":"新闸路"},{"pinyin":"yufosi","name":"玉佛寺"}]},{"pinyin":"xuhui","name":"徐汇","regions":[{"pinyin":"caobaoluditie","name":"漕宝路地铁口"},{"pinyin":"caohejing","name":"漕河泾"},{"pinyin":"changqiao","name":"长桥"},{"pinyin":"fenglinlu","name":"枫林路"},{"pinyin":"fuxingzhonglu","name":"复兴中路"},{"pinyin":"hengshanlu","name":"衡山路"},{"pinyin":"huadongligong","name":"华东理工"},{"pinyin":"huaihaixilu","name":"淮海西路"},{"pinyin":"huajing","name":"华泾"},{"pinyin":"hunanlush","name":"湖南路"},{"pinyin":"kangj","name":"康建"},{"pinyin":"lingyunlu","name":"凌云路"},{"pinyin":"xinlonghua","name":"龙华"},{"pinyin":"rihuixincun","name":"日晖新村"},{"pinyin":"shanghaijiaoda","name":"上海交大"},{"pinyin":"shanghainanzhan","name":"上海南站"},{"pinyin":"shanghaishida","name":"上海师大"},{"pinyin":"shanghaitsg","name":"上海图书馆"},{"pinyin":"shanghaizhiwuyuan","name":"上海植物园"},{"pinyin":"tianlinkangjian","name":"田林"},{"pinyin":"wantiguan","name":"万体馆"},{"pinyin":"xiangyanggy","name":"襄阳公园"},{"pinyin":"xietulu","name":"斜土路"},{"pinyin":"xuhuizhoubian","name":"徐汇周边"},{"pinyin":"xujiahui","name":"徐家汇"},{"pinyin":"zhaojiabinlu","name":"肇嘉浜路"}]},{"pinyin":"pudongxinqu","name":"浦东","regions":[{"pinyin":"babaiban","name":"八佰伴"},{"pinyin":"beicai","name":"北蔡"},{"pinyin":"biyun","name":"碧云"},{"pinyin":"caolu","name":"曹路"},{"pinyin":"changlish","name":"昌里"},{"pinyin":"chuansha","name":"川沙"},{"pinyin":"dongchangzhanditiekou","name":"东昌站地铁站"},{"pinyin":"dongfangl","name":"东方路地铁"},{"pinyin":"dongmingl","name":"东明路"},{"pinyin":"shgq","name":"高桥"},{"pinyin":"gaoxing","name":"高行"},{"pinyin":"heqingsh","name":"合庆"},{"pinyin":"huamu","name":"花木"},{"pinyin":"jinqiao","name":"金桥"},{"pinyin":"jinyangxincun","name":"金杨新村"},{"pinyin":"lianyang","name":"联洋"},{"pinyin":"lingangxinc","name":"临港新城"},{"pinyin":"liulish","name":"六里"},{"pinyin":"longyangluditie","name":"龙阳路地铁站"},{"pinyin":"lujiazui","name":"陆家嘴"},{"pinyin":"meiy","name":"梅园"},{"pinyin":"nanmatou","name":"南码头"},{"pinyin":"pudongzhoubian","name":"浦东周边"},{"pinyin":"sanlinsh","name":"三林"},{"pinyin":"shanggangxincun","name":"上钢新村"},{"pinyin":"shangnanxincun","name":"上南"},{"pinyin":"shibobinjiangsh","name":"世博滨江"},{"pinyin":"shijigongyuan","name":"世纪公园"},{"pinyin":"tangqiao","name":"塘桥"},{"pinyin":"tangzhen","name":"唐镇"},{"pinyin":"waigaoqiao","name":"外高桥"},{"pinyin":"meiyuan","name":"潍坊新村"},{"pinyin":"yangdong","name":"杨东"},{"pinyin":"yangjing","name":"洋泾"},{"pinyin":"yuanshenzhuyuan","name":"御桥"},{"pinyin":"zhangjiang","name":"张江"},{"pinyin":"zhoujiadu","name":"周家渡"},{"pinyin":"zhuyuansmq","name":"竹园商贸区"}]},{"pinyin":"changning","name":"长宁","regions":[{"pinyin":"beixinjing","name":"北新泾"},{"pinyin":"changningzhoubian","name":"长宁周边"},{"pinyin":"chengjiaqiao","name":"程家桥"},{"pinyin":"zhongshangongyuan","name":"地铁中山公园"},{"pinyin":"shdongwuyuan","name":"动物园"},{"pinyin":"gubei","name":"古北"},{"pinyin":"hongqiao","name":"虹桥路"},{"pinyin":"jiangsuluditie","name":"江苏路地铁"},{"pinyin":"shanghaiyingcheng","name":"上海影城"},{"pinyin":"tianshanlu","name":"天山路"},{"pinyin":"xianxiaxincun","name":"仙霞"},{"pinyin":"xijiaogongy","name":"西郊公园"},{"pinyin":"xinhualush","name":"新华路"},{"pinyin":"zhenning","name":"镇宁路"},{"pinyin":"zhoujiaqiao","name":"周家桥"}]},{"pinyin":"hongkou","name":"虹口","regions":[{"pinyin":"beiwaitan","name":"北外滩"},{"pinyin":"dabaishu","name":"大柏树"},{"pinyin":"haininglu","name":"海宁路"},{"pinyin":"hepinggongyuan","name":"和平公园"},{"pinyin":"hongkouzhoubian","name":"虹口周边"},{"pinyin":"hkzuqiuchang","name":"虹口足球场"},{"pinyin":"jiangwan","name":"江湾"},{"pinyin":"liangcheng","name":"凉城"},{"pinyin":"linpinglu","name":"临平路"},{"pinyin":"luxungongyuan","name":"鲁迅公园"},{"pinyin":"quyanglu","name":"曲阳路"},{"pinyin":"sichuanbeilu","name":"四川北路"},{"pinyin":"sipinglu","name":"四平路"},{"pinyin":"tilanqiao","name":"提篮桥"},{"pinyin":"zhoujiazui","name":"周家嘴路"}]},{"pinyin":"yangpu","name":"杨浦","regions":[{"pinyin":"anshansh","name":"鞍山"},{"pinyin":"changbxc","name":"长白新村"},{"pinyin":"changyanglu","name":"长阳路"},{"pinyin":"dongwaitan","name":"东外滩"},{"pinyin":"huangxinggongyuan","name":"黄兴"},{"pinyin":"jiangpulu","name":"江浦路"},{"pinyin":"kongjianglu","name":"控江路"},{"pinyin":"pinglianglu","name":"平凉路"},{"pinyin":"wujiaochang","name":"五角场"},{"pinyin":"xinhuayiyuansh","name":"新华医院"},{"pinyin":"xinjiangwancheng","name":"新江湾城"},{"pinyin":"daqiaosh","name":"杨浦大桥"},{"pinyin":"yangpugongyuan","name":"杨浦公园"},{"pinyin":"yangpuzhoubian","name":"杨浦周边"},{"pinyin":"yunguangfudan","name":"运光/复旦"},{"pinyin":"zhongyuansh","name":"中原"},{"pinyin":"zhoujiazuilu","name":"周家嘴路"}]},{"pinyin":"putuo","name":"普陀","regions":[{"pinyin":"caoyang","name":"曹杨"},{"pinyin":"changfenggongyuan","name":"长风公园"},{"pinyin":"changshoulu","name":"长寿路"},{"pinyin":"changzhengsh","name":"长征"},{"pinyin":"ganquanlu","name":"甘泉路"},{"pinyin":"guangxinsh","name":"光新"},{"pinyin":"huadongshida","name":"华东师大"},{"pinyin":"jiandehuayuan","name":"建德花园"},{"pinyin":"jinshajianglu","name":"金沙江路"},{"pinyin":"shlzy","name":"李子园"},{"pinyin":"putuozhoubian","name":"普陀周边"},{"pinyin":"qingfangshichang","name":"轻纺市场"},{"pinyin":"taopush","name":"桃浦"},{"pinyin":"wanlicheng","name":"万里城"},{"pinyin":"wuninglu","name":"武宁路"},{"pinyin":"yichuanlu","name":"宜川路"},{"pinyin":"zhenguangxincun","name":"真光"},{"pinyin":"zhenru","name":"真如"},{"pinyin":"zhongyuanliangwancheng","name":"中远两湾城"}]},{"pinyin":"zhabei","name":"闸北","regions":[{"pinyin":"baoshanlush","name":"宝山路"},{"pinyin":"changzhonglu","name":"场中路"},{"pinyin":"daninglu","name":"大宁路"},{"pinyin":"gonghexinlu","name":"共和新路"},{"pinyin":"hetiandiqu","name":"和田地区"},{"pinyin":"laobeizhan","name":"老北站"},{"pinyin":"pengpu","name":"彭浦"},{"pinyin":"tianmuxilu","name":"天目西路"},{"pinyin":"wenshuilu","name":"汶水路"},{"pinyin":"xizangbeilu","name":"西藏北路"},{"pinyin":"xinkezhan","name":"新客站"},{"pinyin":"yanchanglu","name":"延长路"},{"pinyin":"zhabeigongyuan","name":"闸北公园"},{"pinyin":"zhabeizhoubian","name":"闸北周边"},{"pinyin":"zhijiangxilu","name":"芷江西路"}]},{"pinyin":"minxing","name":"闵行","regions":[{"pinyin":"shbqqk","name":"北桥区快"},{"pinyin":"caobaolush","name":"漕宝路"},{"pinyin":"chunshensh","name":"春申"},{"pinyin":"donglanxincun","name":"东兰新村"},{"pinyin":"shfx","name":"凤溪"},{"pinyin":"gumeiluoyang","name":"古美罗阳"},{"pinyin":"hanghualongbai","name":"航华"},{"pinyin":"hongmeilu","name":"虹梅路"},{"pinyin":"hongqiaosh","name":"虹桥"},{"pinyin":"huacaosh","name":"华漕"},{"pinyin":"jiangchuanlu","name":"江川路"},{"pinyin":"jinganxincheng","name":"静安新城"},{"pinyin":"jinhongqiao","name":"金虹桥"},{"pinyin":"shjw","name":"纪王"},{"pinyin":"laominhang","name":"老闵行"},{"pinyin":"longbojinhui","name":"龙柏金汇"},{"pinyin":"maqiaozhen","name":"马桥"},{"pinyin":"meilongsh","name":"梅陇"},{"pinyin":"minxingzhoubian","name":"闵行周边"},{"pinyin":"nanfangshangcheng","name":"南方商城"},{"pinyin":"pujiangzhen","name":"浦江"},{"pinyin":"qiangweixincun","name":"蔷薇新村"},{"pinyin":"qibao","name":"七宝"},{"pinyin":"qixinlu","name":"七莘路"},{"pinyin":"xinzhuangsh","name":"莘庄"},{"pinyin":"xinzhuanggongyequ","name":"莘庄工业区"},{"pinyin":"wujingsh","name":"吴泾"},{"pinyin":"zhuanqiao","name":"颛桥"},{"pinyin":"shzz","name":"诸翟"}]},{"pinyin":"baoshan","name":"宝山","regions":[{"pinyin":"baoshanzhoubian","name":"宝山周边"},{"pinyin":"dachangsh","name":"大场"},{"pinyin":"dahualu","name":"大华路"},{"pinyin":"dongchengq","name":"东城区"},{"pinyin":"gaojingsh","name":"高境"},{"pinyin":"gongfuxincun","name":"共富新村"},{"pinyin":"gongkang","name":"共康"},{"pinyin":"gucunsh","name":"顾村"},{"pinyin":"jinqiuhuayuansh","name":"锦秋花园"},{"pinyin":"liux","name":"刘行"},{"pinyin":"luodiansh","name":"罗店"},{"pinyin":"luojinsh","name":"罗泾"},{"pinyin":"shln","name":"罗南"},{"pinyin":"shanghaidaxue","name":"上海大学"},{"pinyin":"shuichanlu","name":"水产路"},{"pinyin":"sitangxincun","name":"泗塘"},{"pinyin":"songbao","name":"淞宝"},{"pinyin":"songnansh","name":"淞南"},{"pinyin":"tonghexichengqu","name":"通河西城"},{"pinyin":"tonghexincun","name":"通河新村"},{"pinyin":"yanghangsh","name":"杨行"},{"pinyin":"youyilush","name":"友谊路"},{"pinyin":"yuepush","name":"月浦"},{"pinyin":"shiquanlu","name":"张庙"}]},{"pinyin":"jiading","name":"嘉定","regions":[{"pinyin":"anting","name":"安亭"},{"pinyin":"shcw","name":"曹王"},{"pinyin":"fengbing","name":"封浜"},{"pinyin":"fengzhuang","name":"丰庄"},{"pinyin":"huangdu","name":"黄渡"},{"pinyin":"shht","name":"华亭"},{"pinyin":"jiadingsh","name":"嘉定城区"},{"pinyin":"jiacheng","name":"嘉定新城"},{"pinyin":"jiadingzhoubian","name":"嘉定周边"},{"pinyin":"jiangqiao","name":"江桥新城"},{"pinyin":"jinhexincheng","name":"金鹤新城"},{"pinyin":"juyuanxinqu","name":"菊园新区"},{"pinyin":"shlt","name":"娄塘"},{"pinyin":"malu","name":"马陆"},{"pinyin":"nanxiang","name":"南翔"},{"pinyin":"shth","name":"唐行"},{"pinyin":"shwg","name":"外冈"},{"pinyin":"shxx","name":"徐行"},{"pinyin":"zhenxinxincun","name":"真新"},{"pinyin":"shzq","name":"朱桥"}]},{"pinyin":"qingpu","name":"青浦","regions":[{"pinyin":"baihe","name":"白鹤"},{"pinyin":"shhxz","name":"华新镇"},{"pinyin":"shjz","name":"金泽"},{"pinyin":"qingpubeib","name":"青浦北部"},{"pinyin":"shqpgyyq","name":"青浦工业园区"},{"pinyin":"qingpuxinc","name":"青浦新城"},{"pinyin":"qingpuzhoubian","name":"青浦周边"},{"pinyin":"shxhq","name":"香花桥"},{"pinyin":"shxyjd","name":"夏阳街道"},{"pinyin":"xujing","name":"徐泾"},{"pinyin":"shzt","name":"赵屯"},{"pinyin":"zhaoxiang","name":"赵巷"},{"pinyin":"chonggu","name":"重固"},{"pinyin":"zhujiajiao","name":"朱家角"}]},{"pinyin":"fengxiansh","name":"奉贤","regions":[{"pinyin":"jinhui","name":"金汇"},{"pinyin":"nanqiao","name":"南桥"},{"pinyin":"zhuangxing","name":"庄行"},{"pinyin":"fengchengsh","name":"奉城"},{"pinyin":"zhelin","name":"柘林"},{"pinyin":"haiwan","name":"海湾"},{"pinyin":"haiwanlvyouqu","name":"海湾旅游区"},{"pinyin":"xidu","name":"西渡"},{"pinyin":"fengxianzhoubian","name":"奉贤周边"}]},{"pinyin":"nanhui","name":"南汇","regions":[{"pinyin":"kangqiao","name":"康桥"},{"pinyin":"nanpu","name":"周浦"},{"pinyin":"zhuqiao","name":"祝桥"},{"pinyin":"huinan","name":"惠南"},{"pinyin":"xinchangsh","name":"新场"},{"pinyin":"hangtou","name":"航头"},{"pinyin":"nicheng","name":"泥城"},{"pinyin":"luchaogang","name":"芦潮港"},{"pinyin":"nanhuizhoubian","name":"南汇周边"}]},{"pinyin":"chongming","name":"崇明","regions":[{"pinyin":"chengqiao","name":"城桥"},{"pinyin":"puzhen","name":"堡镇"},{"pinyin":"chenjia","name":"陈家"},{"pinyin":"shcxd","name":"长兴岛"},{"pinyin":"chongmingzhoubian","name":"崇明周边"}]},{"pinyin":"jinshan","name":"金山","regions":[{"pinyin":"fengjing","name":"枫泾"},{"pinyin":"zhujing","name":"朱泾"},{"pinyin":"tinglin","name":"亭林"},{"pinyin":"caojing","name":"漕泾"},{"pinyin":"jinshanwei","name":"金山新城"},{"pinyin":"jinshanzhongb","name":"金山中部"},{"pinyin":"jinshanzhoubian","name":"金山周边"}]},{"pinyin":"songjiang","name":"松江","regions":[{"pinyin":"chedun","name":"车墩"},{"pinyin":"shdg","name":"大港"},{"pinyin":"dongjing","name":"洞泾"},{"pinyin":"fangsong","name":"方松"},{"pinyin":"jiuting","name":"九亭"},{"pinyin":"shliantang","name":"练塘"},{"pinyin":"shmg","name":"泖港"},{"pinyin":"shrb","name":"茸北"},{"pinyin":"xinmin","name":"莘闵"},{"pinyin":"sheshan","name":"佘山"},{"pinyin":"shshd","name":"石湖荡"},{"pinyin":"sijing","name":"泗泾"},{"pinyin":"shdaxuecheng","name":"松江大学城"},{"pinyin":"songjianggongyequ","name":"松江工业区"},{"pinyin":"songjiangkejiyuan","name":"松江科技园"},{"pinyin":"songjianglaocheng","name":"松江老城"},{"pinyin":"songjiangxincheng","name":"松江新城"},{"pinyin":"songjiangzhoubian","name":"松江周边"},{"pinyin":"shtahui","name":"塔汇"},{"pinyin":"shxks","name":"小昆山"},{"pinyin":"xinbing","name":"新浜"},{"pinyin":"xinqiao","name":"新桥"},{"pinyin":"yexie","name":"叶榭"},{"pinyin":"yongfeng","name":"永丰"},{"pinyin":"yueyangsh","name":"岳阳"},{"pinyin":"zhongshansh","name":"中山"}]},{"pinyin":"shanghaizhoubian","name":"上海周边","regions":[]}]},{"cname":"广州","cen":"gz","districts":[{"pinyin":"tianhe","name":"天河","regions":[{"pinyin":"gzcencun","name":"岑村"},{"pinyin":"gzcb","name":"长湴"},{"pinyin":"changxinggz","name":"长兴"},{"pinyin":"chebei","name":"车陂"},{"pinyin":"chengjiec","name":"程介村"},{"pinyin":"gzdguanz","name":"东莞庄"},{"pinyin":"dongpu","name":"东圃"},{"pinyin":"gangding","name":"岗顶"},{"pinyin":"gzdadaozhong","name":"广州大道中"},{"pinyin":"huajinglu","name":"华景路"},{"pinyin":"huajingxincheng","name":"华景新城"},{"pinyin":"huangcun","name":"黄村"},{"pinyin":"huangpudadaoxi","name":"黄埔大道西"},{"pinyin":"qianjin","name":"骏景路"},{"pinyin":"kemulang","name":"柯木塱"},{"pinyin":"liede","name":"猎德"},{"pinyin":"linhe","name":"林和"},{"pinyin":"longdonggz","name":"龙洞"},{"pinyin":"longkoudong","name":"龙口东"},{"pinyin":"xinghuagz","name":"龙口西"},{"pinyin":"gzshahe","name":"沙河"},{"pinyin":"shangshe","name":"上社"},{"pinyin":"shatainan","name":"沙太南"},{"pinyin":"shipai","name":"石牌"},{"pinyin":"gztdnl","name":"棠德南路"},{"pinyin":"gztd","name":"棠东"},{"pinyin":"tangxia","name":"棠下"},{"pinyin":"tianhebei","name":"天河北"},{"pinyin":"shadong","name":"天河东路"},{"pinyin":"tianhegongyuan","name":"天河公园"},{"pinyin":"tianyuangz","name":"天河客运站"},{"pinyin":"tianhenan","name":"天河南"},{"pinyin":"tianhenanerlu","name":"天河南二路"},{"pinyin":"tianhenanyilu","name":"天河南一路"},{"pinyin":"tianhezhoubian","name":"天河周边"},{"pinyin":"tianpingjia","name":"天平架"},{"pinyin":"tiyuxilu","name":"体育西路"},{"pinyin":"tiyuzx","name":"体育中心"},{"pinyin":"wushan","name":"五山"},{"pinyin":"xiancun","name":"冼村"},{"pinyin":"xintang","name":"小新塘"},{"pinyin":"gzyt","name":"燕塘"},{"pinyin":"yuancun","name":"员村"},{"pinyin":"yuancunerhl","name":"员村二横路"},{"pinyin":"yuancunsihl","name":"员村四横路"},{"pinyin":"houtianhebei","name":"粤垦"},{"pinyin":"zhongshandadao","name":"中山大道"},{"pinyin":"gzzhucun","name":"珠村"},{"pinyin":"zhujigz","name":"珠吉"},{"pinyin":"yuangang","name":"珠江大道"},{"pinyin":"zhujiangxincheng","name":"珠江新城"}]},{"pinyin":"haizhu","name":"海珠","regions":[{"pinyin":"baogang","name":"宝岗"},{"pinyin":"baoyelu","name":"宝业路"},{"pinyin":"bingjiandong","name":"滨江东"},{"pinyin":"binjiangx","name":"滨江西"},{"pinyin":"binjianggz","name":"滨江中"},{"pinyin":"changgang","name":"昌岗"},{"pinyin":"chigang","name":"赤岗"},{"pinyin":"gzdongxiao","name":"东晓"},{"pinyin":"dongxiaon","name":"东晓南"},{"pinyin":"gexinlu","name":"革新路"},{"pinyin":"gongyedadao","name":"工业大道北"},{"pinyin":"gongyedadaon","name":"工业大道南"},{"pinyin":"gongyeddz","name":"工业大道中"},{"pinyin":"guangzhoudadaonan","name":"广州大道南"},{"pinyin":"guanzhou","name":"官洲"},{"pinyin":"haizhuang","name":"海幢"},{"pinyin":"haizhuzhoubian","name":"海珠周边"},{"pinyin":"hongde","name":"洪德"},{"pinyin":"huazhougz","name":"华洲"},{"pinyin":"jiangnandadaonan","name":"江南大道南"},{"pinyin":"jiangnanddz","name":"江南大道中"},{"pinyin":"jiangnanxi","name":"江南西"},{"pinyin":"jiangyanlu","name":"江燕路"},{"pinyin":"kecun","name":"客村"},{"pinyin":"llijiao","name":"沥滘"},{"pinyin":"nanhuaxi","name":"南华西"},{"pinyin":"nanshitou","name":"南石头"},{"pinyin":"nantianlu","name":"南田路"},{"pinyin":"nanzhou","name":"南洲"},{"pinyin":"pazhou","name":"琶洲"},{"pinyin":"fengyang","name":"前进路"},{"pinyin":"ruibao","name":"瑞宝"},{"pinyin":"shangdulu","name":"上渡路"},{"pinyin":"shayuan","name":"沙园"},{"pinyin":"xiadulu","name":"下渡路"},{"pinyin":"xiaoganghz","name":"晓港"},{"pinyin":"xingangdong","name":"新港东"},{"pinyin":"xingangxi","name":"新港西"},{"pinyin":"xingang","name":"新港中"},{"pinyin":"sushe","name":"怡乐路"},{"pinyin":"longfenggz","name":"中大"}]},{"pinyin":"yuexiu","name":"越秀","regions":[{"pinyin":"bailinglu","name":"百灵路"},{"pinyin":"baiyungz","name":"白云"},{"pinyin":"beijinglu","name":"北京路"},{"pinyin":"dadonggz","name":"大东"},{"pinyin":"dananlu","name":"大南路"},{"pinyin":"dashatou","name":"大沙头"},{"pinyin":"dezhenglu","name":"德政路"},{"pinyin":"dongchuan","name":"东川"},{"pinyin":"dongfengdong","name":"东风东"},{"pinyin":"dongfenggz","name":"东风路"},{"pinyin":"guangzhoudonghu","name":"东湖"},{"pinyin":"donghualu","name":"东华路"},{"pinyin":"dongshankou","name":"东山口"},{"pinyin":"ershadao","name":"二沙岛"},{"pinyin":"gonghelu","name":"共和路"},{"pinyin":"guangwei","name":"广卫"},{"pinyin":"haizhubl","name":"海珠北路"},{"pinyin":"haizhugc","name":"海珠广场"},{"pinyin":"hongqiaogz","name":"洪桥"},{"pinyin":"huale","name":"华乐"},{"pinyin":"huanghuagang","name":"黄花岗"},{"pinyin":"huanshidong","name":"环市东"},{"pinyin":"guangzhoujianshe","name":"建设路"},{"pinyin":"jiefangbeilu","name":"解放北"},{"pinyin":"jiefangnanlu","name":"解放南"},{"pinyin":"liuhua","name":"流花"},{"pinyin":"liurong","name":"六榕"},{"pinyin":"lujinglu","name":"麓景路"},{"pinyin":"meihuacun","name":"梅花村"},{"pinyin":"nongjiangsuo","name":"农讲所"},{"pinyin":"nonglinxialu","name":"农林下路"},{"pinyin":"panfulu","name":"盘福路"},{"pinyin":"qiyilu","name":"起义路"},{"pinyin":"shuiyin","name":"水荫路"},{"pinyin":"taojin","name":"淘金"},{"pinyin":"wenminglu","name":"文明路"},{"pinyin":"wujiaoxincheng","name":"五羊新城"},{"pinyin":"xiaobei","name":"小北"},{"pinyin":"xmk","name":"西门口"},{"pinyin":"yangqicun","name":"杨箕村"},{"pinyin":"yuexiunan","name":"越秀南"},{"pinyin":"yuexiuzhoubian","name":"越秀周边"},{"pinyin":"zhongshanlugz","name":"中山路"}]},{"pinyin":"baiyun","name":"白云","regions":[{"pinyin":"baiyundadaobei","name":"白云大道北"},{"pinyin":"baiyundadaonan","name":"白云大道南"},{"pinyin":"baiyunzhoubian","name":"白云周边"},{"pinyin":"gzdongping","name":"东平"},{"pinyin":"guanghuagz","name":"广花"},{"pinyin":"guangyuanlu","name":"广园路"},{"pinyin":"guangzhouddb","name":"广州大道北"},{"pinyin":"guihuagang","name":"桂花岗"},{"pinyin":"songzhou","name":"黄边"},{"pinyin":"huangshigz","name":"黄石"},{"pinyin":"gzby","name":"黄庄"},{"pinyin":"jiahewangg","name":"嘉禾望岗"},{"pinyin":"gzjgaozhen","name":"江高镇"},{"pinyin":"jichanglu","name":"机场路"},{"pinyin":"jingtai","name":"景泰"},{"pinyin":"jingxi","name":"京溪"},{"pinyin":"jinsha","name":"金沙洲"},{"pinyin":"jiufo","name":"九佛"},{"pinyin":"longgui","name":"龙归"},{"pinyin":"luochongwei","name":"罗冲围"},{"pinyin":"meihuayuan","name":"梅花园"},{"pinyin":"yongping","name":"南湖"},{"pinyin":"renhe","name":"人和"},{"pinyin":"sanyuanli","name":"三元里"},{"pinyin":"shataibei","name":"沙太北"},{"pinyin":"shataizhong","name":"沙太中"},{"pinyin":"shijing","name":"石井"},{"pinyin":"taihe","name":"太和"},{"pinyin":"tangjing","name":"棠景"},{"pinyin":"tianhebeiyuan","name":"天河北苑"},{"pinyin":"tongde","name":"同德围"},{"pinyin":"tonghe","name":"同和"},{"pinyin":"wuxianqiao","name":"伍仙桥"},{"pinyin":"xichalu","name":"西槎路"},{"pinyin":"xinshigz","name":"新市"},{"pinyin":"yongtai","name":"永泰"},{"pinyin":"yuanjinglu","name":"远景路"},{"pinyin":"zengchalu","name":"增槎路"},{"pinyin":"zhongluotan","name":"钟落潭"},{"pinyin":"cailiao","name":"竹料"}]},{"pinyin":"liwan","name":"荔湾","regions":[{"pinyin":"baietan","name":"白鹅潭"},{"pinyin":"caihong","name":"彩虹"},{"pinyin":"chenjiaci","name":"陈家祠"},{"pinyin":"diyijinjie","name":"第一津街"},{"pinyin":"dongfengxi","name":"东风西"},{"pinyin":"duobaolu","name":"多宝路"},{"pinyin":"fangcun","name":"芳村"},{"pinyin":"fangcunddx","name":"芳村大道西"},{"pinyin":"fengyuanlu","name":"逢源路"},{"pinyin":"guangfubeilu","name":"光复北路"},{"pinyin":"huadiwan","name":"花地湾"},{"pinyin":"hualin","name":"华林"},{"pinyin":"huangqi","name":"黄岐"},{"pinyin":"huangsha","name":"黄沙"},{"pinyin":"huanshixi","name":"环市西"},{"pinyin":"huifulu","name":"惠福路"},{"pinyin":"baihedong","name":"窖口"},{"pinyin":"kangwanglu","name":"康王路"},{"pinyin":"kkou","name":"坑口"},{"pinyin":"liwanlu","name":"荔湾路"},{"pinyin":"liwanqu","name":"荔湾周边"},{"pinyin":"longjin","name":"龙津"},{"pinyin":"nanyuangz","name":"南岸路"},{"pinyin":"qiaozhong","name":"桥中"},{"pinyin":"gzrenminlu","name":"人民路"},{"pinyin":"shamian","name":"沙面"},{"pinyin":"xicun","name":"西村"},{"pinyin":"xidiermalu","name":"西堤二马路"},{"pinyin":"xiguan","name":"西关"},{"pinyin":"xihualu","name":"西华路"},{"pinyin":"jinhuagz","name":"西门口"},{"pinyin":"yanbu","name":"盐步"},{"pinyin":"zhanqianlu","name":"站前路"},{"pinyin":"zhongshanbalu","name":"中山八路"},{"pinyin":"zhoumen","name":"周门"}]},{"pinyin":"panyu","name":"番禺","regions":[{"pinyin":"dashi","name":"大石"},{"pinyin":"gzdaxuecheng","name":"大学城"},{"pinyin":"panyuzhoubian","name":"番禺周边"},{"pinyin":"gzfhsz","name":"富豪山庄"},{"pinyin":"huananbankuai","name":"华南"},{"pinyin":"gzhnbgy","name":"华南碧桂园"},{"pinyin":"gzjsg","name":"金山谷"},{"pinyin":"luoxi","name":"洛溪"},{"pinyin":"gzncz","name":"南村镇"},{"pinyin":"nanpugz","name":"南浦"},{"pinyin":"qiaonan","name":"桥南"},{"pinyin":"qifu","name":"祈福"},{"pinyin":"shawangz","name":"沙湾"},{"pinyin":"shiji","name":"石碁"},{"pinyin":"shilou","name":"石楼"},{"pinyin":"shiqiao","name":"市桥"},{"pinyin":"sqb","name":"市桥北"},{"pinyin":"shundebgy","name":"顺德碧桂园"},{"pinyin":"xiah","name":"厦滘"},{"pinyin":"gzyjl","name":"雅居乐"},{"pinyin":"gzyyc","name":"亚运城"},{"pinyin":"zhongcun","name":"钟村"}]},{"pinyin":"huangpugz","name":"黄埔","regions":[{"pinyin":"gzdsd","name":"大沙地"},{"pinyin":"huangpuqf","name":"黄埔区府"},{"pinyin":"gzhpxc","name":"黄埔新村"},{"pinyin":"kaifaqudong","name":"开发区东"},{"pinyin":"kaifaquxi","name":"开发区西"},{"pinyin":"gzmt","name":"庙头"},{"pinyin":"gzshl","name":"石化路"},{"pinyin":"wenchong","name":"文冲"},{"pinyin":"gzxs","name":"下沙"},{"pinyin":"gzxy","name":"夏园"},{"pinyin":"gzyz","name":"渔珠"}]},{"pinyin":"huadugz","name":"花都","regions":[{"pinyin":"jiuqu","name":"旧区"},{"pinyin":"jianshelugz","name":"建设路"},{"pinyin":"shiling","name":"狮岭"},{"pinyin":"shanqiandd","name":"山前大道"},{"pinyin":"xinqu","name":"新区"},{"pinyin":"gzjhdd","name":"镜湖大道"},{"pinyin":"gztlx","name":"铁路西"},{"pinyin":"huaduzhoubian","name":"花都周边"}]},{"pinyin":"zengcheng","name":"增城","regions":[{"pinyin":"lichenggz","name":"荔城"},{"pinyin":"xintanggz","name":"新塘"},{"pinyin":"gangkoudadao","name":"港口大道"},{"pinyin":"guangyuandong","name":"广园东"},{"pinyin":"gzxtn","name":"新塘南"},{"pinyin":"gzfenghc","name":"凤凰城"},{"pinyin":"gzyh","name":"永和"},{"pinyin":"gzzxz","name":"中新镇"},{"pinyin":"zengchengzhoubian","name":"增城周边"}]},{"pinyin":"luoganggz","name":"萝岗","regions":[{"pinyin":"kaifaxq","name":"开发西区"},{"pinyin":"kaifadq","name":"开发东区"},{"pinyin":"luogangg","name":"萝岗"},{"pinyin":"baolixxs","name":"保利香雪山"},{"pinyin":"kaichuangddb","name":"开创大道北"},{"pinyin":"luogangzhoubian","name":"萝岗周边"}]},{"pinyin":"dongguanqu","name":"东莞","regions":[{"pinyin":"dongchenggz","name":"东城"},{"pinyin":"nanchenggz","name":"南城"},{"pinyin":"guanchenggz","name":"莞城"},{"pinyin":"humengz","name":"虎门"},{"pinyin":"changangz","name":"长安"},{"pinyin":"houjiegz","name":"厚街"}]},{"pinyin":"foshanqu","name":"佛山","regions":[{"pinyin":"nanhaigz","name":"南海"},{"pinyin":"shancheng","name":"禅城"},{"pinyin":"gaominggz","name":"高明"},{"pinyin":"shundegz","name":"顺德"},{"pinyin":"sanshuigz","name":"三水"},{"pinyin":"tangxiagz","name":"塘厦"},{"pinyin":"qingxigz","name":"清溪"}]},{"pinyin":"nsha","name":"南沙","regions":[]},{"pinyin":"conghua","name":"从化","regions":[{"pinyin":"gzjkzxq","name":"街口中心区"}]},{"pinyin":"nanshagz","name":"南沙","regions":[]},{"pinyin":"jingjikaifaqu","name":"经济开发区","regions":[]},{"pinyin":"guangzhouzhoubian","name":"广州周边","regions":[]}]},{"cname":"深圳","cen":"sz","districts":[{"pinyin":"luohu","name":"罗湖","regions":[{"pinyin":"buxin","name":"布心"},{"pinyin":"caiwuwei","name":"蔡屋围"},{"pinyin":"caopu","name":"草埔"},{"pinyin":"cuizhu","name":"翠竹"},{"pinyin":"donghudb","name":"东湖"},{"pinyin":"dongmen","name":"东门"},{"pinyin":"dushucun","name":"独树村"},{"pinyin":"guomaodb","name":"国贸"},{"pinyin":"hongganghuayuan","name":"红岗花园"},{"pinyin":"honghudb","name":"洪湖"},{"pinyin":"huangbeiling","name":"黄贝岭"},{"pinyin":"huochezhandb","name":"火车站"},{"pinyin":"liantang","name":"莲塘"},{"pinyin":"liuyibu","name":"留医部"},{"pinyin":"luohuquwei","name":"罗湖区委"},{"pinyin":"luohuzhoubian","name":"罗湖周边"},{"pinyin":"nigang","name":"泥岗"},{"pinyin":"qingshuihedb","name":"清水河"},{"pinyin":"renminnan","name":"人民南"},{"pinyin":"shuibei","name":"水贝"},{"pinyin":"shuiku","name":"水库"},{"pinyin":"sungang","name":"笋岗"},{"pinyin":"tianbei","name":"田贝"},{"pinyin":"wenjindu","name":"文锦渡"},{"pinyin":"yinhu","name":"银湖"}]},{"pinyin":"futian","name":"福田","regions":[{"pinyin":"bagualing","name":"八卦岭"},{"pinyin":"baoshuiqu","name":"保税区"},{"pinyin":"bijiashan","name":"笔架山"},{"pinyin":"caitiancun","name":"彩田村"},{"pinyin":"chegongmiao","name":"车公庙"},{"pinyin":"chiwei","name":"赤尾"},{"pinyin":"fuhuaxincun","name":"福华新村"},{"pinyin":"fuminxincun","name":"福民新村"},{"pinyin":"futianquwei","name":"福田区委"},{"pinyin":"futianzhoubian","name":"福田周边"},{"pinyin":"gangxia","name":"岗厦"},{"pinyin":"gouwugongyuan","name":"购物公园"},{"pinyin":"huanggang","name":"皇岗"},{"pinyin":"huaqiang","name":"华强北"},{"pinyin":"huaqiangnan","name":"华强南"},{"pinyin":"jingtian","name":"景田"},{"pinyin":"lianhuabeicun","name":"莲花北村"},{"pinyin":"lianhuaercun","name":"莲花二村"},{"pinyin":"lianhuasancun","name":"莲花三村"},{"pinyin":"lianhua","name":"莲花一村"},{"pinyin":"lizhigongyuan","name":"荔枝公园"},{"pinyin":"shangbu","name":"上步"},{"pinyin":"meilin","name":"上梅林"},{"pinyin":"shangsha","name":"上沙"},{"pinyin":"shawei","name":"沙尾"},{"pinyin":"shazui","name":"沙嘴"},{"pinyin":"shixia","name":"石厦"},{"pinyin":"xiameilin","name":"下梅林"},{"pinyin":"xiangmihu","name":"香蜜湖"},{"pinyin":"xiasha","name":"下沙"},{"pinyin":"szxinzhou","name":"新洲"},{"pinyin":"yitiancun","name":"益田村"},{"pinyin":"yuanlingdb","name":"园岭"},{"pinyin":"zhongxinqu","name":"中心区"},{"pinyin":"zhuzilin","name":"竹子林"}]},{"pinyin":"nanshan","name":"南山","regions":[{"pinyin":"baishizhou","name":"白石洲"},{"pinyin":"dachong","name":"大冲"},{"pinyin":"guimiaolukou","name":"桂庙路口"},{"pinyin":"haishangshijie","name":"海上世界"},{"pinyin":"haiwangdasha","name":"海王大厦"},{"pinyin":"houhai","name":"后海"},{"pinyin":"huaqiaocheng","name":"华侨城"},{"pinyin":"kejiyuan","name":"科技园"},{"pinyin":"nanshanquzhengfu","name":"南山区政府"},{"pinyin":"nanshanyiyuan","name":"南山医院"},{"pinyin":"nanshanzhoubian","name":"南山周边"},{"pinyin":"nantou","name":"南头"},{"pinyin":"nanxinlukou","name":"南新路口"},{"pinyin":"nanyou","name":"南油"},{"pinyin":"qianhai","name":"前海"},{"pinyin":"shekou","name":"蛇口"},{"pinyin":"shendabeimen","name":"深大北门"},{"pinyin":"shenzw","name":"深圳湾"},{"pinyin":"taoyuancun","name":"桃源村"},{"pinyin":"xililu","name":"西丽"},{"pinyin":"szzhongxinqu","name":"中心区"}]},{"pinyin":"yantian","name":"盐田","regions":[{"pinyin":"shatoujiao","name":"沙头角"},{"pinyin":"yantiandb","name":"盐田"},{"pinyin":"meisha","name":"大梅沙"},{"pinyin":"xiaomeisha","name":"小梅沙"},{"pinyin":"yantianzhoubian","name":"盐田周边"}]},{"pinyin":"baoan","name":"宝安","regions":[{"pinyin":"baoanlu","name":"宝安"},{"pinyin":"baoanzhongxinquba","name":"宝安中心区"},{"pinyin":"baoanzhoubian","name":"宝安周边"},{"pinyin":"fanshenlu","name":"翻身路"},{"pinyin":"fuyong","name":"福永"},{"pinyin":"shajing","name":"沙井"},{"pinyin":"shiyansz","name":"石岩"},{"pinyin":"songgang","name":"松岗"},{"pinyin":"taoyuanju","name":"桃源居"},{"pinyin":"xinanlu","name":"新安"},{"pinyin":"xinzhongxinqu","name":"新中心区"},{"pinyin":"xixiangsz","name":"西乡"}]},{"pinyin":"longgang","name":"龙岗区","regions":[{"pinyin":"henggang","name":"横岗"},{"pinyin":"longg","name":"龙岗"},{"pinyin":"bantianq","name":"坂田"},{"pinyin":"longgangzhongxincheng","name":"龙岗中心城"},{"pinyin":"szpinghu","name":"平湖"},{"pinyin":"pingdi","name":"坪地"},{"pinyin":"dayunxc","name":"大运新城"},{"pinyin":"wankc","name":"万科城"},{"pinyin":"longgangzhoubian","name":"龙岗周边"}]},{"pinyin":"buji","name":"布吉","regions":[{"pinyin":"keyuan","name":"百鸽笼"},{"pinyin":"bujiguan","name":"布吉关"},{"pinyin":"bujijie","name":"布吉街"},{"pinyin":"bujizhoubian","name":"布吉周边"},{"pinyin":"longzhuhuayuan","name":"长龙"},{"pinyin":"dafencun","name":"大芬村"},{"pinyin":"szshawan","name":"丹竹头"},{"pinyin":"kangqiaohuayuan","name":"康桥"},{"pinyin":"szssj","name":"丽湖"},{"pinyin":"szmmw","name":"木棉湾"},{"pinyin":"sznl","name":"南岭"},{"pinyin":"szxsj","name":"下水径"},{"pinyin":"longzhy","name":"信义"},{"pinyin":"szyyc","name":"又一村"},{"pinyin":"szzhyc","name":"中海怡翠"}]},{"pinyin":"pingshanxinqu","name":"坪山新区","regions":[{"pinyin":"pingsh","name":"坪山"},{"pinyin":"kexin","name":"坑梓"},{"pinyin":"pingshanzb","name":"坪山新区周边"}]},{"pinyin":"guangmingxinqu","name":"光明新区","regions":[]},{"pinyin":"szlhxq","name":"龙华新区","regions":[{"pinyin":"szdl","name":"大浪"},{"pinyin":"guanlansz","name":"观澜"},{"pinyin":"szjdmlz","name":"金地梅陇镇"},{"pinyin":"szjxjn","name":"锦绣江南"},{"pinyin":"szlmsxct","name":"莱蒙水榭春天"},{"pinyin":"longhua","name":"龙华"},{"pinyin":"szlhzxq","name":"龙华中心区"},{"pinyin":"szlhzb","name":"龙华周边"},{"pinyin":"meilihy","name":"美丽365花园"},{"pinyin":"meilinguankou","name":"梅林关口"},{"pinyin":"minzhi","name":"民治"},{"pinyin":"szszbz","name":"深圳北站"},{"pinyin":"szsjcc","name":"世纪春城"}]},{"pinyin":"dapengxq","name":"大鹏新区","regions":[{"pinyin":"dapeng","name":"大鹏"},{"pinyin":"nan","name":"南澳"},{"pinyin":"kuiyong","name":"葵涌"},{"pinyin":"dapengzb","name":"大鹏新区周边"}]},{"pinyin":"shenzhenzhoubian","name":"深圳周边","regions":[]}]},{"cname":"成都","cen":"cd","districts":[{"pinyin":"wuhou","name":"武侯","regions":[{"pinyin":"cdcd","name":"川大"},{"pinyin":"cdcy","name":"川音"},{"pinyin":"cuqiao","name":"簇桥"},{"pinyin":"fangcaojie","name":"芳草街"},{"pinyin":"gaopanlu","name":"高攀路"},{"pinyin":"gaoshengqiao","name":"高升桥"},{"pinyin":"guangfuqiao","name":"广福桥"},{"pinyin":"hangkonglu","name":"航空路"},{"pinyin":"cdhwj","name":"好望角"},{"pinyin":"hongpailou","name":"红牌楼"},{"pinyin":"cdhws","name":"红瓦寺"},{"pinyin":"huochenanzhan","name":"火车南站"},{"pinyin":"jinhuazhen","name":"金花镇"},{"pinyin":"jitouzhen","name":"机投镇"},{"pinyin":"kehualu","name":"科华路"},{"pinyin":"moziqiao","name":"磨子桥"},{"pinyin":"shuangnan","name":"内双楠"},{"pinyin":"qingshuihecd","name":"清水河"},{"pinyin":"cdsez","name":"十二中"},{"pinyin":"tiaosanta","name":"跳伞塔"},{"pinyin":"tongxinlin","name":"桐梓林"},{"pinyin":"jinyangjie","name":"外双楠"},{"pinyin":"wangjianglu","name":"望江路"},{"pinyin":"wudahuayuan","name":"五大花园"},{"pinyin":"wuhousidajie","name":"武侯祠大街"},{"pinyin":"wuhouzhoubian","name":"武侯周边"},{"pinyin":"cdxiaojiahe","name":"肖家河"},{"pinyin":"xiaotianzujie","name":"小天竺街"},{"pinyin":"ximianqiao","name":"洗面桥"},{"pinyin":"yiguanmiao","name":"衣冠庙"},{"pinyin":"yulins","name":"玉林"},{"pinyin":"zongb","name":"棕北"},{"pinyin":"zhongn","name":"棕南"}]},{"pinyin":"jinjiang","name":"锦江","regions":[{"pinyin":"chengrenlu","name":"成仁路"},{"pinyin":"chuanshi","name":"川师"},{"pinyin":"chunxilu","name":"春熙路"},{"pinyin":"cddcs","name":"大慈寺"},{"pinyin":"cddg","name":"大观"},{"pinyin":"cddongdajie","name":"东大街"},{"pinyin":"dongguangxq","name":"东光小区"},{"pinyin":"cddjc","name":"东教场"},{"pinyin":"haijiaoshi","name":"海椒市"},{"pinyin":"hejiangting","name":"合江亭"},{"pinyin":"hongxinglu","name":"红星路"},{"pinyin":"jingjusi","name":"静居寺"},{"pinyin":"jinjiangqu","name":"锦江周边"},{"pinyin":"jiuyanqiao","name":"九眼桥"},{"pinyin":"lianguilu","name":"莲桂路"},{"pinyin":"longzhoulu","name":"龙舟路"},{"pinyin":"niushalu","name":"牛沙路"},{"pinyin":"niushikou","name":"牛市口"},{"pinyin":"niuwangmiao","name":"牛王庙"},{"pinyin":"sanshengxiang","name":"三圣乡"},{"pinyin":"cdshb","name":"沙河堡"},{"pinyin":"shuizhanhe","name":"水碾河"},{"pinyin":"cdwanda","name":"万达"},{"pinyin":"xinnanmen","name":"新南门"},{"pinyin":"yanshikou","name":"盐市口"}]},{"pinyin":"chenghua","name":"成华","regions":[{"pinyin":"balizhuangcd","name":"八里小区"},{"pinyin":"caifuyouyicheng","name":"财富又一城"},{"pinyin":"chenghuaqu","name":"成华周边"},{"pinyin":"chengylj","name":"成渝立交"},{"pinyin":"cuijiadian","name":"崔家店"},{"pinyin":"cddongfenglu","name":"东风路"},{"pinyin":"cddwy","name":"动物园"},{"pinyin":"erxianqiao","name":"二仙桥"},{"pinyin":"fuqinglu","name":"府青路"},{"pinyin":"huaisd","name":"槐树店"},{"pinyin":"cdhcdz","name":"火车东站"},{"pinyin":"jianshelu","name":"建设路"},{"pinyin":"longtansi","name":"龙潭寺"},{"pinyin":"mengzhuiwan","name":"猛追湾"},{"pinyin":"qinglongchang","name":"青龙场"},{"pinyin":"cdsbq","name":"杉板桥"},{"pinyin":"shengdenglu","name":"圣灯路"},{"pinyin":"shilidian","name":"十里店"},{"pinyin":"shuangll","name":"双林路"},{"pinyin":"shuangqiaozi","name":"双桥子"},{"pinyin":"simaqiao","name":"驷马桥"},{"pinyin":"smguangc","name":"SM广场"},{"pinyin":"wannianchang","name":"万年场"},{"pinyin":"wuguiqiao","name":"五桂桥"},{"pinyin":"xinhonglu","name":"新鸿路"},{"pinyin":"xinhuagongyuan","name":"新华公园"}]},{"pinyin":"jinniu","name":"金牛","regions":[{"pinyin":"chadianzi","name":"茶店子"},{"pinyin":"fuqin","name":"抚琴小区"},{"pinyin":"guob","name":"国宾"},{"pinyin":"hehuachi","name":"荷花池"},{"pinyin":"huangzhongcd","name":"黄忠"},{"pinyin":"cdhuanlegu","name":"欢乐谷"},{"pinyin":"huapaifang","name":"花牌坊"},{"pinyin":"huochebeizhan","name":"火车北站"},{"pinyin":"jiaodalu","name":"交大路"},{"pinyin":"cdjnwd","name":"金牛万达"},{"pinyin":"jinniuzhoubian","name":"金牛周边"},{"pinyin":"jiulidi","name":"九里堤"},{"pinyin":"liangjiaxiang","name":"梁家巷"},{"pinyin":"lijiatuo","name":"李家沱"},{"pinyin":"caojiagang","name":"马鞍路"},{"pinyin":"renminbeilu","name":"人民北路"},{"pinyin":"shaheyuan","name":"沙河源"},{"pinyin":"shawancd","name":"沙湾"},{"pinyin":"shuhanlu","name":"蜀汉路"},{"pinyin":"wuks","name":"五块石"},{"pinyin":"yingmenkou","name":"营门口"},{"pinyin":"cdys","name":"银沙"},{"pinyin":"yipintianxia","name":"一品天下"}]},{"pinyin":"qingyangqu","name":"青羊","regions":[{"pinyin":"babaojie","name":"八宝街"},{"pinyin":"baiguolin","name":"白果林"},{"pinyin":"beisen","name":"贝森"},{"pinyin":"caoshijie","name":"草市街"},{"pinyin":"caotang","name":"草堂"},{"pinyin":"changshunjie","name":"长顺街"},{"pinyin":"funan","name":"府南新区"},{"pinyin":"huanhuaxiaoqu","name":"浣花小区"},{"pinyin":"jinshacd","name":"金沙"},{"pinyin":"neiguanghua","name":"内光华"},{"pinyin":"ningxiajie","name":"宁夏街"},{"pinyin":"qingyangqita","name":"青羊周边"},{"pinyin":"renmingongy","name":"人民公园"},{"pinyin":"cdshiren","name":"石人"},{"pinyin":"shunchengjie","name":"顺城街"},{"pinyin":"taishenglu","name":"太升路"},{"pinyin":"tianfuguangchang","name":"天府广场"},{"pinyin":"tongrenlu","name":"同仁路"},{"pinyin":"guanghua","name":"外光华"},{"pinyin":"cdwaijinsha","name":"外金沙"},{"pinyin":"wenshufang","name":"文殊坊"},{"pinyin":"tiemenkan","name":"西南财大区"},{"pinyin":"xinchengshigc","name":"新城市广场"},{"pinyin":"xiyuechengjie","name":"西月城街"},{"pinyin":"zhongyifuyuan","name":"中医附院"}]},{"pinyin":"dujiangyanshi","name":"都江堰","regions":[{"pinyin":"cddujyancq","name":"都江堰城区"},{"pinyin":"cdqingchengshan","name":"青城山"},{"pinyin":"cdhongkou","name":"虹口"},{"pinyin":"cddjyzb","name":"都江堰周边"}]},{"pinyin":"xindu","name":"新都","regions":[{"pinyin":"banzhuyuan","name":"斑竹园"},{"pinyin":"dafengc","name":"大丰"},{"pinyin":"juntun","name":"军屯"},{"pinyin":"longqiao","name":"龙桥"},{"pinyin":"majia","name":"马家"},{"pinyin":"mulanc","name":"木兰"},{"pinyin":"qingliu","name":"清流"},{"pinyin":"sanhec","name":"三河"},{"pinyin":"shibantan","name":"石板滩"},{"pinyin":"taixingc","name":"泰兴"},{"pinyin":"xinducq","name":"新都老城区"},{"pinyin":"xinduxcq","name":"新都新城区"},{"pinyin":"xinfan","name":"新繁"},{"pinyin":"xinminc","name":"新民"}]},{"pinyin":"pixian","name":"郫县","regions":[{"pinyin":"ande","name":"安德"},{"pinyin":"bxanjing","name":"安靖"},{"pinyin":"deyuan","name":"德源"},{"pinyin":"bxgucheng","name":"古城"},{"pinyin":"bxhongguang","name":"红光"},{"pinyin":"bitong","name":"郫筒"},{"pinyin":"sandaoyan","name":"三道堰"},{"pinyin":"tangchang","name":"唐昌"},{"pinyin":"tangyuan","name":"唐元"},{"pinyin":"bxtuanjie","name":"团结"},{"pinyin":"xinminchang","name":"新民场"},{"pinyin":"xipu","name":"犀浦"},{"pinyin":"bxyouai","name":"友爱"}]},{"pinyin":"wenjiang","name":"温江","regions":[{"pinyin":"beibuxincheng","name":"北部新城"},{"pinyin":"gongpingz","name":"公平镇"},{"pinyin":"guanghuadadao","name":"光华大道"},{"pinyin":"jinmazhen","name":"金马镇"},{"pinyin":"nanxundadao","name":"南熏大道"},{"pinyin":"cdsa","name":"寿安"},{"pinyin":"tashuizhen","name":"踏水镇"},{"pinyin":"wanchunzhen","name":"万春镇"},{"pinyin":"wenjiangcq","name":"温江城区"},{"pinyin":"yongningz","name":"永宁镇"}]},{"pinyin":"longquanyi","name":"龙泉驿","regions":[{"pinyin":"binhepianqu","name":"滨河片区"},{"pinyin":"damianzhen","name":"大面镇"},{"pinyin":"hangtianpianqu","name":"航天片区"},{"pinyin":"cdhdlz","name":"恒大绿洲"},{"pinyin":"honghezhen","name":"洪河镇"},{"pinyin":"longquanyizb","name":"龙泉驿周边"},{"pinyin":"shangyepianqu","name":"商业片区"},{"pinyin":"shilingzhen","name":"十陵镇"},{"pinyin":"yangguangcheng","name":"阳光城"},{"pinyin":"zongzhanpianqu","name":"总站片区"}]},{"pinyin":"shuangliu","name":"双流","regions":[{"pinyin":"cdshuangliu","name":"东升镇"},{"pinyin":"huayang","name":"华阳"},{"pinyin":"hangkonggang","name":"航空港"},{"pinyin":"shuangliuzb","name":"双流周边"}]},{"pinyin":"cdgaoxin","name":"高新区","regions":[{"pinyin":"dayuanc","name":"大源村"},{"pinyin":"fangcao","name":"芳草"},{"pinyin":"cdjrc","name":"金融城"},{"pinyin":"lixzx","name":"理想中心"},{"pinyin":"meingc","name":"美年广场"},{"pinyin":"nanyanxian","name":"南延线"},{"pinyin":"nany","name":"南苑"},{"pinyin":"shenxianshu","name":"神仙树"},{"pinyin":"sjc","name":"世纪城"},{"pinyin":"tianfcc","name":"天府长城"},{"pinyin":"xiaojiahe","name":"肖家河"},{"pinyin":"zhonghezhen","name":"中和镇"},{"pinyin":"zijing","name":"紫荆"}]},{"pinyin":"gaoxinxiqu","name":"高新西区","regions":[{"pinyin":"tuqiaocd","name":"土桥"},{"pinyin":"hejiaqiao","name":"何家桥"},{"pinyin":"zhonghaiguoji","name":"中海国际"}]},{"pinyin":"xinjin","name":"新津","regions":[]},{"pinyin":"cdqls","name":"邛崃市","regions":[]},{"pinyin":"chengdu","name":"成都周边","regions":[{"pinyin":"pengzhou","name":"彭州"},{"pinyin":"qingbaijiang","name":"青白江"},{"pinyin":"jintang","name":"金堂"},{"pinyin":"chengdushi","name":"其它"},{"pinyin":"cdluodai","name":"洛带"}]},{"pinyin":"cdchongzhou","name":"崇州","regions":[]},{"pinyin":"cddayi","name":"大邑","regions":[]},{"pinyin":"cdpujiang","name":"蒲江","regions":[]}]},{"cname":"沈阳","cen":"sy","districts":[{"pinyin":"syheping","name":"和平","regions":[{"pinyin":"bajing","name":"八经"},{"pinyin":"beidaokou","name":"北道口"},{"pinyin":"beishil","name":"北市"},{"pinyin":"changbail","name":"长白"},{"pinyin":"hepingqu","name":"和平周边"},{"pinyin":"huangsigc","name":"皇寺广场"},{"pinyin":"hepingguangchang","name":"集贤"},{"pinyin":"maluwan","name":"马路湾"},{"pinyin":"taiyuanjie","name":"民主"},{"pinyin":"nanhusy","name":"南湖"},{"pinyin":"nanjingjie","name":"南京街"},{"pinyin":"sanhaojie","name":"三好街"},{"pinyin":"shashan","name":"砂山"},{"pinyin":"shenglil","name":"胜利"},{"pinyin":"nanzhan","name":"沈阳站"},{"pinyin":"shisiweilu","name":"十四纬路"},{"pinyin":"suichuan","name":"遂川"},{"pinyin":"taiyuannanjie","name":"太原南街"},{"pinyin":"wenhualusy","name":"文化路"},{"pinyin":"wentixilu","name":"文体西路"},{"pinyin":"wusong","name":"吴淞"},{"pinyin":"xinhual","name":"新华"},{"pinyin":"wulihe","name":"新兴"},{"pinyin":"xita","name":"西塔"},{"pinyin":"yuanlu","name":"园路"},{"pinyin":"yunji","name":"云集"},{"pinyin":"zhonghualusy","name":"中华路"}]},{"pinyin":"shenhe","name":"沈河","regions":[{"pinyin":"beiwencuilu","name":"北文萃路"},{"pinyin":"beizhan","name":"北站"},{"pinyin":"binhel","name":"滨河"},{"pinyin":"changqingsy","name":"长青"},{"pinyin":"danan","name":"大南"},{"pinyin":"fengtianjie","name":"大西"},{"pinyin":"erjing","name":"二经"},{"pinyin":"fangjialan","name":"方家栏"},{"pinyin":"fengyutan","name":"风雨坛"},{"pinyin":"guangyi","name":"广宜社区"},{"pinyin":"huigong","name":"惠工"},{"pinyin":"nanta","name":"南塔"},{"pinyin":"quanyuan","name":"泉园"},{"pinyin":"shandongmiao","name":"山东庙"},{"pinyin":"shenhequ","name":"沈河周边"},{"pinyin":"shuntong","name":"顺通"},{"pinyin":"wanlian","name":"万莲"},{"pinyin":"wenhualu","name":"文艺路"},{"pinyin":"wuaijie","name":"五爱街"},{"pinyin":"sywasc","name":"五爱市场"},{"pinyin":"wuaishichang","name":"小南"},{"pinyin":"xiaoxi","name":"小西"},{"pinyin":"xinbeizhan","name":"新立堡东街"},{"pinyin":"yijing","name":"一经"},{"pinyin":"zhanlang","name":"展览馆"},{"pinyin":"zhengyangl","name":"正阳"},{"pinyin":"zhongjie","name":"中街"},{"pinyin":"zhujianlu","name":"朱剪炉"}]},{"pinyin":"huanggu","name":"皇姑","regions":[{"pinyin":"bainiaogongy","name":"百鸟公园"},{"pinyin":"beiling","name":"北陵"},{"pinyin":"beita","name":"北塔"},{"pinyin":"beihangsy","name":"北行"},{"pinyin":"changke","name":"长客"},{"pinyin":"shelita","name":"崇山"},{"pinyin":"gonganting","name":"公安厅"},{"pinyin":"huangguqu","name":"皇姑周边"},{"pinyin":"beihang","name":"黄河"},{"pinyin":"huashanl","name":"华山"},{"pinyin":"kunshanlu","name":"昆山路"},{"pinyin":"liaohe","name":"辽河"},{"pinyin":"lingdongl","name":"陵东"},{"pinyin":"lingxi","name":"陵西"},{"pinyin":"minglian","name":"明廉"},{"pinyin":"nujiangbj","name":"怒江北街"},{"pinyin":"sandongqiao","name":"三洞桥"},{"pinyin":"santaizi","name":"三台子"},{"pinyin":"shouquan","name":"寿泉"},{"pinyin":"fenhe","name":"太平庄"},{"pinyin":"taishanlusy","name":"泰山路"},{"pinyin":"tawan","name":"塔湾"},{"pinyin":"weihe","name":"渭河"},{"pinyin":"wuyishangdian","name":"五一商店"},{"pinyin":"syhuochez","name":"向工"},{"pinyin":"xinlel","name":"新乐"},{"pinyin":"zhujiangqiao","name":"珠江桥"}]},{"pinyin":"dadong","name":"大东","regions":[{"pinyin":"bawangsi","name":"八王寺"},{"pinyin":"beihaisy","name":"北海"},{"pinyin":"changanl","name":"长安"},{"pinyin":"dabei","name":"大北"},{"pinyin":"dadongqu","name":"大东周边"},{"pinyin":"sydbroad","name":"东北大马路"},{"pinyin":"dongta","name":"东塔"},{"pinyin":"dongzhan","name":"东站"},{"pinyin":"ertaizi","name":"二台子"},{"pinyin":"dadonglu","name":"津桥"},{"pinyin":"jixiangsy","name":"吉祥"},{"pinyin":"laoguabao","name":"老瓜堡"},{"pinyin":"lianhelu","name":"联合路"},{"pinyin":"liaoshen","name":"辽沈"},{"pinyin":"pangjiang","name":"滂江"},{"pinyin":"shangyuan","name":"上园路"},{"pinyin":"taochang","name":"洮昌"},{"pinyin":"taocic","name":"陶瓷城"},{"pinyin":"wanghuasy","name":"望花"},{"pinyin":"wanquan","name":"万泉"},{"pinyin":"sywuzhong","name":"五中家乐福"},{"pinyin":"dadongguangchang","name":"小北"},{"pinyin":"xindong","name":"新东"},{"pinyin":"zhulin","name":"珠林"}]},{"pinyin":"sytiexi","name":"铁西","regions":[{"pinyin":"jiaaigongj","name":"爱工街"},{"pinyin":"baogong","name":"保工"},{"pinyin":"beierlu","name":"北二路"},{"pinyin":"beisanlu","name":"北三路"},{"pinyin":"beisilu","name":"北四路"},{"pinyin":"dugong","name":"笃工"},{"pinyin":"erliang","name":"二粮库"},{"pinyin":"gongrencun","name":"工人村"},{"pinyin":"gydx","name":"工业大学"},{"pinyin":"tiexiguangchang","name":"贵和"},{"pinyin":"huaxiangsy","name":"滑翔"},{"pinyin":"jjc","name":"家俱城"},{"pinyin":"jianshedalu","name":"建设大路"},{"pinyin":"jihong","name":"霁虹"},{"pinyin":"jiulu","name":"九路市场"},{"pinyin":"ldgy","name":"劳动公园"},{"pinyin":"huaxiangxiaoqu","name":"凌空"},{"pinyin":"luguan","name":"路官"},{"pinyin":"qigong","name":"启工"},{"pinyin":"qilu","name":"七路"},{"pinyin":"qinggong","name":"轻工"},{"pinyin":"qixianl","name":"齐贤"},{"pinyin":"shenliaolu","name":"沈辽路"},{"pinyin":"shierlu","name":"十二路"},{"pinyin":"tiexigc","name":"铁西广场"},{"pinyin":"tiexiqu","name":"铁西周边"},{"pinyin":"weigong","name":"卫工"},{"pinyin":"xinggong","name":"兴工"},{"pinyin":"xinghual","name":"兴华"},{"pinyin":"xingqi","name":"兴齐"},{"pinyin":"xingshun","name":"兴顺"},{"pinyin":"xiz","name":"西站"},{"pinyin":"yanfen","name":"艳粉"},{"pinyin":"yunfeng","name":"云峰"},{"pinyin":"zhaogongjie","name":"肇工街"},{"pinyin":"zhonggong","name":"重工"}]},{"pinyin":"dongling","name":"东陵","regions":[{"pinyin":"baital","name":"白塔"},{"pinyin":"donghul","name":"东湖"},{"pinyin":"donglingl","name":"东陵"},{"pinyin":"donglingzb","name":"东陵周边"},{"pinyin":"fengle","name":"丰乐"},{"pinyin":"huishanlu","name":"辉山"},{"pinyin":"hunhezhandong","name":"浑河站东"},{"pinyin":"hunhezhanxi","name":"浑河站西"},{"pinyin":"maguanqiao","name":"马官桥"},{"pinyin":"qianjinl","name":"前进"},{"pinyin":"syqps","name":"棋盘山"},{"pinyin":"shenjingzi","name":"深井子"},{"pinyin":"taoxian","name":"桃仙"},{"pinyin":"wusan","name":"五三"},{"pinyin":"yingda","name":"英达"}]},{"pinyin":"yuhong","name":"于洪","regions":[{"pinyin":"chengdonghulu","name":"城东湖路"},{"pinyin":"dapan","name":"大潘"},{"pinyin":"daqingzhongchaoyy","name":"大青中朝友谊"},{"pinyin":"daxingl","name":"大兴"},{"pinyin":"huojial","name":"翟家"},{"pinyin":"dingxianghu","name":"丁香湖"},{"pinyin":"donghushichang","name":"东湖市场"},{"pinyin":"guoaoxiandaicheng","name":"国奥现代城"},{"pinyin":"kejian","name":"黑山"},{"pinyin":"helancun","name":"荷兰村"},{"pinyin":"hetai","name":"和泰新城"},{"pinyin":"syhqt","name":"红旗台"},{"pinyin":"syjjjskfq","name":"经济技术开发区"},{"pinyin":"masanjia","name":"马三家"},{"pinyin":"nanyanghu","name":"南阳湖"},{"pinyin":"syng","name":"宁官"},{"pinyin":"synjbj","name":"怒江北街"},{"pinyin":"pingluol","name":"平罗"},{"pinyin":"shaling","name":"沙岭"},{"pinyin":"sysll","name":"沈辽路"},{"pinyin":"systz","name":"四台子"},{"pinyin":"songshanxiaoqu","name":"松山小区"},{"pinyin":"xisanhuan","name":"西三环"},{"pinyin":"yingbinlul","name":"迎宾路"},{"pinyin":"yuhongl","name":"于洪"},{"pinyin":"yuhongguangc","name":"于洪广场"},{"pinyin":"yuhongquwei","name":"于洪区委"},{"pinyin":"yuhongxincheng","name":"于洪新城"},{"pinyin":"yuhongzb","name":"于洪周边"},{"pinyin":"zaohua","name":"造化"},{"pinyin":"syzydj","name":"中央大街"}]},{"pinyin":"xinchengzi","name":"沈北新区","regions":[{"pinyin":"cailuo","name":"财落"},{"pinyin":"daoyi","name":"道义"},{"pinyin":"huishanl","name":"辉山"},{"pinyin":"hushitai","name":"虎石台"},{"pinyin":"syph","name":"蒲河"},{"pinyin":"qingshuitai","name":"清水台"},{"pinyin":"shenbeixinzb","name":"沈北新周边"},{"pinyin":"wangbin","name":"望滨"},{"pinyin":"wenguan","name":"文官"},{"pinyin":"xinchengzil","name":"新城子"}]},{"pinyin":"sujiatun","name":"苏家屯","regions":[{"pinyin":"laodonggongyuan","name":"解放"},{"pinyin":"minzhu","name":"民主"},{"pinyin":"linhu","name":"临湖"},{"pinyin":"zhongxingl","name":"中兴"},{"pinyin":"huxi","name":"湖西"},{"pinyin":"sujiatunzb","name":"苏家屯周边"}]},{"pinyin":"shenyangshi","name":"浑南新区","regions":[{"pinyin":"aotizhongxin","name":"奥体中心"},{"pinyin":"baitabao","name":"白塔堡"},{"pinyin":"ershiyishijigc","name":"二十一世纪广场"},{"pinyin":"fuminjie","name":"富民街"},{"pinyin":"hunhebao","name":"浑河堡"},{"pinyin":"hunanzhonglu","name":"浑南中路"},{"pinyin":"syligong","name":"理工大学"},{"pinyin":"syqixiang","name":"气象局"},{"pinyin":"shijixincheng","name":"世纪新城"},{"pinyin":"yinyuexueyuan","name":"音乐学院"},{"pinyin":"zhonghuayuan","name":"中华园"}]},{"pinyin":"shenyang","name":"沈阳周边","regions":[{"pinyin":"xinminshi","name":"新民"},{"pinyin":"liaozhongxian","name":"辽中"},{"pinyin":"fakuxian","name":"法库"},{"pinyin":"kangpingxian","name":"康平"}]}]},{"cname":"天津","cen":"tj","districts":[{"pinyin":"nankai","name":"南开","regions":[{"pinyin":"baliting","name":"八里台"},{"pinyin":"changhongjie","name":"长虹街"},{"pinyin":"guangkaijie","name":"广开街"},{"pinyin":"gulou","name":"鼓楼"},{"pinyin":"guwenhuajie","name":"古文化街"},{"pinyin":"huanghedao","name":"黄河道"},{"pinyin":"huayuan","name":"华苑"},{"pinyin":"jialingdao","name":"嘉陵道"},{"pinyin":"miyunlu","name":"密云路"},{"pinyin":"nankaiqu","name":"南开周边"},{"pinyin":"rongyedajie","name":"荣业大街"},{"pinyin":"tiantuonan","name":"天拖南"},{"pinyin":"tiyuzhongxin","name":"体育中心"},{"pinyin":"wangdingdi","name":"王顶堤"},{"pinyin":"wanxingjie","name":"万兴街"},{"pinyin":"tjwjc","name":"五金城"},{"pinyin":"xiangyanglu","name":"向阳路"},{"pinyin":"xingnanjie","name":"兴南街"},{"pinyin":"xuefujie","name":"学府街"}]},{"pinyin":"hexi","name":"河西","regions":[{"pinyin":"chentangzhuang","name":"陈塘庄"},{"pinyin":"dayingmen","name":"大营门"},{"pinyin":"donghaitj","name":"东海"},{"pinyin":"guijiashi","name":"挂甲寺"},{"pinyin":"hexiqu","name":"河西周边"},{"pinyin":"jianshanlu","name":"尖山路"},{"pinyin":"liulintj","name":"柳林"},{"pinyin":"machangdao","name":"马场道"},{"pinyin":"meijiang","name":"梅江"},{"pinyin":"meijiangnan","name":"梅江南"},{"pinyin":"tiaoyuanjie","name":"桃园街"},{"pinyin":"tianta","name":"天塔"},{"pinyin":"tucheng","name":"土城"},{"pinyin":"xiaohaidi","name":"小海地"},{"pinyin":"xiawafang","name":"下瓦房"},{"pinyin":"youyilu","name":"友谊路"},{"pinyin":"yuexiulu","name":"越秀路"}]},{"pinyin":"hedong","name":"河东","regions":[{"pinyin":"changzhoudao","name":"常州道"},{"pinyin":"chenglinjie","name":"程林街"},{"pinyin":"chunhuajie","name":"春华街"},{"pinyin":"daqiaodao","name":"大桥道"},{"pinyin":"dawangzhuang","name":"大王庄"},{"pinyin":"dazhigu","name":"大直沽"},{"pinyin":"dongxinjie","name":"东新街"},{"pinyin":"erhaoqiao","name":"二号桥"},{"pinyin":"fuminlu","name":"富民路"},{"pinyin":"hedongqutj","name":"河东周边"},{"pinyin":"lushandao","name":"鲁山道"},{"pinyin":"shanghanglu","name":"上杭路"},{"pinyin":"tangkou","name":"唐口"},{"pinyin":"xiangyanglou","name":"向阳楼"},{"pinyin":"zhangguizhuanglu","name":"张贵庄路"},{"pinyin":"zhonshanmen","name":"中山门"}]},{"pinyin":"heping","name":"和平","regions":[{"pinyin":"quanyechang","name":"劝业场"},{"pinyin":"xiaobailou","name":"小白楼"},{"pinyin":"binjiangdao","name":"滨江道"},{"pinyin":"nanshitj","name":"南市"},{"pinyin":"tiyuguan","name":"体育馆"},{"pinyin":"xinxingjie","name":"新兴街"},{"pinyin":"nanyingmen","name":"南营门"},{"pinyin":"hepingzhoubian","name":"和平周边"}]},{"pinyin":"hebeiqu","name":"河北","regions":[{"pinyin":"guangfudaojie","name":"光复道街"},{"pinyin":"hebeiqutj","name":"河北周边"},{"pinyin":"hongshunlijie","name":"鸿顺里街"},{"pinyin":"jianchangdaojie","name":"建昌道街"},{"pinyin":"jiangdulujie","name":"江都路街"},{"pinyin":"jingjianglujie","name":"靖江路街"},{"pinyin":"ningyuanjie","name":"宁园街"},{"pinyin":"tiedonglujie","name":"铁东路街"},{"pinyin":"wangchuanchangjie","name":"王串场街"},{"pinyin":"wanghailoujie","name":"望海楼街"},{"pinyin":"xkhj","name":"新开河街"},{"pinyin":"yueyahejie","name":"月牙河街"}]},{"pinyin":"hongqiaotj","name":"红桥","regions":[{"pinyin":"dahutongjie","name":"大胡同街"},{"pinyin":"dignzigujie","name":"丁字沽街"},{"pinyin":"shaogongzhuangjie","name":"卲公庄街"},{"pinyin":"hongqiaozhoubian","name":"红桥周边"},{"pinyin":"jieyuanjie","name":"芥园街"},{"pinyin":"lingdanggejie","name":"铃铛阁街"},{"pinyin":"santiaoshij","name":"三条石街"},{"pinyin":"shuanghuan","name":"双环邨街"},{"pinyin":"xianyangbeilujie","name":"咸阳北路街"},{"pinyin":"xigujie","name":"西沽街"},{"pinyin":"xiyuzhuangjie","name":"西于庄街"}]},{"pinyin":"tanggu","name":"塘沽","regions":[{"pinyin":"beitangjie","name":"北塘街"},{"pinyin":"bohaisyj","name":"渤海石油街"},{"pinyin":"daliangzijie","name":"大梁子街"},{"pinyin":"dongdakujie","name":"东大沽街"},{"pinyin":"gongnongcunjie","name":"工农村街"},{"pinyin":"hangzhoudaojie","name":"杭州道街"},{"pinyin":"hujiayuanjie","name":"胡家园街"},{"pinyin":"jiefanglujie","name":"解放路街"},{"pinyin":"sanhuailujie","name":"三槐路街"},{"pinyin":"tangguxincunjie","name":"塘沽新村街"},{"pinyin":"tangguqu","name":"塘沽周边"},{"pinyin":"xiangyangjie","name":"向阳街"},{"pinyin":"xidakujie","name":"西大沽街"},{"pinyin":"xinchengz","name":"新城镇"},{"pinyin":"xingangjie","name":"新港街"},{"pinyin":"xinhejie","name":"新河街"}]},{"pinyin":"donglitj","name":"东丽","regions":[{"pinyin":"chituzhen","name":"赤土镇"},{"pinyin":"dabizhuangzhen","name":"大毕庄镇"},{"pinyin":"ditanlu","name":"地毯路"},{"pinyin":"donglihu","name":"东丽湖"},{"pinyin":"dongliqu","name":"东丽周边"},{"pinyin":"huamingzhen","name":"华明镇"},{"pinyin":"jintanglu","name":"津塘路"},{"pinyin":"junliangcheng","name":"军粮城"},{"pinyin":"tjkgjjq","name":"空港经济区"},{"pinyin":"lijinlu","name":"利津路"},{"pinyin":"xianfenglu","name":"先锋路"},{"pinyin":"xinlizhen","name":"新立镇"},{"pinyin":"yaoliuqiaoxiang","name":"幺六桥乡"}]},{"pinyin":"xiqingtj","name":"西青","regions":[{"pinyin":"dashitj","name":"大寺"},{"pinyin":"houtai","name":"侯台"},{"pinyin":"liqizhuang","name":"李七庄"},{"pinyin":"nanhetj","name":"南河"},{"pinyin":"qingbogui","name":"青泊洼"},{"pinyin":"wangwenz","name":"王稳庄"},{"pinyin":"xinkou","name":"辛口"},{"pinyin":"xiqingqu","name":"西青周边"},{"pinyin":"yangliuqing","name":"杨柳青"},{"pinyin":"zhangjiawo","name":"张家窝"},{"pinyin":"zhongbei","name":"中北"}]},{"pinyin":"beichentj","name":"北辰","regions":[{"pinyin":"beichang","name":"北仓"},{"pinyin":"beichenqu","name":"北辰周边"},{"pinyin":"dazzz","name":"大张庄镇"},{"pinyin":"guoyuanxincun","name":"果园新村"},{"pinyin":"hongguangnc","name":"红光农场"},{"pinyin":"jinjingglj","name":"津京公路街"},{"pinyin":"jixianli","name":"集贤里"},{"pinyin":"tjqingguang","name":"青光"},{"pinyin":"tjrjj","name":"瑞景街"},{"pinyin":"shuangjiez","name":"双街镇"},{"pinyin":"shuangkou","name":"双口"},{"pinyin":"tianmu","name":"天穆"},{"pinyin":"xiaodiantj","name":"小淀"},{"pinyin":"xiditouzhen","name":"西堤头镇"},{"pinyin":"xincunjie","name":"新村街"},{"pinyin":"yixingbu","name":"宜兴埠"}]},{"pinyin":"jinnantj","name":"津南","regions":[{"pinyin":"xianshuigu","name":"咸水沽"},{"pinyin":"shuanggang","name":"双港"},{"pinyin":"balitai","name":"八里台"},{"pinyin":"beizhakou","name":"北闸口"},{"pinyin":"geku","name":"葛沽"},{"pinyin":"shuangqiaohe","name":"双桥河"},{"pinyin":"xiaozhan","name":"小站"},{"pinyin":"xinzhuang","name":"辛庄"},{"pinyin":"jinnanqu","name":"津南周边"}]},{"pinyin":"tjkaifaqu","name":"开发区","regions":[{"pinyin":"diyidajie","name":"第一大街"},{"pinyin":"dierdajie","name":"第二大街"},{"pinyin":"disandajie","name":"第三大街"},{"pinyin":"disidajie","name":"第四大街"},{"pinyin":"diwudajie","name":"第五大街"},{"pinyin":"kunpengjie","name":"鲲鹏街"},{"pinyin":"kaifaqzb","name":"开发区周边"}]},{"pinyin":"dagang","name":"大港","regions":[{"pinyin":"dagangzhoub","name":"大港周边"},{"pinyin":"gangxitj","name":"港西"},{"pinyin":"gulinjie","name":"古林街"},{"pinyin":"haibin","name":"海滨"},{"pinyin":"shenglij","name":"胜利街"},{"pinyin":"shijidadao","name":"世纪大道"},{"pinyin":"taipin","name":"太平"},{"pinyin":"xiaowangzhuang","name":"小王庄"},{"pinyin":"yingbinjie","name":"迎宾街"},{"pinyin":"yingxinjie","name":"迎新街"},{"pinyin":"zhongtang","name":"中塘"}]},{"pinyin":"tianjin","name":"天津周边","regions":[{"pinyin":"hangu","name":"汉沽"},{"pinyin":"wuqing","name":"武清"},{"pinyin":"baodi","name":"宝坻"},{"pinyin":"jianxiantj","name":"蓟县"},{"pinyin":"jinghaiqu","name":"静海"},{"pinyin":"ninghexian","name":"宁河"}]}]},{"cname":"武汉","cen":"wh","districts":[{"pinyin":"wuchang","name":"武昌","regions":[{"pinyin":"dingziqiao","name":"丁字桥"},{"pinyin":"dongtingwh","name":"东亭"},{"pinyin":"fujiapo","name":"傅家坡"},{"pinyin":"jiyuqiao","name":"积玉桥"},{"pinyin":"liangdaojie","name":"粮道街"},{"pinyin":"nanhuhuayuan","name":"南湖花园"},{"pinyin":"shouyilu","name":"首义路"},{"pinyin":"shuiguohu","name":"水果湖"},{"pinyin":"simenkou","name":"司门口"},{"pinyin":"whtjddao","name":"团结大道"},{"pinyin":"wuchanghuochezhan","name":"武昌火车站"},{"pinyin":"wuchangqu","name":"武昌周边"},{"pinyin":"wutaizha","name":"武泰闸"},{"pinyin":"xiaodongmen","name":"小东门"},{"pinyin":"xudong","name":"徐东"},{"pinyin":"xujiapeng","name":"徐家棚"},{"pinyin":"qingshanzhen","name":"杨园"},{"pinyin":"zhongbeilu","name":"中北路"},{"pinyin":"whzhonghualu","name":"中华路"},{"pinyin":"guanshanji","name":"中南路"},{"pinyin":"ziyanglu","name":"紫阳路"}]},{"pinyin":"hongshan","name":"洪山","regions":[{"pinyin":"chenjiawan","name":"陈家湾"},{"pinyin":"guanggutun","name":"广埠屯"},{"pinyin":"guanggu","name":"光谷"},{"pinyin":"guansha","name":"关山"},{"pinyin":"hongshanqu","name":"洪山周边"},{"pinyin":"jiedaokou","name":"街道口"},{"pinyin":"luoshinanlu","name":"珞狮南路"},{"pinyin":"whluxiang","name":"鲁巷"},{"pinyin":"whxnh","name":"新南湖"},{"pinyin":"zhuodaoquan","name":"卓刀泉"}]},{"pinyin":"huangpo","name":"黄陂","regions":[{"pinyin":"hankb","name":"汉口北"},{"pinyin":"hengdian","name":"横店"},{"pinyin":"huangpzb","name":"黄陂周边"},{"pinyin":"liuzd","name":"六指店"},{"pinyin":"luohs","name":"罗汉寺"},{"pinyin":"panlc","name":"盘龙城"},{"pinyin":"qianchuan","name":"前川"},{"pinyin":"qijiaw","name":"祁家湾"},{"pinyin":"shek","name":"滠口"},{"pinyin":"tianh","name":"天河"}]},{"pinyin":"jiangan","name":"江岸","regions":[{"pinyin":"baibuting","name":"百步亭"},{"pinyin":"dazhilu","name":"大智路"},{"pinyin":"erqilu","name":"二七路"},{"pinyin":"hankouhuochezhan","name":"汉口火车站"},{"pinyin":"huohuxiang","name":"后湖"},{"pinyin":"jianganqu","name":"江岸周边"},{"pinyin":"jianghanlu","name":"江汉路"},{"pinyin":"jianshedadao","name":"建设大道"},{"pinyin":"qiuchangjie","name":"球场街"},{"pinyin":"sanyanglu","name":"三阳路"},{"pinyin":"taibeilu","name":"台北香港路"},{"pinyin":"aomenluyinan","name":"永清街"},{"pinyin":"huaqiaolu","name":"竹叶山花桥"}]},{"pinyin":"dongxihu","name":"东西湖","regions":[{"pinyin":"changqinghy","name":"常青花园"},{"pinyin":"jinyinhu","name":"金银湖"},{"pinyin":"jiangjunlu","name":"将军路"},{"pinyin":"wujiashan","name":"吴家山"}]},{"pinyin":"jianghan","name":"江汉","regions":[{"pinyin":"qianjinglu","name":"前进/江汉"},{"pinyin":"whxinhualu","name":"新华路"},{"pinyin":"xibeihu","name":"西北湖"},{"pinyin":"changqinghuayuan","name":"常青"},{"pinyin":"tangjiadun","name":"唐家墩"},{"pinyin":"whbeihu","name":"北湖"},{"pinyin":"yangchahu","name":"杨汊湖"},{"pinyin":"wansongyuan","name":"万松园"},{"pinyin":"jianghanqu","name":"江汉周边"}]},{"pinyin":"caidian","name":"蔡甸","regions":[]},{"pinyin":"whtkfq","name":"沌口开发区","regions":[]},{"pinyin":"hanyang","name":"汉阳","regions":[{"pinyin":"hanshagonglu","name":"沌口"},{"pinyin":"guoqiankou","name":"郭茨口"},{"pinyin":"hanyangqu","name":"汉阳周边"},{"pinyin":"jiang","name":"建港"},{"pinyin":"qilimiaowh","name":"七里庙"},{"pinyin":"qingchuanqiao","name":"晴川"},{"pinyin":"shenggd","name":"升官渡"},{"pinyin":"wangjiawan","name":"王家湾"},{"pinyin":"whwulidun","name":"五里墩"},{"pinyin":"whyingwu","name":"鹦鹉"},{"pinyin":"yuehuqiao","name":"月湖"},{"pinyin":"lanjiangluneihuan","name":"钟家村"}]},{"pinyin":"qiaokou","name":"硚口","regions":[{"pinyin":"hanzhenjie","name":"汉正街"},{"pinyin":"baofeng","name":"宝丰"},{"pinyin":"zonghuan","name":"宗关"},{"pinyin":"gutianlu","name":"古田"},{"pinyin":"congrenlu","name":"崇仁路"},{"pinyin":"wushenglu","name":"武胜路"},{"pinyin":"qiaokouqu","name":"硚口周边"}]},{"pinyin":"jiangxia","name":"江夏","regions":[{"pinyin":"cangld","name":"藏龙岛"},{"pinyin":"whdhgxin","name":"东湖高新"},{"pinyin":"jiangxzb","name":"江夏周边"},{"pinyin":"jinkou","name":"金口"},{"pinyin":"liufa","name":"流芳"},{"pinyin":"whmiaoshan","name":"庙山"},{"pinyin":"wulq","name":"乌龙泉"},{"pinyin":"yinhw","name":"银河湾"},{"pinyin":"zhengdi","name":"郑店"},{"pinyin":"zhifang","name":"纸坊"}]},{"pinyin":"whqingshanqu","name":"青山","regions":[{"pinyin":"jiansheerlu","name":"建设二路"},{"pinyin":"jiansheqilu","name":"建设七路"},{"pinyin":"hepingdadao","name":"和平大道"},{"pinyin":"youyidadao","name":"友谊大道"},{"pinyin":"yujt","name":"余家头"},{"pinyin":"yejdd","name":"冶金大道"},{"pinyin":"qit","name":"青山周边"},{"pinyin":"whgydadao","name":"工业大道"},{"pinyin":"whhgcheng","name":"红钢城"}]},{"pinyin":"xinzhouqu","name":"新洲","regions":[]},{"pinyin":"hannan","name":"汉南","regions":[]},{"pinyin":"wuhan","name":"武汉周边","regions":[]}]},{"cname":"绵阳","cen":"mianyang","districts":[{"pinyin":"fuchengqu","name":"涪城","regions":[{"pinyin":"ancq","name":"安昌桥"},{"pinyin":"mydfhdq","name":"东方红大桥"},{"pinyin":"fuchengzb","name":"涪城周边"},{"pinyin":"mypeijiangerqiao","name":"涪江二桥"},{"pinyin":"fldq","name":"富乐大桥"},{"pinyin":"gaoshui","name":"高水"},{"pinyin":"myhcz","name":"火车站"},{"pinyin":"myjingzhongjie","name":"警钟街"},{"pinyin":"jinzy","name":"金柱园"},{"pinyin":"linyk","name":"临园口"},{"pinyin":"nanhb","name":"南河坝"},{"pinyin":"mynhdq","name":"南河大桥"},{"pinyin":"qixinglou","name":"七星楼"},{"pinyin":"mysanlicun","name":"三里村"},{"pinyin":"myspgc","name":"三鹏广场"},{"pinyin":"shizq","name":"市中区"},{"pinyin":"mywuyigchang","name":"五一广场"},{"pinyin":"myxiaodaohuayuan","name":"小岛花园"},{"pinyin":"xnkjdx","name":"西南科技大学"},{"pinyin":"yuejl","name":"跃进路"},{"pinyin":"yuyingba","name":"御营坝"}]},{"pinyin":"youxian","name":"游仙","regions":[{"pinyin":"shenjiaba","name":"沈家坝"},{"pinyin":"wuld","name":"五里堆"},{"pinyin":"liulc","name":"六里村"},{"pinyin":"snyiy","name":"三医院"},{"pinyin":"kaiyc","name":"开元场"},{"pinyin":"oujb","name":"欧家坝"},{"pinyin":"kexuec","name":"科学城"},{"pinyin":"xianhaiz","name":"仙海镇"},{"pinyin":"youxianzb","name":"游仙周边"}]},{"pinyin":"jiangyou","name":"江油","regions":[]},{"pinyin":"mygaoxinqu","name":"高新区","regions":[{"pinyin":"mybinhelu","name":"滨河路"},{"pinyin":"myhongyuanlu","name":"虹苑路"},{"pinyin":"myjiadiancheng","name":"家电城"},{"pinyin":"mypuming","name":"普明"},{"pinyin":"shiqp","name":"石桥铺"},{"pinyin":"shuangb","name":"双碑"},{"pinyin":"mywxqcc","name":"万向汽车城"},{"pinyin":"mywzsmc","name":"温州商贸城"},{"pinyin":"yongxz","name":"永兴镇"},{"pinyin":"myswsl","name":"3536"}]},{"pinyin":"jingkaiqu","name":"经开区","regions":[{"pinyin":"tangxun","name":"溏汛"},{"pinyin":"nhqc","name":"南湖汽车站"}]},{"pinyin":"kechuangyuanqu","name":"科创园区","regions":[{"pinyin":"myjiuzhoudadao","name":"九洲大道"},{"pinyin":"mycydd","name":"创业大道"}]},{"pinyin":"santaixian","name":"三台县","regions":[]},{"pinyin":"mianyangshi","name":"绵阳周边","regions":[{"pinyin":"santai","name":"三台"},{"pinyin":"anxian","name":"安县"},{"pinyin":"zitong","name":"梓潼"},{"pinyin":"yanting","name":"盐亭"},{"pinyin":"pingwu","name":"平武"},{"pinyin":"beichuan","name":"北川"},{"pinyin":"mianyangqita","name":"其它"}]}]},{"cname":"泉州","cen":"qz","districts":[{"pinyin":"luojiang","name":"洛江","regions":[]},{"pinyin":"quangang","name":"泉港","regions":[]},{"pinyin":"shishi","name":"石狮","regions":[{"pinyin":"shishifzc","name":"石狮服装城"},{"pinyin":"shishizb","name":"石狮周边"}]},{"pinyin":"jinjiangshi","name":"晋江","regions":[{"pinyin":"yangguanggc","name":"阳光广场"},{"pinyin":"smguangchang","name":"SM广场"},{"pinyin":"qztyzx","name":"体育中心"},{"pinyin":"jinjiangzb","name":"晋江周边"}]},{"pinyin":"nananshi","name":"南安","regions":[]},{"pinyin":"huianxian","name":"惠安","regions":[]},{"pinyin":"anxixian","name":"安溪","regions":[]},{"pinyin":"yongchunxian","name":"永春","regions":[]},{"pinyin":"dehuaxian","name":"德化","regions":[]},{"pinyin":"qzlicheng","name":"鲤城","regions":[{"pinyin":"dongjie","name":"东街"},{"pinyin":"jiuyilu","name":"九一路"},{"pinyin":"zhongshanbl","name":"中山北路"},{"pinyin":"zhongminbaihui","name":"中闽百汇"},{"pinyin":"qingmengkfq","name":"清濛开发区"},{"pinyin":"lichengzb","name":"鲤城周边"}]},{"pinyin":"fengze","name":"丰泽","regions":[{"pinyin":"fengzejie","name":"丰泽街"},{"pinyin":"quanxiulu","name":"泉秀路"},{"pinyin":"donghaiwan","name":"东海湾"},{"pinyin":"donghugongyuan","name":"东湖公园"},{"pinyin":"yungugyq","name":"云谷工业区"},{"pinyin":"qzcd","name":"城东"},{"pinyin":"fengzezb","name":"丰泽周边"}]},{"pinyin":"qzjmx","name":"金门县","regions":[]},{"pinyin":"quanzhouzb","name":"泉州周边","regions":[]}]},{"cname":"唐山","cen":"ts","districts":[{"pinyin":"lubei","name":"路北","regions":[{"pinyin":"bhdl","name":"百货大楼"},{"pinyin":"bxdbf","name":"北新道八方"},{"pinyin":"dcsgy","name":"大城山公园"},{"pinyin":"drf","name":"大润发"},{"pinyin":"hchezhan","name":"火车站"},{"pinyin":"ltl","name":"蓝天楼"},{"pinyin":"rcsc","name":"人才市场"},{"pinyin":"shzuo","name":"尚座"},{"pinyin":"tstsyz","name":"唐山一中"},{"pinyin":"tydj","name":"天元帝景"},{"pinyin":"xyl","name":"翔云里"},{"pinyin":"yych","name":"远洋城"}]},{"pinyin":"lunan","name":"路南","regions":[{"pinyin":"hyz","name":"河沿庄"},{"pinyin":"lnan","name":"路南"},{"pinyin":"hhk","name":"荷花坑"},{"pinyin":"wdgc","name":"万达广场"},{"pinyin":"xxds","name":"信息大厦"}]},{"pinyin":"kaiping","name":"开平","regions":[]},{"pinyin":"guye","name":"古冶","regions":[]},{"pinyin":"fengnan","name":"丰南","regions":[]},{"pinyin":"fengrun","name":"丰润","regions":[{"pinyin":"fr","name":"丰润"},{"pinyin":"hch","name":"韩城"}]},{"pinyin":"gxq","name":"高新区","regions":[{"pinyin":"hjds","name":"火炬大厦"},{"pinyin":"dlqndh","name":"大陆青年都会"},{"pinyin":"tuhepart","name":"陡河公园"},{"pinyin":"hbl","name":"河北里"},{"pinyin":"hyl","name":"河茵里"}]},{"pinyin":"tangshan","name":"其他","regions":[{"pinyin":"caofeidian","name":"曹妃甸"},{"pinyin":"haigangqu","name":"海港开发区"},{"pinyin":"hanguqu","name":"汉沽农场"},{"pinyin":"laotingxian","name":"乐亭"},{"pinyin":"luannanxian","name":"滦南"},{"pinyin":"luanxian","name":"滦县"},{"pinyin":"lutaiqu","name":"芦台农场"},{"pinyin":"nanbaoqu","name":"南堡开发区"},{"pinyin":"qianan","name":"迁安"},{"pinyin":"qianxixian","name":"迁西"},{"pinyin":"tangshanshi","name":"其它"},{"pinyin":"tanghaixian","name":"唐海"},{"pinyin":"yutianxian","name":"玉田"},{"pinyin":"zunhua","name":"遵化"}]}]},{"cname":"宜昌","cen":"yc","districts":[{"pinyin":"xiling","name":"西陵","regions":[{"pinyin":"dongm","name":"东门"},{"pinyin":"yunjil","name":"云集路"},{"pinyin":"yccbd","name":"CBD"},{"pinyin":"longkangl","name":"隆康路"},{"pinyin":"yemingz","name":"夜明珠"},{"pinyin":"sansl","name":"330"},{"pinyin":"tiyucl","name":"体育场路"},{"pinyin":"xilingzb","name":"西陵周边"}]},{"pinyin":"wujiagang","name":"伍家岗","regions":[{"pinyin":"wandac","name":"万达"},{"pinyin":"yangchalu","name":"杨岔路"},{"pinyin":"shenglc","name":"胜利"},{"pinyin":"beishanpo","name":"北山坡"},{"pinyin":"baotahe","name":"宝塔河"},{"pinyin":"wujiagzb","name":"伍家岗周边"}]},{"pinyin":"dianjun","name":"点军","regions":[]},{"pinyin":"xiaoting","name":"猇亭","regions":[]},{"pinyin":"yiling","name":"夷陵","regions":[]},{"pinyin":"dongs","name":"东山","regions":[{"pinyin":"nanyuanc","name":"南苑"},{"pinyin":"shenzhenl","name":"深圳路"},{"pinyin":"jindongshan","name":"金东山"},{"pinyin":"dongshanhy","name":"东山花园"},{"pinyin":"fazhandd","name":"发展大道"},{"pinyin":"gangjl","name":"港窑路"},{"pinyin":"dongshzb","name":"东山周边"}]},{"pinyin":"yidou","name":"宜都","regions":[]},{"pinyin":"dangyang","name":"当阳","regions":[]},{"pinyin":"zhijiang","name":"枝江","regions":[]},{"pinyin":"changyang","name":"长阳","regions":[]},{"pinyin":"yuananxian","name":"远安","regions":[]},{"pinyin":"xingshanxian","name":"兴山","regions":[]},{"pinyin":"ziguixian","name":"秭归","regions":[]},{"pinyin":"wufengxian","name":"五峰","regions":[]},{"pinyin":"yichangqita","name":"宜昌周边","regions":[]}]}]