[{"cname":"北京","cen":"bj","districts":[{"pinyin":"haidian","name":"海淀","regions":[{"pinyin":"anningzhuang","name":"安宁庄"},{"pinyin":"beidaqinghua","name":"北大清华"},{"pinyin":"beitaipingzhuang","name":"北太平庄"},{"pinyin":"baishiqiao","name":"白石桥"},{"pinyin":"beiwalu","name":"北洼路"},{"pinyin":"beihang","name":"北航"},{"pinyin":"chedaogou","name":"车道沟"},{"pinyin":"changwa","name":"厂洼"},{"pinyin":"dazhongsi","name":"大钟寺"},{"pinyin":"dinghuisi","name":"定慧寺"},{"pinyin":"erlizhuang","name":"二里庄"},{"pinyin":"enjili","name":"恩济里"},{"pinyin":"haidianganjiakou","name":"甘家口"},{"pinyin":"gongzhufen","name":"公主坟"},{"pinyin":"huayuanqiao","name":"花园桥"},{"pinyin":"hangtianqiao","name":"航天桥"},{"pinyin":"jimenqiao","name":"蓟门桥"},{"pinyin":"jiaotongdaxue","name":"交通大学"},{"pinyin":"junbo","name":"军博"},{"pinyin":"jingouhe","name":"金沟河"},{"pinyin":"lianxiangqiao","name":"联想桥"},{"pinyin":"malianwa","name":"马连洼"},{"pinyin":"mudanyuan","name":"牡丹园"},{"pinyin":"madian","name":"马甸"},{"pinyin":"mingguangqiao","name":"明光桥"},{"pinyin":"qinghe","name":"清河"},{"pinyin":"renmindaxue","name":"人民大学"},{"pinyin":"shangdi","name":"上地"},{"pinyin":"suzhoujie","name":"苏州街"},{"pinyin":"shuangyushu","name":"双榆树"},{"pinyin":"shijicheng","name":"世纪城"},{"pinyin":"sijiqing","name":"四季青"},{"pinyin":"suzhouqiao","name":"苏州桥"},{"pinyin":"tiancun","name":"田村"},{"pinyin":"wanquanhe","name":"万泉河"},{"pinyin":"wudaokou","name":"五道口"},{"pinyin":"wanliu","name":"万柳"},{"pinyin":"weigongcun","name":"魏公村"},{"pinyin":"wanshousi","name":"万寿寺"},{"pinyin":"wanshoulu","name":"万寿路"},{"pinyin":"wukesong","name":"五棵松"},{"pinyin":"wuluju","name":"五路居"},{"pinyin":"haidianxiaoying","name":"小营"},{"pinyin":"xisanqi","name":"西三旗"},{"pinyin":"xierqi","name":"西二旗"},{"pinyin":"xibeiwang","name":"西北旺"},{"pinyin":"xiyuan","name":"西苑"},{"pinyin":"xueyuanlu","name":"学院路"},{"pinyin":"haidianxizhimen","name":"西直门"},{"pinyin":"xiangshan","name":"香山"},{"pinyin":"xibalizhuang","name":"西八里庄"},{"pinyin":"haidianxishan","name":"西山"},{"pinyin":"xueyuanlubei","name":"学院路北"},{"pinyin":"xiaojiahe","name":"肖家河"},{"pinyin":"yongdinglu","name":"永定路"},{"pinyin":"haidianyuquanlu","name":"玉泉路"},{"pinyin":"zhongguancun","name":"中关村"},{"pinyin":"zhichunlu","name":"知春路"},{"pinyin":"zaojunmiao","name":"皂君庙"},{"pinyin":"zizhuqiao","name":"紫竹桥"},{"pinyin":"zengguanglu","name":"增光路"},{"pinyin":"haidianqita","name":"其他"}]},{"pinyin":"chaoyang","name":"朝阳","regions":[{"pinyin":"aoyuncun","name":"奥运村"},{"pinyin":"anhuiqiao","name":"安慧桥"},{"pinyin":"anzhen","name":"安贞"},{"pinyin":"chaoyangbeiyuan","name":"北苑"},{"pinyin":"beishatan","name":"北沙滩"},{"pinyin":"baiziwan","name":"百子湾"},{"pinyin":"balizhuang","name":"八里庄"},{"pinyin":"beigongda","name":"北工大"},{"pinyin":"chaoyanggongyuan","name":"朝阳公园"},{"pinyin":"chaowai","name":"朝外"},{"pinyin":"CBD","name":"CBD"},{"pinyin":"chaoqingbankuai","name":"朝青板块"},{"pinyin":"changying","name":"常营"},{"pinyin":"dashanzi","name":"大山子"},{"pinyin":"datun","name":"大屯"},{"pinyin":"dongdaqiao","name":"东大桥"},{"pinyin":"xidawanglu","name":"大望路"},{"pinyin":"dongba","name":"东坝"},{"pinyin":"dingfuzhuang","name":"定福庄"},{"pinyin":"dougezhuang","name":"豆各庄"},{"pinyin":"fatou","name":"垡头"},{"pinyin":"guozhan","name":"国展"},{"pinyin":"gongti","name":"工体"},{"pinyin":"guomao","name":"国贸"},{"pinyin":"ganluyuan","name":"甘露园"},{"pinyin":"gaobeidian","name":"高碑店"},{"pinyin":"guanzhuang","name":"管庄"},{"pinyin":"guomeidiyicheng","name":"国美第一城"},{"pinyin":"huajiadi","name":"花家地"},{"pinyin":"hepingjie","name":"和平街"},{"pinyin":"huixinli","name":"惠新里"},{"pinyin":"hujialou","name":"呼家楼"},{"pinyin":"huaweiqiao","name":"华威桥"},{"pinyin":"hongmiao","name":"红庙"},{"pinyin":"huafangyicheng","name":"华纺易城"},{"pinyin":"huixinxijie","name":"惠新西街"},{"pinyin":"huanlegu","name":"欢乐谷"},{"pinyin":"jiuxianqiao","name":"酒仙桥"},{"pinyin":"jianxiangqiao","name":"健翔桥"},{"pinyin":"jianwaidajie","name":"建外大街"},{"pinyin":"jingsong","name":"劲松"},{"pinyin":"laiguangying","name":"来广营"},{"pinyin":"liufang","name":"柳芳"},{"pinyin":"meiticun","name":"媒体村"},{"pinyin":"nanmofang","name":"南磨房"},{"pinyin":"panjiayuan","name":"潘家园"},{"pinyin":"shaoyaoju","name":"芍药居"},{"pinyin":"sanyuanqiao","name":"三元桥"},{"pinyin":"shuiduizi","name":"水碓子"},{"pinyin":"sanlitun","name":"三里屯"},{"pinyin":"shuangjing","name":"双井"},{"pinyin":"sihui","name":"四惠"},{"pinyin":"shifoying","name":"石佛营"},{"pinyin":"chaoyangshilipu","name":"十里堡"},{"pinyin":"shuangqiao","name":"双桥"},{"pinyin":"shibalidian","name":"十八里店"},{"pinyin":"shilihe","name":"十里河"},{"pinyin":"sunhe","name":"孙河"},{"pinyin":"taiyanggong","name":"太阳宫"},{"pinyin":"tianshuiyuan","name":"甜水园"},{"pinyin":"tuanjiehu","name":"团结湖"},{"pinyin":"wangjing","name":"望京"},{"pinyin":"chaoyangxiaoying","name":"小营"},{"pinyin":"xiaoguan","name":"小关"},{"pinyin":"xibahe","name":"西坝河"},{"pinyin":"xiaohongmen","name":"小红门"},{"pinyin":"yayuncun","name":"亚运村"},{"pinyin":"yansha","name":"燕莎"},{"pinyin":"yaojiayuan","name":"姚家园"},{"pinyin":"yonganli","name":"永安里"},{"pinyin":"zuojiazhuang","name":"左家庄"},{"pinyin":"chaoyangqita","name":"其他"}]},{"pinyin":"dongcheng","name":"东城","regions":[{"pinyin":"andingmen","name":"安定门"},{"pinyin":"beixinqiao","name":"北新桥"},{"pinyin":"beijingzhan","name":"北京站"},{"pinyin":"chaoyangmen","name":"朝阳门"},{"pinyin":"dongzhimen","name":"东直门"},{"pinyin":"dongsishitiao","name":"东四十条"},{"pinyin":"dongsi","name":"东四"},{"pinyin":"dongdan","name":"东单"},{"pinyin":"dengshikou","name":"灯市口"},{"pinyin":"dongzhimenwai","name":"东直门外"},{"pinyin":"gulou","name":"鼓楼"},{"pinyin":"hepingli","name":"和平里"},{"pinyin":"haiyuncang","name":"海运仓"},{"pinyin":"jiaodaokou","name":"交道口"},{"pinyin":"jianguomen","name":"建国门"},{"pinyin":"jingshan","name":"景山"},{"pinyin":"shatan","name":"沙滩"},{"pinyin":"wangfujing","name":"王府井"},{"pinyin":"yonghegong","name":"雍和宫"},{"pinyin":"dongchengqita","name":"其他"}]},{"pinyin":"xicheng","name":"西城","regions":[{"pinyin":"baiwanzhuang","name":"百万庄"},{"pinyin":"chegongzhuang","name":"车公庄"},{"pinyin":"deshengmen","name":"德胜门"},{"pinyin":"dianmen","name":"地安门"},{"pinyin":"fuxingmen","name":"复兴门"},{"pinyin":"fuchengmen","name":"阜成门"},{"pinyin":"guanyuan","name":"官园"},{"pinyin":"xichenggulou","name":"鼓楼"},{"pinyin":"houhai","name":"后海"},{"pinyin":"jishuitan","name":"积水潭"},{"pinyin":"jinrongjie","name":"金融街"},{"pinyin":"liupukang","name":"六铺炕"},{"pinyin":"muxidi","name":"木樨地"},{"pinyin":"xichengmadian","name":"马甸"},{"pinyin":"nanlishilu","name":"南礼士路"},{"pinyin":"shichahai","name":"什刹海"},{"pinyin":"sanlihe","name":"三里河"},{"pinyin":"xichengxizhimen","name":"西直门"},{"pinyin":"xinjiekou","name":"新街口"},{"pinyin":"xiaoxitian","name":"小西天"},{"pinyin":"xisi","name":"西四"},{"pinyin":"xidan","name":"西单"},{"pinyin":"xibianmen","name":"西便门"},{"pinyin":"yuetan","name":"月坛"},{"pinyin":"zhanlanlu","name":"展览路"},{"pinyin":"zhenwumiao","name":"真武庙"},{"pinyin":"xichengqita","name":"其他"}]},{"pinyin":"chongwen","name":"崇文","regions":[{"pinyin":"chongwenmen","name":"崇文门"},{"pinyin":"ciqikou","name":"磁器口"},{"pinyin":"donghuashi","name":"东花市"},{"pinyin":"fahuasi","name":"法华寺"},{"pinyin":"guangqumen","name":"广渠门"},{"pinyin":"guangminglou","name":"光明楼"},{"pinyin":"huatan","name":"花市"},{"pinyin":"longtanhu","name":"龙潭湖"},{"pinyin":"chongwenqianmen","name":"前门"},{"pinyin":"shazikou","name":"沙子口"},{"pinyin":"tiyuguanlu","name":"体育馆路"},{"pinyin":"tiantan","name":"天坛"},{"pinyin":"xinshijie","name":"新世界"},{"pinyin":"yongdingmen","name":"永定门"},{"pinyin":"chongwenqita","name":"其他"}]},{"pinyin":"xuanwu","name":"宣武","regions":[{"pinyin":"baizhifang","name":"白纸坊"},{"pinyin":"baiguanglu","name":"白广路"},{"pinyin":"changchunjie","name":"长椿街"},{"pinyin":"caishikou","name":"菜市口"},{"pinyin":"chunshujiedao","name":"椿树街道"},{"pinyin":"daguanyuan","name":"大观园"},{"pinyin":"dashanlan","name":"大栅栏"},{"pinyin":"guanganmen","name":"广安门"},{"pinyin":"guanganmenwai","name":"广安门外"},{"pinyin":"guanganmennei","name":"广安门内"},{"pinyin":"honglian","name":"红莲"},{"pinyin":"hufangqiao","name":"虎坊桥"},{"pinyin":"hepingmen","name":"和平门"},{"pinyin":"xuanwumaliandao","name":"马连道"},{"pinyin":"nancaiyuan","name":"南菜园"},{"pinyin":"niujie","name":"牛街"},{"pinyin":"xuanwuqianmen","name":"前门"},{"pinyin":"taoranting","name":"陶然亭"},{"pinyin":"tianqiao","name":"天桥"},{"pinyin":"tianningsi","name":"天宁寺"},{"pinyin":"xuanwuxikezhan","name":"西客站"},{"pinyin":"xuanwumen","name":"宣武门"},{"pinyin":"xuanwuyouanmen","name":"右安门"},{"pinyin":"zhushikou","name":"珠市口"},{"pinyin":"xuanwuqita","name":"其他"}]},{"pinyin":"fengtai","name":"丰台","regions":[{"pinyin":"beidadi","name":"北大地"},{"pinyin":"caihuying","name":"菜户营"},{"pinyin":"caoqiao","name":"草桥"},{"pinyin":"chengshousi","name":"成寿寺"},{"pinyin":"changxindian","name":"长辛店"},{"pinyin":"dahongmen","name":"大红门"},{"pinyin":"donggaodi","name":"东高地"},{"pinyin":"dongdajie","name":"东大街"},{"pinyin":"dongtiejiangying","name":"东铁匠营"},{"pinyin":"fangzhuang","name":"方庄"},{"pinyin":"fengtailu","name":"丰台路"},{"pinyin":"fengtaitiyuguan","name":"丰台体育馆"},{"pinyin":"fengyiqiao","name":"丰益桥"},{"pinyin":"heyi","name":"和义"},{"pinyin":"huaxiang","name":"花乡"},{"pinyin":"jiaomen","name":"角门"},{"pinyin":"jiayuan","name":"嘉园"},{"pinyin":"kejiyuanqu","name":"科技园区"},{"pinyin":"kandanqiao","name":"看丹桥"},{"pinyin":"kefengqiao","name":"科丰桥"},{"pinyin":"liuliqiao","name":"六里桥"},{"pinyin":"lizeqiao","name":"丽泽桥"},{"pinyin":"liujiayao","name":"刘家窑"},{"pinyin":"lugouqiao","name":"卢沟桥"},{"pinyin":"lianhuashi","name":"莲花池"},{"pinyin":"fengtaimaliandao","name":"马连道"},{"pinyin":"majiabao","name":"马家堡"},{"pinyin":"muxiyuan","name":"木樨园"},{"pinyin":"nanyuan","name":"南苑"},{"pinyin":"puhuangyu","name":"蒲黄榆"},{"pinyin":"qilizhuang","name":"七里庄"},{"pinyin":"qingta","name":"青塔"},{"pinyin":"songjiazhuang","name":"宋家庄"},{"pinyin":"shijiegongyuan","name":"世界公园"},{"pinyin":"taipingqiao","name":"太平桥"},{"pinyin":"wulidian","name":"五里店"},{"pinyin":"fengtaixikezhan","name":"西客站"},{"pinyin":"xiluoyuan","name":"西罗园"},{"pinyin":"xinfadi","name":"新发地"},{"pinyin":"fengtaixingong","name":"新宫"},{"pinyin":"yuquanying","name":"玉泉营"},{"pinyin":"fengtaiyouanmen","name":"右安门"},{"pinyin":"yangqiao","name":"洋桥"},{"pinyin":"yuegezhuang","name":"岳各庄"},{"pinyin":"yungang","name":"云岗"},{"pinyin":"yihaijiayuan","name":"怡海花园"},{"pinyin":"zhaogongkou","name":"赵公口"},{"pinyin":"zuoanmen","name":"左安门"},{"pinyin":"zongbujidi","name":"总部基地"},{"pinyin":"fengtaiqita","name":"其他"}]},{"pinyin":"shijingshan","name":"石景山","regions":[{"pinyin":"babaoshan","name":"八宝山"},{"pinyin":"bajiao","name":"八角"},{"pinyin":"badachu","name":"八大处"},{"pinyin":"gucheng","name":"古城"},{"pinyin":"guangning","name":"广宁"},{"pinyin":"jindingjie","name":"金顶街"},{"pinyin":"laoshan","name":"老山"},{"pinyin":"lugu","name":"鲁谷"},{"pinyin":"moshikou","name":"模式口"},{"pinyin":"pingguoyuan","name":"苹果园"},{"pinyin":"wulituo","name":"五里坨"},{"pinyin":"xishan","name":"西山"},{"pinyin":"yuquanlu","name":"玉泉路"},{"pinyin":"yamenkou","name":"衙门口"},{"pinyin":"yangzhuang","name":"杨庄"},{"pinyin":"yongle","name":"永乐"},{"pinyin":"shijingshanqita","name":"其他"}]},{"pinyin":"changping","name":"昌平","regions":[{"pinyin":"beiqijia","name":"北七家"},{"pinyin":"baishan","name":"百善"},{"pinyin":"changpingxiancheng","name":"昌平县城"},{"pinyin":"chengbei","name":"城北"},{"pinyin":"chengnan","name":"城南"},{"pinyin":"changling","name":"长陵"},{"pinyin":"dongxiaokou","name":"东小口"},{"pinyin":"huilongguan","name":"回龙观"},{"pinyin":"huoying","name":"霍营"},{"pinyin":"longze","name":"龙泽"},{"pinyin":"lishuiqiao","name":"立水桥"},{"pinyin":"machikou","name":"马池口"},{"pinyin":"nankou","name":"南口"},{"pinyin":"nanshao","name":"南邵"},{"pinyin":"nanshaozhen","name":"南邵镇"},{"pinyin":"shahezhen","name":"沙河镇"},{"pinyin":"shisanling","name":"十三陵"},{"pinyin":"shahe","name":"沙河"},{"pinyin":"tiantongyuan","name":"天通苑"},{"pinyin":"xiaotangshan","name":"小汤山"},{"pinyin":"xingshou","name":"兴寿"},{"pinyin":"yangfang","name":"阳坊"},{"pinyin":"changpingqita","name":"其他"}]},{"pinyin":"tongzhou","name":"通州","regions":[{"pinyin":"beiguanhuandao","name":"北关环岛"},{"pinyin":"tongzhoubeiyuan","name":"北苑"},{"pinyin":"beiguan","name":"北关"},{"pinyin":"baliqiao","name":"八里桥"},{"pinyin":"batongqingguiyanxian","name":"八通轻轨沿线"},{"pinyin":"ciqu","name":"次渠"},{"pinyin":"dongguan","name":"东关"},{"pinyin":"guoyuan","name":"果园"},{"pinyin":"jiukeshu","name":"九棵树"},{"pinyin":"huoxian","name":"漷县"},{"pinyin":"liyuan","name":"梨园"},{"pinyin":"liyuanchengtie","name":"梨园城铁"},{"pinyin":"linheli","name":"临河里"},{"pinyin":"lucheng","name":"潞城"},{"pinyin":"luyuan","name":"潞苑"},{"pinyin":"majuqiao","name":"马驹桥"},{"pinyin":"qiaozhuang","name":"乔庄"},{"pinyin":"tuqiao","name":"土桥"},{"pinyin":"wuyihuayuan","name":"武夷花园"},{"pinyin":"xinhuadajie","name":"新华大街"},{"pinyin":"ximen","name":"西门"},{"pinyin":"yuqiao","name":"玉桥"},{"pinyin":"yongshun","name":"永顺"},{"pinyin":"yunhedajie","name":"运河大街"},{"pinyin":"zhongcang","name":"中仓"},{"pinyin":"zhangjiawan","name":"张家湾"},{"pinyin":"tongzhouqita","name":"其他"}]},{"pinyin":"daxing","name":"大兴","regions":[{"pinyin":"binhe","name":"滨河"},{"pinyin":"guanyinsi","name":"观音寺"},{"pinyin":"gaomidian","name":"高米店"},{"pinyin":"huangcun","name":"黄村"},{"pinyin":"haizijiao","name":"海子角"},{"pinyin":"jiugong","name":"旧宫"},{"pinyin":"linxiaolu","name":"林校路"},{"pinyin":"panggezhuang","name":"庞各庄"},{"pinyin":"qingyuan","name":"清源"},{"pinyin":"tongxingyuan","name":"同兴园"},{"pinyin":"xihongmen","name":"西红门"},{"pinyin":"xingong","name":"新宫"},{"pinyin":"xingfengdajie","name":"兴丰大街"},{"pinyin":"xinghuadajie","name":"兴华大街"},{"pinyin":"xingyedajie","name":"兴业大街"},{"pinyin":"yizhuang","name":"亦庄"},{"pinyin":"yuhuayuan","name":"郁花园"},{"pinyin":"yinghaizhen","name":"瀛海镇"},{"pinyin":"daxingqita","name":"其他"}]},{"pinyin":"shunyi","name":"顺义","regions":[{"pinyin":"guangming","name":"光明"},{"pinyin":"houshayu","name":"后沙峪"},{"pinyin":"jichang","name":"机场"},{"pinyin":"jianxin","name":"建新"},{"pinyin":"liqiao","name":"李桥"},{"pinyin":"mapo","name":"马坡"},{"pinyin":"nancai","name":"南彩"},{"pinyin":"nanfaxin","name":"南法信"},{"pinyin":"renhe","name":"仁和"},{"pinyin":"shengli","name":"胜利"},{"pinyin":"shiyuan","name":"石园"},{"pinyin":"shunyichengqu","name":"顺义城区"},{"pinyin":"tianzhu","name":"天竺"},{"pinyin":"xinguozhan","name":"新国展"},{"pinyin":"yangzhen","name":"杨镇"},{"pinyin":"yulong","name":"裕龙"},{"pinyin":"zhongyangbieshuqu","name":"中央别墅区"},{"pinyin":"shunyiqita","name":"其他"}]},{"pinyin":"fangshan","name":"房山","regions":[{"pinyin":"changyang","name":"长阳"},{"pinyin":"doudian","name":"窦店"},{"pinyin":"fangshanchengguan","name":"房山城关"},{"pinyin":"hancunhe","name":"韩村河"},{"pinyin":"liangxiang","name":"良乡"},{"pinyin":"liulihe","name":"琉璃河"},{"pinyin":"shilou","name":"石楼"},{"pinyin":"yancun","name":"阎村"},{"pinyin":"yingfeng","name":"迎风"},{"pinyin":"yanshan","name":"燕山"},{"pinyin":"zhoukoudian","name":"周口店"},{"pinyin":"fangshanqita","name":"其他"}]},{"pinyin":"miyun","name":"密云","regions":[{"pinyin":"beizhuang","name":"北庄"},{"pinyin":"bulaotun","name":"不老屯"},{"pinyin":"gubeikou","name":"古北口"},{"pinyin":"miyun1","name":"密云"},{"pinyin":"mujiayu","name":"穆家峪"},{"pinyin":"miyunchengqu","name":"密云城区"},{"pinyin":"miyunshilipu","name":"十里堡"},{"pinyin":"taishitun","name":"太师屯"},{"pinyin":"xiwengzhuang","name":"溪翁庄"},{"pinyin":"xinchengzi","name":"新城子"},{"pinyin":"miyunqita","name":"其他"}]},{"pinyin":"mentougou","name":"门头沟","regions":[{"pinyin":"chengzijiedao","name":"城子街道"},{"pinyin":"dayu","name":"大峪"},{"pinyin":"dongxinfang","name":"东辛房"},{"pinyin":"yuzhuang","name":"军庄"},{"pinyin":"longquan","name":"龙泉"},{"pinyin":"miaofengshan","name":"妙峰山"},{"pinyin":"qingshui","name":"清水"},{"pinyin":"taizhesi","name":"潭柘寺"},{"pinyin":"yongding","name":"永定"},{"pinyin":"mentougouqita","name":"其他"}]},{"pinyin":"huairou","name":"怀柔","regions":[{"pinyin":"beifang","name":"北房"},{"pinyin":"bohaizhen","name":"渤海镇"},{"pinyin":"huairou1","name":"怀柔"},{"pinyin":"huaibei","name":"怀北"},{"pinyin":"huairouchengqu","name":"怀柔城区"},{"pinyin":"jiuduhe","name":"九渡河"},{"pinyin":"miaocheng","name":"庙城"},{"pinyin":"quanhe","name":"泉河"},{"pinyin":"qiaoxin","name":"桥梓"},{"pinyin":"tanghekou","name":"汤河口"},{"pinyin":"yangsong","name":"杨宋"},{"pinyin":"yanqi","name":"雁栖"},{"pinyin":"huairouqita","name":"其他"}]},{"pinyin":"pinggu","name":"平谷","regions":[{"pinyin":"pinggubinhe","name":"滨河"},{"pinyin":"binhelu","name":"滨河路"},{"pinyin":"donggaocun","name":"东高村"},{"pinyin":"huangsonggu","name":"黄松峪"},{"pinyin":"jinhaihu","name":"金海湖"},{"pinyin":"liujiadian","name":"刘家店"},{"pinyin":"machangying","name":"马昌营"},{"pinyin":"pingguzhen","name":"平谷镇"},{"pinyin":"pingguchengqu","name":"平谷城区"},{"pinyin":"wangxinzhuang","name":"王辛庄"},{"pinyin":"xinggu","name":"兴谷"},{"pinyin":"xiongerzhai","name":"熊儿寨"},{"pinyin":"yuyang","name":"渔阳"},{"pinyin":"yukou","name":"峪口"},{"pinyin":"zhenluoying","name":"镇罗营"},{"pinyin":"pingguqita","name":"其他"}]},{"pinyin":"yanqing","name":"延庆","regions":[{"pinyin":"badaling","name":"八达岭"},{"pinyin":"dayushu","name":"大榆树"},{"pinyin":"kangzhuang","name":"康庄"},{"pinyin":"yanqing1","name":"延庆"},{"pinyin":"yongning","name":"永宁"},{"pinyin":"yanqingchengqu","name":"延庆城区"},{"pinyin":"yanqingqita","name":"其他"}]},{"pinyin":"yanjiao","name":"燕郊","regions":[]},{"pinyin":"beijingzhoubian","name":"北京周边","regions":[{"pinyin":"guan","name":"固安"},{"pinyin":"sanhe","name":"三河"},{"pinyin":"xianghe","name":"香河"},{"pinyin":"zhuozhou","name":"涿州"}]}]},{"cname":"上海","cen":"sh","districts":[{"pinyin":"pudongxinqu","name":"浦东","regions":[{"pinyin":"babaiban","name":"八佰伴"},{"pinyin":"beicai","name":"北蔡"},{"pinyin":"biyun","name":"碧云"},{"pinyin":"caolu","name":"曹路"},{"pinyin":"chuansha","name":"川沙"},{"pinyin":"changli","name":"昌里"},{"pinyin":"dongchangzhanditie","name":"东昌站地铁"},{"pinyin":"dongfangluditie","name":"东方路地铁"},{"pinyin":"dongminglu","name":"东明路"},{"pinyin":"gaohang","name":"高行"},{"pinyin":"gaoqiao","name":"高桥"},{"pinyin":"huamu","name":"花木"},{"pinyin":"heqing","name":"合庆"},{"pinyin":"jinyangxincun","name":"金杨新村"},{"pinyin":"jinqiao","name":"金桥"},{"pinyin":"lujiazui","name":"陆家嘴"},{"pinyin":"liuli","name":"六里"},{"pinyin":"lianyang","name":"联洋"},{"pinyin":"longyangluditiezhan","name":"龙阳路地铁站"},{"pinyin":"meiyuan","name":"梅园"},{"pinyin":"nanmatou","name":"南码头"},{"pinyin":"pudongwaihuan","name":"浦东外环"},{"pinyin":"shanggangxincun","name":"上钢新村"},{"pinyin":"shangnanxincun","name":"上南新村"},{"pinyin":"sanlin","name":"三林"},{"pinyin":"shijigongyuan","name":"世纪公园"},{"pinyin":"pudongshibobinjiang","name":"世博滨江"},{"pinyin":"tangqiao","name":"塘桥"},{"pinyin":"tangzhen","name":"唐镇"},{"pinyin":"weifang","name":"潍坊"},{"pinyin":"waigaoqiao","name":"外高桥"},{"pinyin":"yuanshenzhuyuan","name":"源深竹园"},{"pinyin":"yangdong","name":"杨东"},{"pinyin":"yangjing","name":"洋泾"},{"pinyin":"yuqiao","name":"御桥"},{"pinyin":"zhoujiadu","name":"周家渡"},{"pinyin":"zhangjiang","name":"张江"},{"pinyin":"zhuyuanshangmaoqu","name":"竹园商贸区"},{"pinyin":"pudongxinquqita","name":"其他"}]},{"pinyin":"minhang","name":"闵行","regions":[{"pinyin":"beiqiao","name":"北桥"},{"pinyin":"caobaolu","name":"漕宝路"},{"pinyin":"chunshen","name":"春申"},{"pinyin":"donglanxincun","name":"东兰新村"},{"pinyin":"fengxi","name":"凤溪"},{"pinyin":"gumeiluoyang","name":"古美罗阳"},{"pinyin":"huacao","name":"华漕"},{"pinyin":"hanghualongbai","name":"航华"},{"pinyin":"minhanghongqiao","name":"虹桥"},{"pinyin":"hongmeilu","name":"虹梅路"},{"pinyin":"jinhongqiao","name":"金虹桥"},{"pinyin":"jinganxincheng","name":"静安新城"},{"pinyin":"jiangchuanlu","name":"江川路"},{"pinyin":"jiwang","name":"纪王"},{"pinyin":"longbojinhui","name":"龙柏金汇"},{"pinyin":"laominhang","name":"老闵行"},{"pinyin":"meilong","name":"梅陇"},{"pinyin":"maqiao","name":"马桥"},{"pinyin":"nanfangshangcheng","name":"南方商城"},{"pinyin":"pujiang","name":"浦江"},{"pinyin":"qibao","name":"七宝"},{"pinyin":"qiangweixincun","name":"蔷薇新村"},{"pinyin":"qishenlu","name":"七莘路"},{"pinyin":"minxingshenzhuanggongyequ","name":"莘庄工业区"},{"pinyin":"wujing","name":"吴泾"},{"pinyin":"shenzhuang","name":"莘庄"},{"pinyin":"zhuanqiao","name":"颛桥"},{"pinyin":"zhudi","name":"诸翟"},{"pinyin":"minhangqita","name":"其他"}]},{"pinyin":"xuhui","name":"徐汇","regions":[{"pinyin":"caobaoluditie","name":"漕宝路地铁"},{"pinyin":"changqiao","name":"长桥"},{"pinyin":"xuhuicaohejing","name":"漕河泾"},{"pinyin":"fuxingzhonglu","name":"复兴中路"},{"pinyin":"fenglinlu","name":"枫林路"},{"pinyin":"huaihaixilu","name":"淮海西路"},{"pinyin":"hunanlu","name":"湖南路"},{"pinyin":"huadongligong","name":"华东理工"},{"pinyin":"huajing","name":"华泾"},{"pinyin":"hengshanlu","name":"衡山路"},{"pinyin":"jiaoda","name":"交大"},{"pinyin":"jianguoxilu","name":"建国西路"},{"pinyin":"kangjian","name":"康健"},{"pinyin":"longhua","name":"龙华"},{"pinyin":"lingyunlu","name":"凌云路"},{"pinyin":"shangshida","name":"上师大"},{"pinyin":"shanghainanzhan","name":"上海南站"},{"pinyin":"tianlin","name":"田林"},{"pinyin":"wantiguan","name":"万体馆"},{"pinyin":"xujiahui","name":"徐家汇"},{"pinyin":"xietulu","name":"斜土路"},{"pinyin":"xiangyangnanlu","name":"襄阳南路"},{"pinyin":"zhaojiabanglu","name":"肇嘉浜路"},{"pinyin":"zhiwuyuan","name":"植物园"},{"pinyin":"xuhuiqita","name":"其他"}]},{"pinyin":"changning","name":"长宁","regions":[{"pinyin":"beixinjing","name":"北新泾"},{"pinyin":"chengjiaqiao","name":"程家桥"},{"pinyin":"dongwuyuan","name":"动物园"},{"pinyin":"gubei","name":"古北"},{"pinyin":"changninghongqiao","name":"虹桥"},{"pinyin":"hongqiaohuochezhan","name":"虹桥火车站"},{"pinyin":"jiangsuluditie","name":"江苏路地铁"},{"pinyin":"shanghaiyingcheng","name":"上海影城"},{"pinyin":"tianshanlu","name":"天山路"},{"pinyin":"xinhualu","name":"新华路"},{"pinyin":"xianxiaxincun","name":"仙霞新村"},{"pinyin":"zhenninglu","name":"镇宁路"},{"pinyin":"zhongshangongyuan","name":"中山公园"},{"pinyin":"zhoujiaqiao","name":"周家桥"},{"pinyin":"changningqita","name":"其他"}]},{"pinyin":"putuo","name":"普陀","regions":[{"pinyin":"zhangshoulu","name":"长寿路"},{"pinyin":"caoyangxincun","name":"曹杨新村"},{"pinyin":"zhangfengxincun","name":"长风新村"},{"pinyin":"changzheng","name":"长征"},{"pinyin":"guangxin","name":"光新"},{"pinyin":"ganquanlu","name":"甘泉路"},{"pinyin":"huashida","name":"华师大"},{"pinyin":"jinshajianglu","name":"金沙江路"},{"pinyin":"liziyuan","name":"李子园"},{"pinyin":"shiquanlu","name":"石泉路"},{"pinyin":"taopu","name":"桃浦"},{"pinyin":"wuninglu","name":"武宁路"},{"pinyin":"wanlicheng","name":"万里城"},{"pinyin":"yichuanlu","name":"宜川路"},{"pinyin":"zhongyuanliangwancheng","name":"中远两湾城"},{"pinyin":"zhenguangxincun","name":"真光新村"},{"pinyin":"zhenru","name":"真如"},{"pinyin":"putuoqita","name":"其他"}]},{"pinyin":"jingan","name":"静安","regions":[{"pinyin":"beijingxilu","name":"北京西路"},{"pinyin":"caojiadu","name":"曹家渡"},{"pinyin":"changpinglu","name":"昌平路"},{"pinyin":"jingansi","name":"静安寺"},{"pinyin":"jiangninglu","name":"江宁路"},{"pinyin":"nanjingxilu","name":"南京西路"},{"pinyin":"xikanglu","name":"西康路"},{"pinyin":"xinzhalu","name":"新闸路"},{"pinyin":"jinganqita","name":"其他"}]},{"pinyin":"luwan","name":"卢湾","regions":[{"pinyin":"dapuqiao","name":"打浦桥"},{"pinyin":"fuxinggongyuan","name":"复兴公园"},{"pinyin":"huaihaizhonglu","name":"淮海中路"},{"pinyin":"lubanlu","name":"鲁班路"},{"pinyin":"luwanshibobinjiang","name":"世博滨江"},{"pinyin":"wuliqiao","name":"五里桥"},{"pinyin":"xintiande","name":"新天地"},{"pinyin":"luwanqita","name":"其他"}]},{"pinyin":"huangpu","name":"黄浦","regions":[{"pinyin":"bansongyuanlu","name":"半淞园路"},{"pinyin":"dongjiadu","name":"董家渡"},{"pinyin":"huangpubinjiang","name":"黄浦滨江"},{"pinyin":"laoximen","name":"老西门"},{"pinyin":"nanjingdonglu","name":"南京东路"},{"pinyin":"nanwaitan","name":"南外滩"},{"pinyin":"penglaigongyuan","name":"蓬莱公园"},{"pinyin":"renminguangchang","name":"人民广场"},{"pinyin":"waitan","name":"外滩"},{"pinyin":"xizangnanlu","name":"西藏南路"},{"pinyin":"yuyuan","name":"豫园"},{"pinyin":"huangpuqita","name":"其他"}]},{"pinyin":"zhabei","name":"闸北","regions":[{"pinyin":"baoshanlu","name":"宝山路"},{"pinyin":"daninglu","name":"大宁路"},{"pinyin":"gonghexinlu","name":"共和新路"},{"pinyin":"hetian","name":"和田"},{"pinyin":"laobeizhan","name":"老北站"},{"pinyin":"pengpu","name":"彭浦"},{"pinyin":"tianmuxilu","name":"天目西路"},{"pinyin":"wenshuilu","name":"汶水路"},{"pinyin":"xinkezhan","name":"新客站"},{"pinyin":"xizangbeilu","name":"西藏北路"},{"pinyin":"yanchanglu","name":"延长路"},{"pinyin":"zhijiangxilu","name":"芷江西路"},{"pinyin":"zhabeigongyuan","name":"闸北公园"},{"pinyin":"zhabeiqita","name":"其他"}]},{"pinyin":"hongkou","name":"虹口","regions":[{"pinyin":"beiwaitan","name":"北外滩"},{"pinyin":"dabaishu","name":"大柏树"},{"pinyin":"guangzhonglu","name":"广中路"},{"pinyin":"hepinggongyuan","name":"和平公园"},{"pinyin":"jiangwan","name":"江湾"},{"pinyin":"liangchengxincun","name":"凉城"},{"pinyin":"luxungongyuan","name":"鲁迅公园"},{"pinyin":"linpinglu","name":"临平路"},{"pinyin":"quyanglu","name":"曲阳路"},{"pinyin":"sichuanbeilu","name":"四川北路"},{"pinyin":"hongkousipinglu","name":"四平路"},{"pinyin":"tilanqiao","name":"提篮桥"},{"pinyin":"hongkouzhoujiazuilu","name":"周家嘴路"},{"pinyin":"hongkouqita","name":"其他"}]},{"pinyin":"yangpu","name":"杨浦","regions":[{"pinyin":"anshan","name":"鞍山"},{"pinyin":"zhangbaixincun","name":"长白新村"},{"pinyin":"zhangyanglu","name":"长阳路"},{"pinyin":"dongwaitan","name":"东外滩"},{"pinyin":"fudandaxue","name":"复旦大学"},{"pinyin":"huangxing","name":"黄兴"},{"pinyin":"kongjianglu","name":"控江路"},{"pinyin":"pinglianglu","name":"平凉路"},{"pinyin":"yangpusipinglu","name":"四平路"},{"pinyin":"wujiaochang","name":"五角场"},{"pinyin":"xinjiangwancheng","name":"新江湾城"},{"pinyin":"xinhuayiyuan","name":"新华医院"},{"pinyin":"yangpugongyuan","name":"杨浦公园"},{"pinyin":"yangpudaqiao","name":"杨浦大桥"},{"pinyin":"zhongyuan","name":"中原"},{"pinyin":"yangpuzhoujiazuilu","name":"周家嘴路"},{"pinyin":"yangpuqita","name":"其他"}]},{"pinyin":"baoshan","name":"宝山","regions":[{"pinyin":"dahua","name":"大华"},{"pinyin":"dachang","name":"大场"},{"pinyin":"dongchengqu","name":"东城区"},{"pinyin":"gucun","name":"顾村"},{"pinyin":"gongfu","name":"共富"},{"pinyin":"gongkang","name":"共康"},{"pinyin":"gaojing","name":"高境"},{"pinyin":"jinqiuhuayuan","name":"锦秋花园"},{"pinyin":"luodian","name":"罗店"},{"pinyin":"luojing","name":"罗泾"},{"pinyin":"liuxing","name":"刘行"},{"pinyin":"luonan","name":"罗南"},{"pinyin":"miaohang","name":"庙行"},{"pinyin":"shangda","name":"上大"},{"pinyin":"sitang","name":"泗塘"},{"pinyin":"songnan","name":"淞南"},{"pinyin":"songbao","name":"淞宝"},{"pinyin":"shuichanlu","name":"水产路"},{"pinyin":"tonghexincun","name":"通河新村"},{"pinyin":"tonghexichengqu","name":"通河西城区"},{"pinyin":"wusong","name":"吴淞"},{"pinyin":"yanghang","name":"杨行"},{"pinyin":"youyilu","name":"友谊路"},{"pinyin":"yuepu","name":"月浦"},{"pinyin":"zhangmiao","name":"张庙"},{"pinyin":"baoshanqita","name":"其他"}]},{"pinyin":"jiading","name":"嘉定","regions":[{"pinyin":"anting","name":"安亭"},{"pinyin":"caowang","name":"曹王"},{"pinyin":"fengzhuang","name":"丰庄"},{"pinyin":"fengbang","name":"封浜"},{"pinyin":"huangdu","name":"黄渡"},{"pinyin":"huating","name":"华亭"},{"pinyin":"jiangqiao","name":"江桥"},{"pinyin":"jiading1","name":"嘉定城区"},{"pinyin":"jiadingzhen","name":"嘉定镇"},{"pinyin":"juyuanxinqu","name":"菊园新区"},{"pinyin":"jinhexincheng","name":"金鹤新城"},{"pinyin":"loutang","name":"娄塘"},{"pinyin":"malu","name":"马陆"},{"pinyin":"nanxiang","name":"南翔"},{"pinyin":"tangxing","name":"唐行"},{"pinyin":"waigang","name":"外冈"},{"pinyin":"xincheng","name":"新城"},{"pinyin":"xuxing","name":"徐行"},{"pinyin":"zhenxinxincun","name":"真新新村"},{"pinyin":"jiadingzhuqiao","name":"朱桥"},{"pinyin":"jiadingqita","name":"其他"}]},{"pinyin":"qingpu","name":"青浦","regions":[{"pinyin":"baihe","name":"白鹤"},{"pinyin":"huaxin","name":"华新"},{"pinyin":"huaxinzhen","name":"华新镇"},{"pinyin":"jinze","name":"金泽"},{"pinyin":"qingpuxincheng","name":"青浦新城"},{"pinyin":"qingpubeibu","name":"青浦北部"},{"pinyin":"qingpugongyeyuanqu","name":"青浦工业园区"},{"pinyin":"qingpuzhoubian","name":"青浦周边"},{"pinyin":"xujing","name":"徐泾"},{"pinyin":"xianghuaqiao","name":"香花桥"},{"pinyin":"xiayangjiedao","name":"夏阳街道"},{"pinyin":"zhaoxiang","name":"赵巷"},{"pinyin":"zhujiajiao","name":"朱家角"},{"pinyin":"zhonggu","name":"重固"},{"pinyin":"zhaotun","name":"赵屯"},{"pinyin":"qingpuqita","name":"其他"}]},{"pinyin":"songjiang","name":"松江","regions":[{"pinyin":"chedun","name":"车墩"},{"pinyin":"dongjing","name":"洞泾"},{"pinyin":"dagang","name":"大港"},{"pinyin":"fangsong","name":"方松"},{"pinyin":"jiuting","name":"九亭"},{"pinyin":"litahui","name":"李塔汇"},{"pinyin":"liantang","name":"练塘"},{"pinyin":"liugang","name":"泖港"},{"pinyin":"rongbei","name":"茸北"},{"pinyin":"shenmin","name":"莘闵"},{"pinyin":"sijing","name":"泗泾"},{"pinyin":"sheshan","name":"佘山"},{"pinyin":"songjiangdaxuecheng","name":"松江大学城"},{"pinyin":"songjiangxincheng","name":"松江新城"},{"pinyin":"songjianglaocheng","name":"松江老城"},{"pinyin":"songjianggongyequ","name":"松江工业区"},{"pinyin":"songjiangkejiyuan","name":"松江科技园"},{"pinyin":"shihudang","name":"石湖荡"},{"pinyin":"tianmashan","name":"天马山"},{"pinyin":"wushe","name":"五厍"},{"pinyin":"xinqiao","name":"新桥"},{"pinyin":"yexie","name":"叶榭"},{"pinyin":"xinbang","name":"新浜"},{"pinyin":"songjiangxiaokunshan","name":"小昆山"},{"pinyin":"yueyang","name":"岳阳"},{"pinyin":"yongfeng","name":"永丰"},{"pinyin":"zhongshan","name":"中山"},{"pinyin":"songjiangqita","name":"其他"}]},{"pinyin":"jinshan","name":"金山","regions":[{"pinyin":"caojing","name":"漕泾"},{"pinyin":"fengjing","name":"枫泾"},{"pinyin":"jinshanxincheng","name":"金山新城"},{"pinyin":"jinshanwei","name":"金山卫"},{"pinyin":"jinshanzhongbu","name":"金山中部"},{"pinyin":"shihua","name":"石化"},{"pinyin":"tinglin","name":"亭林"},{"pinyin":"zhujing","name":"朱泾"}]},{"pinyin":"fengxian","name":"奉贤","regions":[{"pinyin":"fengcheng","name":"奉城"},{"pinyin":"haiwan","name":"海湾"},{"pinyin":"haiwanlvyouqu","name":"海湾旅游区"},{"pinyin":"jinhui","name":"金汇"},{"pinyin":"nanqiao","name":"南桥"},{"pinyin":"xidu","name":"西渡"},{"pinyin":"zhuanghang","name":"庄行"},{"pinyin":"zhelin","name":"柘林"},{"pinyin":"fengxianqita","name":"其他"}]},{"pinyin":"nanhui","name":"南汇","regions":[{"pinyin":"hangtou","name":"航头"},{"pinyin":"huinan","name":"惠南"},{"pinyin":"kangqiao","name":"康桥"},{"pinyin":"lingangxincheng","name":"临港新城"},{"pinyin":"luchaogang","name":"芦潮港"},{"pinyin":"nicheng","name":"泥城"},{"pinyin":"xinchang","name":"新场"},{"pinyin":"zhoupu","name":"周浦"},{"pinyin":"zhuqiao","name":"祝桥"},{"pinyin":"nanhuiqita","name":"其他"}]},{"pinyin":"chongming","name":"崇明","regions":[{"pinyin":"baozhen","name":"堡镇"},{"pinyin":"chengqiao","name":"城桥"},{"pinyin":"chongmingchongming","name":"崇明"},{"pinyin":"chongmingxincheng","name":"崇明新城"},{"pinyin":"chenjiazhen","name":"陈家镇"},{"pinyin":"changxingdao","name":"长兴岛"},{"pinyin":"hengshadao","name":"横沙岛"},{"pinyin":"chongmingqita","name":"其他"}]},{"pinyin":"shanghaizhoubian","name":"上海周边","regions":[{"pinyin":"jiaxing","name":"嘉兴"},{"pinyin":"kunshan","name":"昆山"},{"pinyin":"suzhou","name":"苏州"}]}]},{"cname":"广州","cen":"gz","districts":[{"pinyin":"tianhe","name":"天河","regions":[{"pinyin":"chebei","name":"车陂"},{"pinyin":"zhangxing","name":"长兴"},{"pinyin":"changban","name":"长湴"},{"pinyin":"dongpu","name":"东圃"},{"pinyin":"dengfeng","name":"登峰"},{"pinyin":"fenghuang","name":"凤凰"},{"pinyin":"gangding","name":"岗顶"},{"pinyin":"guangzhoudadaozhong","name":"广州大道中"},{"pinyin":"huangcun","name":"黄村"},{"pinyin":"huajingxincheng","name":"华景新城"},{"pinyin":"huangpudadaoxi","name":"黄埔大道西"},{"pinyin":"longkouxi","name":"龙口西"},{"pinyin":"longkoudong","name":"龙口东"},{"pinyin":"linhe","name":"林和"},{"pinyin":"longdong","name":"龙洞"},{"pinyin":"qianjin","name":"前进"},{"pinyin":"shangshe","name":"上社"},{"pinyin":"shipai","name":"石牌"},{"pinyin":"shahe","name":"沙河"},{"pinyin":"shatainan","name":"沙太南"},{"pinyin":"shadong","name":"沙东"},{"pinyin":"tangxia","name":"棠下"},{"pinyin":"tianhegongyuan","name":"天河公园"},{"pinyin":"tianhebei","name":"天河北"},{"pinyin":"tiyuzhongxin","name":"体育中心"},{"pinyin":"tiyuxilu","name":"体育西路"},{"pinyin":"tianhenan","name":"天河南"},{"pinyin":"tianhedonglu","name":"天河东路"},{"pinyin":"tianpingjia","name":"天平架"},{"pinyin":"tianhekeyunzhan","name":"天河客运站"},{"pinyin":"tianyuan","name":"天园"},{"pinyin":"wushan","name":"五山"},{"pinyin":"liede","name":"猎德"},{"pinyin":"tianhexiancun","name":"冼村"},{"pinyin":"tianhexintang","name":"新塘"},{"pinyin":"xinghua","name":"兴华"},{"pinyin":"yuancun","name":"员村"},{"pinyin":"yueken","name":"粤垦"},{"pinyin":"yuangang","name":"元岗"},{"pinyin":"yuancunerhenglu","name":"员村二横路"},{"pinyin":"zhujiangxincheng","name":"珠江新城"},{"pinyin":"zhiwuyuan","name":"植物园"},{"pinyin":"zhuji","name":"珠吉"},{"pinyin":"zhongshandadao","name":"中山大道"},{"pinyin":"tianheqita","name":"其他"}]},{"pinyin":"haizhu","name":"海珠","regions":[{"pinyin":"binjiangdong","name":"滨江东"},{"pinyin":"binjiang","name":"滨江"},{"pinyin":"baogang","name":"宝岗"},{"pinyin":"chigang","name":"赤岗"},{"pinyin":"changgang","name":"昌岗"},{"pinyin":"dongxiao","name":"东晓南"},{"pinyin":"fengyang","name":"凤阳"},{"pinyin":"guangzhoudadaonan","name":"广州大道南"},{"pinyin":"gongyedadaobei","name":"工业大道北"},{"pinyin":"gongyedadao","name":"工业大道"},{"pinyin":"gongyedadaonan","name":"工业大道南"},{"pinyin":"guanzhou","name":"官洲"},{"pinyin":"gongyedadaozhong","name":"工业大道中"},{"pinyin":"haizhuang","name":"海幢"},{"pinyin":"huazhou","name":"华洲"},{"pinyin":"jiangnandadaonan","name":"江南大道南"},{"pinyin":"jiangnanxi","name":"江南西"},{"pinyin":"jiangnanzhong","name":"江南中"},{"pinyin":"jiangnandadaozhong","name":"江南大道中"},{"pinyin":"jiangyanlu","name":"江燕路"},{"pinyin":"jianghai","name":"江海"},{"pinyin":"kecun","name":"客村"},{"pinyin":"lijiao","name":"沥滘"},{"pinyin":"longfeng","name":"龙凤"},{"pinyin":"nanhuaxi","name":"南华西"},{"pinyin":"nanshitou","name":"南石头"},{"pinyin":"nanzhou","name":"南洲"},{"pinyin":"pazhou","name":"琶洲"},{"pinyin":"qianjinlu","name":"前进路"},{"pinyin":"ruibao","name":"瑞宝"},{"pinyin":"sushe","name":"素社"},{"pinyin":"shayuan","name":"沙园"},{"pinyin":"xingang","name":"新港"},{"pinyin":"xingangxi","name":"新港西"},{"pinyin":"xiadulu","name":"下渡路"},{"pinyin":"xiaogang","name":"晓港"},{"pinyin":"yilelu","name":"怡乐路"},{"pinyin":"zhongda","name":"中大"},{"pinyin":"haizhuqita","name":"其他"}]},{"pinyin":"yuexiu","name":"越秀","regions":[{"pinyin":"beijinglu","name":"北京路"},{"pinyin":"yuexiubaiyun","name":"白云"},{"pinyin":"dongfengdong","name":"东风东"},{"pinyin":"dongshankou","name":"东山口"},{"pinyin":"dongchuan","name":"东川"},{"pinyin":"dongfenglu","name":"东风路"},{"pinyin":"daxin","name":"大新"},{"pinyin":"dashatou","name":"大沙头"},{"pinyin":"donghu","name":"东湖"},{"pinyin":"dadong","name":"大东"},{"pinyin":"ershadao","name":"二沙岛"},{"pinyin":"guangwei","name":"广卫"},{"pinyin":"guangta","name":"光塔"},{"pinyin":"huanshidong","name":"环市东"},{"pinyin":"huanghuagang","name":"黄花岗"},{"pinyin":"huanshizhong","name":"环市中"},{"pinyin":"huale","name":"华乐"},{"pinyin":"hongqiao","name":"洪桥"},{"pinyin":"jianshe","name":"建设"},{"pinyin":"jiefangnan","name":"解放南"},{"pinyin":"jiefangbei","name":"解放北"},{"pinyin":"liuhua","name":"流花"},{"pinyin":"liurong","name":"六榕"},{"pinyin":"meihuacun","name":"梅花村"},{"pinyin":"nonglinxialu","name":"农林下路"},{"pinyin":"nongjiangsuo","name":"农讲所"},{"pinyin":"panfulu","name":"盘福路"},{"pinyin":"renmin","name":"人民"},{"pinyin":"shuiyinlu","name":"水荫路"},{"pinyin":"shishu","name":"诗书"},{"pinyin":"taojin","name":"淘金"},{"pinyin":"wuyangxincheng","name":"五羊新城"},{"pinyin":"xiaobei","name":"小北"},{"pinyin":"ximenkou","name":"西门口"},{"pinyin":"yangqicun","name":"杨箕村"},{"pinyin":"zhongshanlu","name":"中山路"},{"pinyin":"yuexiuqita","name":"其他"}]},{"pinyin":"baiyun","name":"白云","regions":[{"pinyin":"baiyundadaonan","name":"白云大道南"},{"pinyin":"baiyundadaobei","name":"白云大道北"},{"pinyin":"guangzhoudadaobei","name":"广州大道北"},{"pinyin":"guangyuanlu","name":"广园路"},{"pinyin":"guihuagang","name":"桂花岗"},{"pinyin":"guanghua","name":"广花"},{"pinyin":"huangshi","name":"黄石"},{"pinyin":"huangbian","name":"黄边"},{"pinyin":"hebian","name":"鹤边"},{"pinyin":"jichanglu","name":"机场路"},{"pinyin":"jingxi","name":"京溪"},{"pinyin":"jinshazhou","name":"金沙洲"},{"pinyin":"jingtai","name":"景泰"},{"pinyin":"jiahewanggang","name":"嘉禾望岗"},{"pinyin":"junhe","name":"均禾"},{"pinyin":"jianggao","name":"江高"},{"pinyin":"jiufo","name":"九佛"},{"pinyin":"baiyunjiahe","name":"嘉禾"},{"pinyin":"kuangquan","name":"矿泉"},{"pinyin":"luochongwei","name":"罗冲围"},{"pinyin":"longgui","name":"龙归"},{"pinyin":"liangtian","name":"良田"},{"pinyin":"meihuayuan","name":"梅花园"},{"pinyin":"nanhu","name":"南湖"},{"pinyin":"renhe","name":"人和"},{"pinyin":"sanyuanli","name":"三元里"},{"pinyin":"shijing","name":"石井"},{"pinyin":"shataibei","name":"沙太北"},{"pinyin":"shenshan","name":"神山"},{"pinyin":"songzhou","name":"松洲"},{"pinyin":"tonghe","name":"同和"},{"pinyin":"tangjing","name":"棠景"},{"pinyin":"tongdewei","name":"同德围"},{"pinyin":"taihe","name":"太和"},{"pinyin":"wuxianqiao","name":"伍仙桥"},{"pinyin":"xinshi","name":"新市"},{"pinyin":"xicuolu","name":"西槎路"},{"pinyin":"yongping","name":"永平"},{"pinyin":"zhongluotan","name":"钟落潭"},{"pinyin":"zhuliao","name":"竹料"},{"pinyin":"baiyunqita","name":"其他"}]},{"pinyin":"liwan","name":"荔湾","regions":[{"pinyin":"baihedong","name":"白鹤洞"},{"pinyin":"baietan","name":"白鹅潭"},{"pinyin":"chenjiaci","name":"陈家祠"},{"pinyin":"changhua","name":"昌华"},{"pinyin":"caihong","name":"彩虹"},{"pinyin":"dongfengxi","name":"东风西"},{"pinyin":"duobao","name":"多宝"},{"pinyin":"diyijinjie","name":"第一津街"},{"pinyin":"fangcun","name":"芳村"},{"pinyin":"fengyuan","name":"逢源"},{"pinyin":"guangfubeilu","name":"光复北路"},{"pinyin":"huanshixi","name":"环市西"},{"pinyin":"huangsha","name":"黄沙"},{"pinyin":"huadiwan","name":"花地湾"},{"pinyin":"huangqi","name":"黄岐"},{"pinyin":"hualin","name":"华林"},{"pinyin":"jiaokou","name":"窖口"},{"pinyin":"jinhua","name":"金花"},{"pinyin":"kangwanglu","name":"康王路"},{"pinyin":"kengkou","name":"坑口"},{"pinyin":"liwanlu","name":"荔湾路"},{"pinyin":"longjin","name":"龙津"},{"pinyin":"longxi","name":"龙溪"},{"pinyin":"lingnan","name":"岭南"},{"pinyin":"nananlu","name":"南岸路"},{"pinyin":"nanyuan","name":"南源"},{"pinyin":"qiaodong","name":"桥东"},{"pinyin":"qiaozhong","name":"桥中"},{"pinyin":"shangxiajiu","name":"上下九"},{"pinyin":"shamian","name":"沙面"},{"pinyin":"xicun","name":"西村"},{"pinyin":"xiguan","name":"西关"},{"pinyin":"xihualu","name":"西华路"},{"pinyin":"zhanqian","name":"站前"},{"pinyin":"zhongshanbalu","name":"中山八路"},{"pinyin":"zhoumen","name":"周门"},{"pinyin":"liwanqita","name":"其他"}]},{"pinyin":"fanyu","name":"番禺","regions":[{"pinyin":"dashi","name":"大石"},{"pinyin":"dongyong","name":"东涌"},{"pinyin":"dagang","name":"大岗"},{"pinyin":"donghuan","name":"东环"},{"pinyin":"daxuecheng","name":"大学城"},{"pinyin":"huananbankuai","name":"华南"},{"pinyin":"huangge","name":"黄阁"},{"pinyin":"hengli","name":"横沥"},{"pinyin":"huananbiguiyuan","name":"华南碧桂园"},{"pinyin":"luoxi","name":"洛溪"},{"pinyin":"lanhe","name":"榄核"},{"pinyin":"lingshan","name":"灵山"},{"pinyin":"nanpu","name":"南浦"},{"pinyin":"qifu","name":"祈福"},{"pinyin":"qiaonan","name":"桥南"},{"pinyin":"shiqiao","name":"市桥"},{"pinyin":"shiqi","name":"石碁"},{"pinyin":"shilou","name":"石楼"},{"pinyin":"shatou","name":"沙头"},{"pinyin":"shundebiguiyuan","name":"顺德碧桂园"},{"pinyin":"wanqingsha","name":"万顷沙"},{"pinyin":"yuwotou","name":"鱼窝头"},{"pinyin":"yayuncheng","name":"亚运城"},{"pinyin":"zhongcun","name":"钟村"},{"pinyin":"fanyuqita","name":"其他"}]},{"pinyin":"huangpu","name":"黄埔","regions":[{"pinyin":"zhangzhou","name":"长洲"},{"pinyin":"dasha","name":"大沙"},{"pinyin":"huangpu1","name":"黄埔"},{"pinyin":"huangpuqufu","name":"黄埔区府"},{"pinyin":"hongshan","name":"红山"},{"pinyin":"lilian","name":"荔联"},{"pinyin":"nangang","name":"南岗"},{"pinyin":"suidong","name":"穗东"},{"pinyin":"wenchong","name":"文冲"},{"pinyin":"yuzhu","name":"鱼珠"},{"pinyin":"huangpuqita","name":"其他"}]},{"pinyin":"huadou","name":"花都","regions":[{"pinyin":"beixing","name":"北兴"},{"pinyin":"chini","name":"赤坭"},{"pinyin":"furong","name":"芙蓉"},{"pinyin":"huachenglu","name":"花城路"},{"pinyin":"huadong","name":"花东"},{"pinyin":"huashan","name":"花山"},{"pinyin":"huaqiao","name":"花侨"},{"pinyin":"jiuqu","name":"旧区"},{"pinyin":"jinghudadao","name":"镜湖大道"},{"pinyin":"jianshelu","name":"建设路"},{"pinyin":"shiling","name":"狮岭"},{"pinyin":"shanqiandadao","name":"山前大道"},{"pinyin":"tanbu","name":"炭步"},{"pinyin":"timian","name":"梯面"},{"pinyin":"tieluxi","name":"铁路西"},{"pinyin":"xinhua","name":"新华"},{"pinyin":"xinqu","name":"新区"},{"pinyin":"yayao","name":"雅瑶"},{"pinyin":"huadouqita","name":"其他"}]},{"pinyin":"luogang","name":"萝岗","regions":[{"pinyin":"kaifadongqu","name":"开发东区"},{"pinyin":"kaifaxiqu","name":"开发西区"},{"pinyin":"kexuecheng","name":"科学城"},{"pinyin":"luogangzhen","name":"萝岗镇"}]},{"pinyin":"nansha","name":"南沙","regions":[]},{"pinyin":"jingjikaifa","name":"经济开发区","regions":[]},{"pinyin":"zengcheng","name":"增城","regions":[{"pinyin":"fuhe","name":"福和"},{"pinyin":"guangyuandongzc","name":"广园东"},{"pinyin":"licheng","name":"荔城"},{"pinyin":"paitan","name":"派潭"},{"pinyin":"sanjiang","name":"三江"},{"pinyin":"shazhuang","name":"沙庄"},{"pinyin":"zengchengxintang","name":"新塘"},{"pinyin":"zengchengxiancun","name":"仙村"},{"pinyin":"xiaolou","name":"小楼"},{"pinyin":"yonghe","name":"永和"},{"pinyin":"zhucun","name":"朱村"},{"pinyin":"zhongxin","name":"中新"},{"pinyin":"zhengguo","name":"正果"},{"pinyin":"zhenlong","name":"镇龙"},{"pinyin":"zengchengqita","name":"其他"}]},{"pinyin":"conghua","name":"从化","regions":[{"pinyin":"aotou","name":"鳌头"},{"pinyin":"chengjiao","name":"城郊"},{"pinyin":"jiekou","name":"街口"},{"pinyin":"jiangpu","name":"江埔"},{"pinyin":"liangkou","name":"良口"},{"pinyin":"lvtian","name":"吕田"},{"pinyin":"taiping","name":"太平"},{"pinyin":"wenquan","name":"温泉"},{"pinyin":"conghuaqita","name":"其他"}]}]},{"cname":"深圳","cen":"sz","districts":[{"pinyin":"futian","name":"福田","regions":[{"pinyin":"bagualing","name":"八卦岭"},{"pinyin":"baoshuiqu","name":"保税区"},{"pinyin":"bijiashan","name":"笔架山"},{"pinyin":"baishaling","name":"白沙岭"},{"pinyin":"chegongmiao","name":"车公庙"},{"pinyin":"caitiancun","name":"彩田村"},{"pinyin":"chiwei","name":"赤尾"},{"pinyin":"futianquwei","name":"福田区委"},{"pinyin":"fuminxincun","name":"福民新村"},{"pinyin":"fuhuaxincun","name":"福华新村"},{"pinyin":"futiankouan","name":"福田口岸"},{"pinyin":"gangsha","name":"岗厦"},{"pinyin":"gouwugongyuan","name":"购物公园"},{"pinyin":"huaqiangbei","name":"华强北"},{"pinyin":"huaqiangnan","name":"华强南"},{"pinyin":"huanggang","name":"皇岗"},{"pinyin":"huangmugang","name":"黄木岗"},{"pinyin":"jingtian","name":"景田"},{"pinyin":"lianhuayicun","name":"莲花一村"},{"pinyin":"lianhuaercun","name":"莲花二村"},{"pinyin":"lianhuasancun","name":"莲花三村"},{"pinyin":"lianhuabeicun","name":"莲花北村"},{"pinyin":"lizhigongyuan","name":"荔枝公园"},{"pinyin":"shangbu","name":"上步"},{"pinyin":"shangmeilin","name":"上梅林"},{"pinyin":"shangsha","name":"上沙"},{"pinyin":"shazui","name":"沙嘴"},{"pinyin":"shawei","name":"沙尾"},{"pinyin":"shisha","name":"石厦"},{"pinyin":"xiameilin","name":"下梅林"},{"pinyin":"xiangmihu","name":"香蜜湖"},{"pinyin":"xiasha","name":"下沙"},{"pinyin":"xinzhou","name":"新洲"},{"pinyin":"yuanling","name":"园岭"},{"pinyin":"yitiancun","name":"益田村"},{"pinyin":"zhuzilin","name":"竹子林"},{"pinyin":"futianzhongxinqu","name":"中心区"},{"pinyin":"futianqita","name":"其他"}]},{"pinyin":"luohu","name":"罗湖","regions":[{"pinyin":"buxin","name":"布心"},{"pinyin":"caiwuwei","name":"蔡屋围"},{"pinyin":"cuizhu","name":"翠竹"},{"pinyin":"caobu","name":"草埔"},{"pinyin":"dongmen","name":"东门"},{"pinyin":"dushucun","name":"独树村"},{"pinyin":"donghu","name":"东湖"},{"pinyin":"dongxiao","name":"东晓"},{"pinyin":"guomao","name":"国贸"},{"pinyin":"huochezhan","name":"火车站"},{"pinyin":"huangbeiling","name":"黄贝岭"},{"pinyin":"honghu","name":"洪湖"},{"pinyin":"hongganghuayuan","name":"红岗花园"},{"pinyin":"huagangxincun","name":"华港新村"},{"pinyin":"jindaotian","name":"金稻田"},{"pinyin":"luohuquwei","name":"罗湖区委"},{"pinyin":"liantang","name":"莲塘"},{"pinyin":"liuyibu","name":"留医部"},{"pinyin":"lixiangxincheng","name":"理想新城"},{"pinyin":"nigang","name":"泥岗"},{"pinyin":"qingshuihe","name":"清水河"},{"pinyin":"renminnan","name":"人民南"},{"pinyin":"shuiku","name":"水库"},{"pinyin":"shuibei","name":"水贝"},{"pinyin":"sungang","name":"笋岗"},{"pinyin":"tianbei","name":"田贝"},{"pinyin":"tianxincun","name":"田心村"},{"pinyin":"wenjindu","name":"文锦渡"},{"pinyin":"wenjin","name":"文锦"},{"pinyin":"yinhu","name":"银湖"},{"pinyin":"luohuqita","name":"其他"}]},{"pinyin":"nanshan","name":"南山","regions":[{"pinyin":"baishizhou","name":"白石洲"},{"pinyin":"dachong","name":"大冲"},{"pinyin":"guimiaolukou","name":"桂庙路口"},{"pinyin":"huaqiaocheng","name":"华侨城"},{"pinyin":"haiwangdasha","name":"海王大厦"},{"pinyin":"houhai","name":"后海"},{"pinyin":"haishangshijie","name":"海上世界"},{"pinyin":"kejiyuan","name":"科技园"},{"pinyin":"nantou","name":"南头"},{"pinyin":"nanshanyiyuan","name":"南山医院"},{"pinyin":"nanxinlukou","name":"南新路口"},{"pinyin":"nanyou","name":"南油"},{"pinyin":"qianhai","name":"前海"},{"pinyin":"quzhengfu","name":"区政府"},{"pinyin":"shendabeimen","name":"深大北门"},{"pinyin":"shekou","name":"蛇口"},{"pinyin":"shenzhenwan","name":"深圳湾"},{"pinyin":"taoyuancun","name":"桃源村"},{"pinyin":"xili","name":"西丽"},{"pinyin":"zhongxinquns","name":"中心区"},{"pinyin":"zhaoshangdasha","name":"招商大厦"},{"pinyin":"nanshanqita","name":"其他"}]},{"pinyin":"baoan","name":"宝安","regions":[{"pinyin":"fanshenlu","name":"翻身路"},{"pinyin":"fuyong","name":"福永"},{"pinyin":"guanlan","name":"观澜"},{"pinyin":"gongming","name":"公明"},{"pinyin":"jinxiujiangnan","name":"锦绣江南"},{"pinyin":"longhua","name":"龙华"},{"pinyin":"minzhi","name":"民治"},{"pinyin":"meilinguankou","name":"梅林关口"},{"pinyin":"meili365huayuan","name":"美丽365花园"},{"pinyin":"qianlonghuayuan","name":"潜龙花园"},{"pinyin":"shajing","name":"沙井"},{"pinyin":"shiyan","name":"石岩"},{"pinyin":"songgang","name":"松岗"},{"pinyin":"taoyuanju","name":"桃源居"},{"pinyin":"wankecheng","name":"万科城"},{"pinyin":"xixiang","name":"西乡"},{"pinyin":"xinan","name":"新安"},{"pinyin":"xinzhongxinqu","name":"新中心区"},{"pinyin":"yingshuishanzhuang","name":"滢水山庄"},{"pinyin":"baoanzhongxinqu","name":"中心区"},{"pinyin":"baoanqita","name":"其他"}]},{"pinyin":"longgang","name":"龙岗","regions":[{"pinyin":"bujiguan","name":"布吉关"},{"pinyin":"buji","name":"布吉"},{"pinyin":"bantian","name":"坂田"},{"pinyin":"dafencun","name":"大芬村"},{"pinyin":"guifangyuan","name":"桂芳园"},{"pinyin":"henggang","name":"横岗"},{"pinyin":"kangqiao","name":"康桥"},{"pinyin":"keyuan","name":"可园"},{"pinyin":"kuichong","name":"葵涌"},{"pinyin":"longgangzhongxincheng","name":"龙岗中心城"},{"pinyin":"longzhuhuayuan","name":"龙珠花园"},{"pinyin":"longgangnanao","name":"南澳"},{"pinyin":"pinghu","name":"平湖"},{"pinyin":"pingdi","name":"坪地"},{"pinyin":"longgangqita","name":"其他"}]},{"pinyin":"yantian","name":"盐田","regions":[{"pinyin":"dameisha","name":"大梅沙"},{"pinyin":"shatoujiao","name":"沙头角"},{"pinyin":"xiaomeisha","name":"小梅沙"},{"pinyin":"yantian1","name":"盐田"},{"pinyin":"yantianqita","name":"其他"}]},{"pinyin":"guangmingxinqu","name":"光明新区","regions":[]},{"pinyin":"pingshanxinqu","name":"坪山新区","regions":[]},{"pinyin":"dapengxinqu","name":"大鹏新区","regions":[{"pinyin":"dapeng","name":"大鹏"},{"pinyin":"dapengxinquzhoubian","name":"大鹏新区周边"},{"pinyin":"kuiyong","name":"葵涌"},{"pinyin":"nanao","name":"南澳"}]},{"pinyin":"shenzhenzhoubian","name":"深圳周边","regions":[]},{"pinyin":"longhuaxinqu","name":"龙华新区","regions":[{"pinyin":"dalang","name":"大浪"},{"pinyin":"longhuaxinquguanlan","name":"观澜"},{"pinyin":"longhuaxinqulonghua","name":"龙华"},{"pinyin":"longhuaxinquminzhi","name":"民治"}]}]},{"cname":"成都","cen":"cd","districts":[{"pinyin":"wuhou","name":"武侯","regions":[{"pinyin":"cuqiao","name":"簇桥"},{"pinyin":"guixi","name":"桂溪"},{"pinyin":"gaoshengqiao","name":"高升桥"},{"pinyin":"hongpailou","name":"红牌楼"},{"pinyin":"huochenanzhan","name":"火车南站"},{"pinyin":"hangkonglu","name":"航空路"},{"pinyin":"jiangxijie","name":"浆洗街"},{"pinyin":"jitouqiao","name":"机投镇"},{"pinyin":"jinhuaqiao","name":"金花镇"},{"pinyin":"moziqiao","name":"磨子桥"},{"pinyin":"neishuangnan","name":"内双楠"},{"pinyin":"qingshuihe","name":"清水河"},{"pinyin":"wuhoushiyang","name":"石羊"},{"pinyin":"tiaosanta","name":"跳伞塔"},{"pinyin":"tongzilin","name":"桐梓林"},{"pinyin":"wangjianglu","name":"望江路"},{"pinyin":"shuangnan","name":"外双楠"},{"pinyin":"jinyang","name":"五大花园"},{"pinyin":"wuhoucidajie","name":"武侯祠大街"},{"pinyin":"xiaotianzhu","name":"小天竺"},{"pinyin":"xiaojiahe","name":"肖家河"},{"pinyin":"ximianqiao","name":"洗面桥"},{"pinyin":"yulin","name":"玉林"},{"pinyin":"zhiminlu","name":"致民路"},{"pinyin":"wuhouqita","name":"其他"}]},{"pinyin":"qingyang","name":"青羊","regions":[{"pinyin":"beisen","name":"贝森"},{"pinyin":"babaojie","name":"八宝街"},{"pinyin":"baihuazhongxinzhan","name":"百花中心站"},{"pinyin":"baiguolin","name":"白果林"},{"pinyin":"caoshijie","name":"草市街"},{"pinyin":"shaocheng","name":"长顺街"},{"pinyin":"caotang","name":"草堂"},{"pinyin":"dongpo","name":"东坡"},{"pinyin":"funan","name":"府南新区"},{"pinyin":"guanghua","name":"光华"},{"pinyin":"huangtianba","name":"黄田坝"},{"pinyin":"jinsha","name":"金沙"},{"pinyin":"qingyangxiaoqu","name":"青羊小区"},{"pinyin":"wangjiaguai","name":"人民公园"},{"pinyin":"supo","name":"苏坡"},{"pinyin":"shunchengjie","name":"顺城街"},{"pinyin":"taishenglu","name":"太升路"},{"pinyin":"xiyuhe","name":"天府广场"},{"pinyin":"wenjia","name":"文家"},{"pinyin":"huanhua","name":"浣花小区"},{"pinyin":"xinhuaxilu","name":"新华西路"},{"pinyin":"xinancaida","name":"西南财大"},{"pinyin":"zhongyifuyuan","name":"中医附院"},{"pinyin":"qingyangqita","name":"其他"}]},{"pinyin":"jinniu","name":"金牛","regions":[{"pinyin":"chadianzi","name":"茶店子"},{"pinyin":"fenghuangshan","name":"凤凰山"},{"pinyin":"fuqin","name":"抚琴"},{"pinyin":"huangzhong","name":"黄忠"},{"pinyin":"hehuachi","name":"荷花池"},{"pinyin":"huochebeizhan","name":"火车北站"},{"pinyin":"huapaifang","name":"花牌坊"},{"pinyin":"jiulidi","name":"九里堤"},{"pinyin":"jinquan","name":"金泉"},{"pinyin":"jiaodalu","name":"交大路"},{"pinyin":"lijiatuo","name":"李家沱"},{"pinyin":"liangjiaxiang","name":"梁家巷"},{"pinyin":"maanlu","name":"马鞍路"},{"pinyin":"renminbeilu","name":"人民北路"},{"pinyin":"shaheyuan","name":"沙河源"},{"pinyin":"shuhanlu","name":"蜀汉路"},{"pinyin":"shawan","name":"沙湾"},{"pinyin":"tianhui","name":"天回"},{"pinyin":"wukuaishi","name":"五块石"},{"pinyin":"xianlu","name":"西安路"},{"pinyin":"xihua","name":"西华"},{"pinyin":"yingmenkou","name":"营门口"},{"pinyin":"jinniuqita","name":"其他"}]},{"pinyin":"jinjiang","name":"锦江","regions":[{"pinyin":"binjianglu","name":"滨江路"},{"pinyin":"chunxilu","name":"春熙路"},{"pinyin":"chenglonglu","name":"成龙路"},{"pinyin":"chengrenlu","name":"成仁路"},{"pinyin":"chuanshi","name":"川师"},{"pinyin":"dongguang","name":"东光"},{"pinyin":"hejiangting","name":"合江亭"},{"pinyin":"haijiaoshi","name":"海椒市"},{"pinyin":"hongxinglu","name":"红星路"},{"pinyin":"jiuyanqiao","name":"九眼桥"},{"pinyin":"longzhoulu","name":"龙舟路"},{"pinyin":"liujiang","name":"柳江"},{"pinyin":"guilianlu","name":"莲桂路"},{"pinyin":"niushikou","name":"牛市口"},{"pinyin":"lianxin","name":"牛沙路"},{"pinyin":"niuwangmiao","name":"牛王庙"},{"pinyin":"shuyuanjie","name":"书院街"},{"pinyin":"shuijingfang","name":"水碾河"},{"pinyin":"shuangguilu","name":"双桂路"},{"pinyin":"shizishan","name":"狮子山"},{"pinyin":"shahe","name":"沙河"},{"pinyin":"sansheng","name":"三圣"},{"pinyin":"wanda","name":"万达"},{"pinyin":"duyuanjie","name":"新南门"},{"pinyin":"yanshikou","name":"盐市口"},{"pinyin":"jinjiangqita","name":"其他"}]},{"pinyin":"chenghua","name":"成华","regions":[{"pinyin":"taoqilu","name":"八里小区"},{"pinyin":"balizhuang","name":"八里庄"},{"pinyin":"chengyulijiao","name":"成渝立交"},{"pinyin":"erxianqiao","name":"二仙桥"},{"pinyin":"fuqinglu","name":"府青路"},{"pinyin":"jianshelu","name":"建设路"},{"pinyin":"longtan","name":"龙潭"},{"pinyin":"mengzhuiwan","name":"猛追湾"},{"pinyin":"qinglong","name":"青龙"},{"pinyin":"simaqiao","name":"驷马桥"},{"pinyin":"shuangqiaozi","name":"双桥子"},{"pinyin":"shengdeng","name":"圣灯"},{"pinyin":"shuangshuinian","name":"双水碾"},{"pinyin":"tiaodenghe","name":"跳蹬河"},{"pinyin":"baohe","name":"五桂桥"},{"pinyin":"wannianchang","name":"万年场"},{"pinyin":"xinhonglu","name":"新鸿路"},{"pinyin":"xinhuagongyuan","name":"新华公园"},{"pinyin":"yushuanglu","name":"玉双路"},{"pinyin":"chenghuaqita","name":"其他"}]},{"pinyin":"gaoxin","name":"高新","regions":[{"pinyin":"chuangyelu","name":"创业路"},{"pinyin":"fangcaojie","name":"芳草街"},{"pinyin":"nanyanxian","name":"南延线"},{"pinyin":"shenxianshu","name":"神仙树"},{"pinyin":"zijing","name":"紫荆"},{"pinyin":"zhonghe","name":"中和"}]},{"pinyin":"shuangliu","name":"双流","regions":[{"pinyin":"baijia","name":"白家"},{"pinyin":"baisha","name":"白沙"},{"pinyin":"dongsheng","name":"东升"},{"pinyin":"dalin","name":"大林"},{"pinyin":"gongxing","name":"公兴"},{"pinyin":"huayang","name":"华阳"},{"pinyin":"hangkonggang","name":"航空港"},{"pinyin":"huangshui","name":"黄水"},{"pinyin":"huangjia","name":"黄甲"},{"pinyin":"hejiang","name":"合江"},{"pinyin":"huanglongxi","name":"黄龙溪"},{"pinyin":"jitian","name":"籍田"},{"pinyin":"jiujiang","name":"九江"},{"pinyin":"jiancha","name":"煎茶"},{"pinyin":"jinqiao","name":"金桥"},{"pinyin":"pengzhen","name":"彭镇"},{"pinyin":"shengli","name":"胜利"},{"pinyin":"shuangliusanxing","name":"三星"},{"pinyin":"taiping","name":"太平"},{"pinyin":"wenxing","name":"文星"},{"pinyin":"wanan","name":"万安"},{"pinyin":"shuangliuxinxing","name":"新兴"},{"pinyin":"xinglong","name":"兴隆"},{"pinyin":"yongxing","name":"永兴"},{"pinyin":"yongan","name":"永安"},{"pinyin":"zhengxing","name":"正兴"},{"pinyin":"shuangliuqita","name":"其他"}]},{"pinyin":"wenjiang","name":"温江","regions":[{"pinyin":"yongquan","name":"光华大道"},{"pinyin":"gongping","name":"公平"},{"pinyin":"hesheng","name":"和盛"},{"pinyin":"jinma","name":"金马"},{"pinyin":"nanxundadao","name":"南熏大道"},{"pinyin":"wenjiangshouan","name":"寿安"},{"pinyin":"tianfu","name":"天府"},{"pinyin":"liucheng","name":"温江城区"},{"pinyin":"wanchun","name":"万春"},{"pinyin":"yongsheng","name":"永盛"},{"pinyin":"yongning","name":"永宁"},{"pinyin":"wenjiangqita","name":"其他"}]},{"pinyin":"pixian","name":"郫县","regions":[{"pinyin":"ande","name":"安德"},{"pinyin":"anjing","name":"安靖"},{"pinyin":"deyuan","name":"德源"},{"pinyin":"guchenghezuo","name":"古城"},{"pinyin":"hongguang","name":"红光"},{"pinyin":"pixianhuayuan","name":"花园"},{"pinyin":"pitong","name":"郫筒"},{"pinyin":"sandaoyan","name":"三道堰"},{"pinyin":"tangchang","name":"唐昌"},{"pinyin":"tangyuan","name":"唐元"},{"pinyin":"tuanjie","name":"团结"},{"pinyin":"xipu","name":"犀浦"},{"pinyin":"xinminchang","name":"新民场"},{"pinyin":"youai","name":"友爱"},{"pinyin":"pixianqita","name":"其他"}]},{"pinyin":"gaoxinxiqu","name":"高新西区","regions":[]},{"pinyin":"longquanyi","name":"龙泉驿","regions":[{"pinyin":"damian","name":"大面"},{"pinyin":"honghe","name":"洪河"},{"pinyin":"longquan","name":"龙泉"},{"pinyin":"shiling","name":"十陵"},{"pinyin":"tongan","name":"同安"},{"pinyin":"longquanyiqita","name":"其他"}]},{"pinyin":"xindu","name":"新都","regions":[{"pinyin":"banzhuyuan","name":"斑竹园"},{"pinyin":"dafeng","name":"大丰"},{"pinyin":"juntun","name":"军屯"},{"pinyin":"longqiao","name":"龙桥"},{"pinyin":"majia","name":"马家"},{"pinyin":"mulan","name":"木兰"},{"pinyin":"qingliu","name":"清流"},{"pinyin":"sanhe","name":"三河"},{"pinyin":"shibantan","name":"石板滩"},{"pinyin":"taixing","name":"泰兴"},{"pinyin":"xindu1","name":"新都"},{"pinyin":"xinfan","name":"新繁"},{"pinyin":"xinmin","name":"新民"},{"pinyin":"xinduqita","name":"其他"}]},{"pinyin":"qingbaijiang","name":"青白江","regions":[{"pinyin":"dawan","name":"大弯"},{"pinyin":"hongyang","name":"红阳"},{"pinyin":"qingbaijiangqita","name":"其他"}]},{"pinyin":"jintang","name":"金堂","regions":[{"pinyin":"baiguo","name":"白果"},{"pinyin":"fuxing","name":"福兴"},{"pinyin":"guancang","name":"官仓"},{"pinyin":"guangxing","name":"广兴"},{"pinyin":"gaoban","name":"高板"},{"pinyin":"huaikou","name":"淮口"},{"pinyin":"jinlong","name":"金龙"},{"pinyin":"longsheng","name":"隆盛"},{"pinyin":"qingjiang","name":"清江"},{"pinyin":"jintangsanxing","name":"三星"},{"pinyin":"sanxi","name":"三溪"},{"pinyin":"tuqiao","name":"土桥"},{"pinyin":"wufeng","name":"五凤"},{"pinyin":"yunhe","name":"云合"},{"pinyin":"youxin","name":"又新"},{"pinyin":"zhaozhen","name":"赵镇"},{"pinyin":"zhugao","name":"竹篙"},{"pinyin":"zhaojia","name":"赵家"},{"pinyin":"zhuanlong","name":"转龙"},{"pinyin":"jintangqita","name":"其他"}]},{"pinyin":"dujiangyan","name":"都江堰","regions":[{"pinyin":"anlong","name":"安龙"},{"pinyin":"chongyi","name":"崇义"},{"pinyin":"cuiyuehu","name":"翠月湖"},{"pinyin":"daguan","name":"大观"},{"pinyin":"guankou","name":"灌口"},{"pinyin":"juyuan","name":"聚源"},{"pinyin":"longchi","name":"龙池"},{"pinyin":"liujie","name":"柳街"},{"pinyin":"puyang","name":"蒲阳"},{"pinyin":"qingchengshan","name":"青城山"},{"pinyin":"doujiangyanshiyang","name":"石羊"},{"pinyin":"tianma","name":"天马"},{"pinyin":"xingfu","name":"幸福"},{"pinyin":"xujia","name":"胥家"},{"pinyin":"yutang","name":"玉堂"},{"pinyin":"zhongxing","name":"中兴"},{"pinyin":"zipingpu","name":"紫坪铺"},{"pinyin":"doujiangyanqita","name":"其他"}]},{"pinyin":"pengzhou","name":"彭州","regions":[{"pinyin":"aoping","name":"敖平"},{"pinyin":"bailu","name":"白鹿"},{"pinyin":"cifeng","name":"磁峰"},{"pinyin":"danjingshan","name":"丹景山"},{"pinyin":"guihua","name":"桂花"},{"pinyin":"gexianshan","name":"葛仙山"},{"pinyin":"hongyan","name":"红岩"},{"pinyin":"jiuchi","name":"九尺"},{"pinyin":"junle","name":"军乐"},{"pinyin":"longfeng","name":"隆丰"},{"pinyin":"lichun","name":"丽春"},{"pinyin":"longmenshan","name":"龙门山"},{"pinyin":"mengyang","name":"濛阳"},{"pinyin":"sanjie","name":"三界"},{"pinyin":"shengping","name":"升平"},{"pinyin":"tianpeng","name":"天彭"},{"pinyin":"tongji","name":"通济"},{"pinyin":"pengzhouxinxing","name":"新兴"},{"pinyin":"xiaoyudong","name":"小鱼洞"},{"pinyin":"zhihe","name":"致和"},{"pinyin":"pengzhouqita","name":"其他"}]},{"pinyin":"xinjin","name":"新津","regions":[{"pinyin":"anxi","name":"安西"},{"pinyin":"dengshuang","name":"邓双"},{"pinyin":"fangxing","name":"方兴"},{"pinyin":"huaqiao","name":"花桥"},{"pinyin":"xinjinhuayuan","name":"花源"},{"pinyin":"jinhua","name":"金华"},{"pinyin":"puxing","name":"普兴"},{"pinyin":"wujin","name":"五津"},{"pinyin":"xingyi","name":"兴义"},{"pinyin":"xinping","name":"新平"},{"pinyin":"yongshang","name":"永商"},{"pinyin":"xinjinqita","name":"其他"}]},{"pinyin":"chongzhou","name":"崇州","regions":[{"pinyin":"baitou","name":"白头"},{"pinyin":"chongyang","name":"崇阳"},{"pinyin":"chongping","name":"崇平"},{"pinyin":"daoming","name":"道明"},{"pinyin":"dahua","name":"大划"},{"pinyin":"guansheng","name":"观胜"},{"pinyin":"huaiyuan","name":"怀远"},{"pinyin":"jiezi","name":"街子"},{"pinyin":"jiangyuan","name":"江源"},{"pinyin":"liaojia","name":"廖家"},{"pinyin":"longxing","name":"隆兴"},{"pinyin":"qiquan","name":"桤泉"},{"pinyin":"sanjiang","name":"三江"},{"pinyin":"sanlang","name":"三郎"},{"pinyin":"wanjia","name":"万家"},{"pinyin":"wangchang","name":"王场"},{"pinyin":"yuantong","name":"元通"},{"pinyin":"yangma","name":"羊马"},{"pinyin":"zitong","name":"梓潼"},{"pinyin":"chongzhouqita","name":"其他"}]},{"pinyin":"dayi","name":"大邑","regions":[{"pinyin":"anren","name":"安仁"},{"pinyin":"chujiang","name":"出江"},{"pinyin":"caichang","name":"蔡场"},{"pinyin":"dongchang","name":"董场"},{"pinyin":"hanchang","name":"韩场"},{"pinyin":"huashuiwan","name":"花水湾"},{"pinyin":"jinyuan","name":"晋原"},{"pinyin":"qingxia","name":"青霞"},{"pinyin":"sancha","name":"三岔"},{"pinyin":"shangan","name":"上安"},{"pinyin":"sujia","name":"苏家"},{"pinyin":"shaqu","name":"沙渠"},{"pinyin":"wangsi","name":"王泗"},{"pinyin":"xiling","name":"西岭"},{"pinyin":"xieyuan","name":"斜源"},{"pinyin":"xinchang","name":"新场"},{"pinyin":"yuelai","name":"悦来"},{"pinyin":"dayiqita","name":"其他"}]},{"pinyin":"qionglai","name":"邛崃","regions":[{"pinyin":"baolin","name":"宝林"},{"pinyin":"guyi","name":"固驿"},{"pinyin":"gaogeng","name":"高埂"},{"pinyin":"gaohe","name":"高何"},{"pinyin":"huojing","name":"火井"},{"pinyin":"huilong","name":"回龙"},{"pinyin":"jiaguan","name":"夹关"},{"pinyin":"linqiong","name":"临邛"},{"pinyin":"linji","name":"临济"},{"pinyin":"mouli","name":"牟礼"},{"pinyin":"pingle","name":"平乐"},{"pinyin":"qianjin","name":"前进"},{"pinyin":"ranyi","name":"冉义"},{"pinyin":"shuikou","name":"水口"},{"pinyin":"sangyuan","name":"桑园"},{"pinyin":"tiantaishan","name":"天台山"},{"pinyin":"wolong","name":"卧龙"},{"pinyin":"yangan","name":"羊安"},{"pinyin":"qionglaiqita","name":"其他"}]},{"pinyin":"pujiang","name":"蒲江","regions":[{"pinyin":"chaoyanghu","name":"朝阳湖"},{"pinyin":"chengjia","name":"成佳"},{"pinyin":"datang","name":"大塘"},{"pinyin":"daxing","name":"大兴"},{"pinyin":"ganxi","name":"甘溪"},{"pinyin":"heshan","name":"鹤山"},{"pinyin":"pujiangshouan","name":"寿安"},{"pinyin":"xilai","name":"西来"},{"pinyin":"pujiangqita","name":"其他"}]},{"pinyin":"qita","name":"其他","regions":[]}]},{"cname":"沈阳","cen":"sy","districts":[{"pinyin":"heping","name":"和平","regions":[{"pinyin":"beishi","name":"北市"},{"pinyin":"bajing","name":"八经"},{"pinyin":"beidaokou","name":"北道口"},{"pinyin":"changbai","name":"长白"},{"pinyin":"beizhan","name":"皇寺"},{"pinyin":"hepingguangchang","name":"和平广场"},{"pinyin":"jixian","name":"集贤"},{"pinyin":"maluwan","name":"马路湾"},{"pinyin":"hepingminzhu","name":"民主"},{"pinyin":"nanhu","name":"南湖"},{"pinyin":"nanzhan","name":"南站"},{"pinyin":"nanjingjie","name":"南京街"},{"pinyin":"sanhaojie","name":"三好街"},{"pinyin":"suichuan","name":"遂川"},{"pinyin":"shisiweilu","name":"十四纬路"},{"pinyin":"shengli","name":"胜利"},{"pinyin":"shakou","name":"砂山"},{"pinyin":"taiyuanjie","name":"太原街"},{"pinyin":"wulihe","name":"五里河"},{"pinyin":"wentixilu","name":"文体西路"},{"pinyin":"wusong","name":"吴淞"},{"pinyin":"hepingwenhualu","name":"文化路"},{"pinyin":"xita","name":"西塔"},{"pinyin":"xinhua","name":"新华"},{"pinyin":"xinxing","name":"新兴"},{"pinyin":"yunji","name":"云集"},{"pinyin":"yundongxi","name":"运动系"},{"pinyin":"yuanlu","name":"园路"},{"pinyin":"zhongshanguanchang","name":"中山广场"},{"pinyin":"zhonghualu","name":"中华路"},{"pinyin":"hepingqita","name":"其他"}]},{"pinyin":"shenhe","name":"沈河","regions":[{"pinyin":"xinbeizhan","name":"北站"},{"pinyin":"binhe","name":"滨河"},{"pinyin":"beiwencuilu","name":"北文萃路"},{"pinyin":"changqing","name":"长青"},{"pinyin":"daxijie","name":"大西街"},{"pinyin":"danan","name":"大南"},{"pinyin":"erjing","name":"二经"},{"pinyin":"fengyutan","name":"风雨坛"},{"pinyin":"fangjialan","name":"方家栏"},{"pinyin":"guangyijie","name":"广宜街"},{"pinyin":"huigong","name":"惠工"},{"pinyin":"nanta","name":"南塔"},{"pinyin":"shifuguangchang","name":"市府广场"},{"pinyin":"shandongmiao","name":"山东庙"},{"pinyin":"shuntong","name":"顺通"},{"pinyin":"wuaishichang","name":"五爱市场"},{"pinyin":"wenyilu","name":"文艺路"},{"pinyin":"wenhualu","name":"文化路"},{"pinyin":"wanlian","name":"万莲"},{"pinyin":"xiaoxi","name":"小西"},{"pinyin":"xiaonan","name":"小南"},{"pinyin":"xinlibaodongjie","name":"新立堡东街"},{"pinyin":"yijing","name":"一经"},{"pinyin":"zhongjie","name":"中街"},{"pinyin":"zhanlangguan","name":"展览馆"},{"pinyin":"zhengyangjie","name":"正阳街"},{"pinyin":"zhujianlu","name":"朱剪炉"},{"pinyin":"shenheqita","name":"其他"}]},{"pinyin":"dadong","name":"大东","regions":[{"pinyin":"bawangsi","name":"八王寺"},{"pinyin":"beihaijie","name":"北海街"},{"pinyin":"beidaying","name":"北大营"},{"pinyin":"changan","name":"长安"},{"pinyin":"dabei","name":"大北"},{"pinyin":"dongbeidamalu","name":"东北大马路"},{"pinyin":"dongzhan","name":"东站"},{"pinyin":"dalonglu","name":"大东路"},{"pinyin":"dongta","name":"东塔"},{"pinyin":"ertaizi","name":"二台子"},{"pinyin":"dadongfengle","name":"丰乐"},{"pinyin":"jixiang","name":"吉祥"},{"pinyin":"liaoshen","name":"辽沈"},{"pinyin":"laoguabao","name":"老瓜堡"},{"pinyin":"lianhelu","name":"联合路"},{"pinyin":"guancheng","name":"滂江街"},{"pinyin":"shangyuan","name":"上园路"},{"pinyin":"taochang","name":"洮昌"},{"pinyin":"taocic","name":"陶瓷城"},{"pinyin":"wanghua","name":"望花"},{"pinyin":"wuzhongjialefu","name":"五中家乐福"},{"pinyin":"wanquan","name":"万泉"},{"pinyin":"xiaobei","name":"小北"},{"pinyin":"xiaojinqiao","name":"小津桥"},{"pinyin":"xiaodong","name":"小东"},{"pinyin":"xindong","name":"新东"},{"pinyin":"zhulin","name":"珠林"},{"pinyin":"wenguan","name":"724地区"},{"pinyin":"204yiyuan","name":"204医院"},{"pinyin":"dadongqita","name":"其他"}]},{"pinyin":"huanggu","name":"皇姑","regions":[{"pinyin":"beixing","name":"北行"},{"pinyin":"bainiaogongyuan","name":"百鸟公园"},{"pinyin":"yuhongbeita","name":"北塔"},{"pinyin":"beiling","name":"北陵"},{"pinyin":"beisantaizi","name":"北三台子"},{"pinyin":"changjiang","name":"长江街"},{"pinyin":"chongshan","name":"崇山"},{"pinyin":"changke","name":"长客"},{"pinyin":"gonganting","name":"公安厅"},{"pinyin":"huangguguoaoxiandaicheng","name":"国奥现代城"},{"pinyin":"heilongjiang","name":"黑龙江街"},{"pinyin":"huanghe","name":"黄河"},{"pinyin":"huashan","name":"华山"},{"pinyin":"huanggutun","name":"皇姑屯火车站"},{"pinyin":"kunshan","name":"昆山路"},{"pinyin":"liaohe","name":"辽河街"},{"pinyin":"lingdong","name":"陵东"},{"pinyin":"huanggulingxi","name":"陵西"},{"pinyin":"minglian","name":"明廉"},{"pinyin":"nujiang","name":"怒江北街"},{"pinyin":"nujiangjie","name":"怒江街"},{"pinyin":"shouquan","name":"寿泉"},{"pinyin":"sandongqiao","name":"三洞桥"},{"pinyin":"tawan","name":"塔湾"},{"pinyin":"taiping","name":"太平"},{"pinyin":"taishan","name":"泰山路"},{"pinyin":"wuyishangdian","name":"五一商店"},{"pinyin":"weihe","name":"渭河"},{"pinyin":"xianggong","name":"向工"},{"pinyin":"xinle","name":"新乐"},{"pinyin":"yaming","name":"亚明"},{"pinyin":"kejian","name":"珠江桥"},{"pinyin":"huangguqita","name":"其他"}]},{"pinyin":"tiexi","name":"铁西","regions":[{"pinyin":"aigongjie","name":"爱工街"},{"pinyin":"baogong","name":"保工"},{"pinyin":"beierlu","name":"北二路"},{"pinyin":"beisanlu","name":"北三路"},{"pinyin":"beisilu","name":"北四路"},{"pinyin":"tiexishenliaolu","name":"沈辽路"},{"pinyin":"dugong","name":"笃工"},{"pinyin":"erliangku","name":"二粮库"},{"pinyin":"guihe","name":"贵和"},{"pinyin":"gongrencun","name":"工人村"},{"pinyin":"gongyedaxue","name":"工业大学"},{"pinyin":"huaxiang","name":"滑翔小区"},{"pinyin":"jihong","name":"霁虹"},{"pinyin":"jiajucheng","name":"家具城"},{"pinyin":"jiulushichang","name":"九路市场"},{"pinyin":"jianshedalu","name":"建设大路"},{"pinyin":"laodonggongyuan","name":"劳动公园"},{"pinyin":"lingkong","name":"凌空"},{"pinyin":"luguan","name":"路官"},{"pinyin":"mazhuangjie","name":"马壮街"},{"pinyin":"pijiuchang","name":"啤酒厂"},{"pinyin":"qixian","name":"齐贤"},{"pinyin":"qigong","name":"启工"},{"pinyin":"qilu","name":"七路"},{"pinyin":"qinggong","name":"轻工"},{"pinyin":"shierlu","name":"十二路"},{"pinyin":"tiexiguangchang","name":"铁西广场"},{"pinyin":"tiexiquzhengfu","name":"铁西区政府"},{"pinyin":"tiexitiyuchang","name":"铁西体育场"},{"pinyin":"tiebai","name":"铁百"},{"pinyin":"weigong","name":"卫工"},{"pinyin":"xinggong","name":"兴工"},{"pinyin":"xinghua","name":"兴华"},{"pinyin":"xingshun","name":"兴顺"},{"pinyin":"xizhan","name":"西站"},{"pinyin":"xingqi","name":"兴齐"},{"pinyin":"yunfeng","name":"云峰"},{"pinyin":"yanfen","name":"艳粉"},{"pinyin":"yingchangjie","name":"应昌街"},{"pinyin":"zhaogongjie","name":"肇工街"},{"pinyin":"zhonggong","name":"重工"},{"pinyin":"tiexiqita","name":"其他"}]},{"pinyin":"dongling","name":"东陵","regions":[{"pinyin":"baita","name":"白塔"},{"pinyin":"dongling1","name":"东陵"},{"pinyin":"donghu","name":"东湖"},{"pinyin":"donglingfengle","name":"丰乐"},{"pinyin":"hunhezhandong","name":"浑河站东"},{"pinyin":"hunhezhanxi","name":"浑河站西"},{"pinyin":"maguanqiao","name":"马官桥"},{"pinyin":"quanyuan","name":"泉园"},{"pinyin":"qianjin","name":"前进"},{"pinyin":"qipanshan","name":"棋盘山"},{"pinyin":"taoxian","name":"桃仙"},{"pinyin":"wusan","name":"五三"},{"pinyin":"yingda","name":"英达"},{"pinyin":"donglingqita","name":"其他"}]},{"pinyin":"hunnan","name":"浑南","regions":[{"pinyin":"aotizhongxin","name":"奥体中心"},{"pinyin":"baitabao","name":"白塔堡"},{"pinyin":"ershiyishijiguangchang","name":"二十一世纪广场"},{"pinyin":"fuminjie","name":"富民街"},{"pinyin":"hunhebao","name":"浑河堡"},{"pinyin":"hunnanzhonglu","name":"浑南中路"},{"pinyin":"ligongdaxue","name":"理工大学"},{"pinyin":"qixiangju","name":"气象局"},{"pinyin":"shijixincheng","name":"世纪新城"},{"pinyin":"yinlexueyuan","name":"音乐学院"},{"pinyin":"zhonghuayuan","name":"中华园"}]},{"pinyin":"shenbei","name":"沈北","regions":[{"pinyin":"cailuo","name":"财落"},{"pinyin":"daoyi","name":"道义"},{"pinyin":"hushitai","name":"虎石台"},{"pinyin":"huishan","name":"辉山"},{"pinyin":"puhe","name":"蒲河"},{"pinyin":"qingshuitai","name":"清水台"},{"pinyin":"xinchengzi1","name":"新城子"},{"pinyin":"xinglongtai","name":"兴隆台锡伯族"},{"pinyin":"xinchengziqita","name":"其他"}]},{"pinyin":"yuhong","name":"于洪","regions":[{"pinyin":"baishanlu","name":"白山路"},{"pinyin":"yuhongshenliaolu","name":"沈辽路"},{"pinyin":"chengdonghu","name":"城东湖"},{"pinyin":"changjiangbeijie","name":"长江北街"},{"pinyin":"dingxianghu","name":"丁香湖"},{"pinyin":"zhaijia","name":"翟家"},{"pinyin":"dapanzhen","name":"大潘镇"},{"pinyin":"daxingxiang","name":"大兴乡"},{"pinyin":"daqingzhongchaoyouyi","name":"大青中朝友谊"},{"pinyin":"donghushichang","name":"东湖市场"},{"pinyin":"guoaoxiandaicheng","name":"国奥现代城"},{"pinyin":"hetaixincheng","name":"和泰新城"},{"pinyin":"helancun","name":"荷兰村"},{"pinyin":"heishan","name":"黑山"},{"pinyin":"hongqitai","name":"红旗台"},{"pinyin":"masanjia","name":"马三家"},{"pinyin":"nanyanghu","name":"南阳湖"},{"pinyin":"pingluo","name":"平罗"},{"pinyin":"songshanxiaoqu","name":"松山小区"},{"pinyin":"shaling","name":"沙岭"},{"pinyin":"songshanlu","name":"松山路"},{"pinyin":"santaizi","name":"三台子"},{"pinyin":"xisanhuan","name":"西三环"},{"pinyin":"yuhong1","name":"于洪"},{"pinyin":"yingbinlu","name":"迎宾路"},{"pinyin":"yuhongguangchang","name":"于洪广场"},{"pinyin":"yangshi","name":"杨士"},{"pinyin":"yuhongxincheng","name":"于洪新城"},{"pinyin":"yuhongquwei","name":"于洪区委"},{"pinyin":"zaohua","name":"造化"},{"pinyin":"yuhongqita","name":"其他"}]},{"pinyin":"sujiatun","name":"苏家屯","regions":[{"pinyin":"chengjiao","name":"城郊"},{"pinyin":"huxi","name":"湖西"},{"pinyin":"jiefang","name":"解放"},{"pinyin":"linhu","name":"临湖"},{"pinyin":"sujiatunminzhu","name":"民主"},{"pinyin":"tieyou","name":"铁友"},{"pinyin":"zhongxing","name":"中兴"},{"pinyin":"sujiatunqita","name":"其他"}]},{"pinyin":"xinmin","name":"新民","regions":[{"pinyin":"dongcheng","name":"东城"},{"pinyin":"liaobin","name":"辽滨"},{"pinyin":"xicheng","name":"西城"},{"pinyin":"xinliu","name":"新柳"},{"pinyin":"xincheng","name":"新城"},{"pinyin":"xinminqita","name":"其他"}]},{"pinyin":"liaozhong","name":"辽中","regions":[{"pinyin":"ciyutuo","name":"茨榆坨"},{"pinyin":"changtan","name":"长滩"},{"pinyin":"liaozhong1","name":"辽中"},{"pinyin":"lengzipu","name":"冷子堡"},{"pinyin":"liuerpu","name":"刘二堡"},{"pinyin":"manduhu","name":"满都户"},{"pinyin":"sifangtai","name":"四方台"},{"pinyin":"xiaozhaimen","name":"肖寨门"},{"pinyin":"xinmintun","name":"新民屯"},{"pinyin":"yujiafang","name":"于家房"},{"pinyin":"yangshigang","name":"杨士岗"},{"pinyin":"zhujiafang","name":"朱家房"},{"pinyin":"liaozhongqita","name":"其他"}]},{"pinyin":"faku","name":"法库","regions":[{"pinyin":"baijiagou","name":"柏家沟"},{"pinyin":"dengshipuzi","name":"登仕堡子"},{"pinyin":"dagujiazi","name":"大孤家子"},{"pinyin":"dingjiafang","name":"丁家房"},{"pinyin":"faku1","name":"法库"},{"pinyin":"sanmianchuan","name":"三面船"},{"pinyin":"xiushuihezi","name":"秀水河子"},{"pinyin":"yemaotai","name":"叶茂台"},{"pinyin":"fakuqita","name":"其他"}]},{"pinyin":"kangping","name":"康平","regions":[{"pinyin":"dongguantun","name":"东关屯"},{"pinyin":"erniusuokou","name":"二牛所口"},{"pinyin":"fangjiatun","name":"方家屯"},{"pinyin":"haoguantun","name":"郝官屯"},{"pinyin":"kangping1","name":"康平"},{"pinyin":"xiaochengzi","name":"小城子"},{"pinyin":"zhangqiang","name":"张强"},{"pinyin":"kangpingqita","name":"其他"}]}]},{"cname":"天津","cen":"tj","districts":[{"pinyin":"heping","name":"和平","regions":[{"pinyin":"binjiangdao","name":"滨江道"},{"pinyin":"hepingzhoubian","name":"和平周边"},{"pinyin":"hepingnanyingmen","name":"南营门"},{"pinyin":"hepingnanshi","name":"南市"},{"pinyin":"quanyechang","name":"劝业场"},{"pinyin":"tiyuguan","name":"体育馆"},{"pinyin":"xiaobailou","name":"小白楼"},{"pinyin":"xinxing","name":"新兴街"},{"pinyin":"hepingqita","name":"其他"}]},{"pinyin":"hedong","name":"河东","regions":[{"pinyin":"chunhua","name":"春华街"},{"pinyin":"changzhoudao","name":"常州道"},{"pinyin":"chenglinjie","name":"程林"},{"pinyin":"dawangzhuang","name":"大王庄"},{"pinyin":"dazhigu","name":"大直沽"},{"pinyin":"daqiaodao","name":"大桥道"},{"pinyin":"dongxin","name":"东新街"},{"pinyin":"erhaoqiao","name":"二号桥"},{"pinyin":"fuminlu","name":"富民路"},{"pinyin":"hedongzhoubian","name":"河东周边"},{"pinyin":"lushandao","name":"鲁山道"},{"pinyin":"shanghanglu","name":"上杭路"},{"pinyin":"tangkou","name":"唐口"},{"pinyin":"tangjiakou","name":"唐家口"},{"pinyin":"tiechang","name":"铁厂"},{"pinyin":"xiangyanglou","name":"向阳楼"},{"pinyin":"zhongshanmen","name":"中山门"},{"pinyin":"zhangguizhuanglu","name":"张贵庄"},{"pinyin":"hedongqita","name":"其他"}]},{"pinyin":"hexi","name":"河西","regions":[{"pinyin":"chentangzhuang","name":"陈塘庄"},{"pinyin":"dayingmen","name":"大营门"},{"pinyin":"donghai","name":"东海街"},{"pinyin":"guajiasi","name":"挂甲寺"},{"pinyin":"hexizhoubian","name":"河西周边"},{"pinyin":"jianshan","name":"尖山"},{"pinyin":"liulin","name":"柳林"},{"pinyin":"machang","name":"马场"},{"pinyin":"meijiang","name":"梅江"},{"pinyin":"taoyuan","name":"桃园街"},{"pinyin":"tianta","name":"天塔"},{"pinyin":"tucheng","name":"土城"},{"pinyin":"xiawafang","name":"下瓦房"},{"pinyin":"xiaohaidi","name":"小海地"},{"pinyin":"yuexiulu","name":"越秀路"},{"pinyin":"youyilu","name":"友谊路"},{"pinyin":"hexiqita","name":"其他"}]},{"pinyin":"nankai","name":"南开","regions":[{"pinyin":"nankaibalitai","name":"八里台"},{"pinyin":"changhong","name":"长虹街"},{"pinyin":"gulou","name":"鼓楼"},{"pinyin":"guangkai","name":"广开街"},{"pinyin":"huayuan","name":"华苑"},{"pinyin":"huanghedao","name":"黄河道"},{"pinyin":"huayuannan","name":"华苑南"},{"pinyin":"jialingdao","name":"嘉陵道"},{"pinyin":"miyunlu","name":"密云路"},{"pinyin":"nankaizhoubian","name":"南开周边"},{"pinyin":"rongyedajie","name":"荣业大街"},{"pinyin":"tiyuzhongxin","name":"体育中心"},{"pinyin":"tiantuonan","name":"天拖南"},{"pinyin":"wangdingdi","name":"王顶堤"},{"pinyin":"wanxing","name":"万兴街"},{"pinyin":"xuefu","name":"学府街"},{"pinyin":"xingnan","name":"兴南街"},{"pinyin":"xiangyanglu","name":"向阳路"},{"pinyin":"nankaiqita","name":"其他"}]},{"pinyin":"hebei","name":"河北","regions":[{"pinyin":"guangfudao","name":"光复道"},{"pinyin":"hongshunli","name":"鸿顺里"},{"pinyin":"hebeizhoubian","name":"河北周边"},{"pinyin":"jianchangdao","name":"建昌道"},{"pinyin":"jiangdoulu","name":"江都路"},{"pinyin":"jingjianglu","name":"靖江路"},{"pinyin":"ningyuan","name":"宁园"},{"pinyin":"tiedonglu","name":"铁东路"},{"pinyin":"wanghailou","name":"望海楼"},{"pinyin":"wangchuanchang","name":"王串场"},{"pinyin":"xinkaihe","name":"新开河"},{"pinyin":"yueyahe","name":"月牙河"},{"pinyin":"hebeiqita","name":"其他"}]},{"pinyin":"hongqiao","name":"红桥","regions":[{"pinyin":"dingzigu","name":"丁字沽"},{"pinyin":"dahutong","name":"大胡同"},{"pinyin":"hongqiaozhoubian","name":"红桥周边"},{"pinyin":"jieyuandao","name":"芥园道"},{"pinyin":"lingchengge","name":"铃铛阁"},{"pinyin":"shuanghuancun","name":"双环村"},{"pinyin":"shaogongzhuang","name":"邵公庄"},{"pinyin":"santiaoshi","name":"三条石"},{"pinyin":"xianyangbeilu","name":"咸阳北路"},{"pinyin":"xiyuzhuang","name":"西于庄"},{"pinyin":"xigu","name":"西沽"},{"pinyin":"hongqiaoqita","name":"其他"}]},{"pinyin":"tanggu","name":"塘沽","regions":[{"pinyin":"haiyangshiyou","name":"渤海石油"},{"pinyin":"beitang","name":"北塘街"},{"pinyin":"dagu","name":"大沽街"},{"pinyin":"gongnongcunjie","name":"工农村"},{"pinyin":"hangzhoudao","name":"杭州道"},{"pinyin":"hujiayuan","name":"胡家园"},{"pinyin":"jiefanglu","name":"解放路"},{"pinyin":"sanhuailu","name":"三槐路"},{"pinyin":"tangguxincunjie","name":"塘沽新村街"},{"pinyin":"tangguzhoubian","name":"塘沽周边"},{"pinyin":"xingang","name":"新港"},{"pinyin":"xiangyang","name":"向阳街"},{"pinyin":"xinhe","name":"新河街"},{"pinyin":"xincheng","name":"新城"},{"pinyin":"xincun","name":"新村街"},{"pinyin":"tangguqita","name":"其他"}]},{"pinyin":"hangu","name":"汉沽","regions":[{"pinyin":"chadian","name":"茶淀"},{"pinyin":"datian","name":"大田"},{"pinyin":"hangu1","name":"汉沽"},{"pinyin":"hanguhexi","name":"河西"},{"pinyin":"tianhua","name":"天化"},{"pinyin":"yanchang","name":"盐场"},{"pinyin":"yingcheng","name":"营城"},{"pinyin":"yangjiabo","name":"杨家泊"},{"pinyin":"zhaishang","name":"寨上"},{"pinyin":"hanguqita","name":"其他"}]},{"pinyin":"dagang","name":"大港","regions":[{"pinyin":"gulin","name":"古林街"},{"pinyin":"gangxi","name":"港西"},{"pinyin":"haibin","name":"海滨"},{"pinyin":"shengli","name":"胜利街"},{"pinyin":"taiping","name":"太平"},{"pinyin":"xiaowangzhuang","name":"小王庄"},{"pinyin":"yingbin","name":"迎宾街"},{"pinyin":"zhongtang","name":"中塘"},{"pinyin":"dagangqita","name":"其他"}]},{"pinyin":"kaifaqu","name":"开发区","regions":[{"pinyin":"diyidajie","name":"第一大街"},{"pinyin":"dierdajie","name":"第二大街"},{"pinyin":"disandajie","name":"第三大街"},{"pinyin":"disidajie","name":"第四大街"},{"pinyin":"diwudajie","name":"第五大街"},{"pinyin":"kunpengjie","name":"鲲鹏街"},{"pinyin":"kaifaquzhoubian","name":"开发区周边"}]},{"pinyin":"dongli","name":"东丽","regions":[{"pinyin":"chenglinzhuang","name":"程林庄"},{"pinyin":"dabizhuang","name":"大毕庄"},{"pinyin":"donglizhoubian","name":"东丽周边"},{"pinyin":"donglihu","name":"东丽湖"},{"pinyin":"fengniancun","name":"丰年村"},{"pinyin":"huaming","name":"华明"},{"pinyin":"jintanglu","name":"津塘路"},{"pinyin":"junliangcheng","name":"军粮城"},{"pinyin":"lijinlu","name":"利津路"},{"pinyin":"wuxia","name":"无瑕"},{"pinyin":"xianfenglu","name":"先锋路"},{"pinyin":"xinli","name":"新立"},{"pinyin":"meliuqiao","name":"么六桥"},{"pinyin":"zhangguizhuang","name":"张贵庄"},{"pinyin":"dongliqita","name":"其他"}]},{"pinyin":"xiqing","name":"西青","regions":[{"pinyin":"dasi","name":"大寺"},{"pinyin":"houtai","name":"侯台"},{"pinyin":"liqizhuang","name":"李七庄"},{"pinyin":"nanhe","name":"南河"},{"pinyin":"wangwenzhuang","name":"王稳庄"},{"pinyin":"xinkou","name":"辛口"},{"pinyin":"xiyingmen","name":"西营门"},{"pinyin":"xiqingzhoubian","name":"西青周边"},{"pinyin":"yangliuqing","name":"杨柳青"},{"pinyin":"zhongbei","name":"中北"},{"pinyin":"zhangjiawo","name":"张家窝"},{"pinyin":"xiqingqita","name":"其他"}]},{"pinyin":"beichen","name":"北辰","regions":[{"pinyin":"beicang","name":"北仓"},{"pinyin":"beichenzhoubian","name":"北辰周边"},{"pinyin":"dazhangzhuang","name":"大张庄"},{"pinyin":"guoyuanxincun","name":"果园新村"},{"pinyin":"hongguangnongchang","name":"红光农场"},{"pinyin":"jixianli","name":"集贤里"},{"pinyin":"pudong","name":"普东"},{"pinyin":"qingguang","name":"青光"},{"pinyin":"shuangjie","name":"双街"},{"pinyin":"shuangkou","name":"双口"},{"pinyin":"tianmu","name":"天穆"},{"pinyin":"xiaodian","name":"小淀"},{"pinyin":"xiditou","name":"西堤头"},{"pinyin":"yixingbu","name":"宜兴埠"},{"pinyin":"beichenqita","name":"其他"}]},{"pinyin":"jinnan","name":"津南","regions":[{"pinyin":"jinnanbalitai","name":"八里台"},{"pinyin":"beizhakou","name":"北闸口"},{"pinyin":"gegu","name":"葛沽"},{"pinyin":"jinnanzhoubian","name":"津南周边"},{"pinyin":"shuanggang","name":"双港"},{"pinyin":"shuangqiaohe","name":"双桥河"},{"pinyin":"xianshuigu","name":"咸水沽"},{"pinyin":"xiaozhan","name":"小站"},{"pinyin":"xinzhuang","name":"辛庄"},{"pinyin":"jinnanqita","name":"其他"}]},{"pinyin":"wuqing","name":"武清","regions":[{"pinyin":"baigutun","name":"白古屯"},{"pinyin":"chagugang","name":"汊沽港"},{"pinyin":"chenzui","name":"陈嘴"},{"pinyin":"cuihuangkou","name":"崔黄口"},{"pinyin":"wuqingchengguan","name":"城关"},{"pinyin":"caozili","name":"曹子里"},{"pinyin":"dongpuwa","name":"东蒲洼"},{"pinyin":"dongmaquan","name":"东马圈"},{"pinyin":"daliang","name":"大良"},{"pinyin":"dajianchang","name":"大碱厂"},{"pinyin":"damengzhuang","name":"大孟庄"},{"pinyin":"dawangguzhuang","name":"大王古庄"},{"pinyin":"douzhangzhuang","name":"豆张庄"},{"pinyin":"dahuangpu","name":"大黄堡"},{"pinyin":"gaocun","name":"高村"},{"pinyin":"wuqinghuangzhuang","name":"黄庄"},{"pinyin":"huanghuadian","name":"黄花店"},{"pinyin":"hebeitun","name":"河北屯"},{"pinyin":"hexiwu","name":"河西务"},{"pinyin":"meichang","name":"梅厂"},{"pinyin":"nancaicun","name":"南蔡村"},{"pinyin":"wuqingshigezhuang","name":"石各庄"},{"pinyin":"shangmatai","name":"上马台"},{"pinyin":"sicundian","name":"泗村店"},{"pinyin":"wangqingtuo","name":"王庆坨"},{"pinyin":"xuguantun","name":"徐官屯"},{"pinyin":"xiazhuzhuang","name":"下朱庄"},{"pinyin":"xiawuqi","name":"下伍旗"},{"pinyin":"yangcun","name":"杨村"},{"pinyin":"yunhexi","name":"运河西"},{"pinyin":"wuqingqita","name":"其他"}]},{"pinyin":"baodi","name":"宝坻","regions":[{"pinyin":"bamencheng","name":"八门城"},{"pinyin":"baodichengguan","name":"城关"},{"pinyin":"dakoutun","name":"大口屯"},{"pinyin":"dabaizhuang","name":"大白庄"},{"pinyin":"dazhongzhuang","name":"大钟庄"},{"pinyin":"datangzhuang","name":"大唐庄"},{"pinyin":"erwangzhuang","name":"尔王庄"},{"pinyin":"fangjiazhuang","name":"方家庄"},{"pinyin":"gaojiazhuang","name":"高家庄"},{"pinyin":"baodihuangzhuang","name":"黄庄"},{"pinyin":"haogezhuang","name":"郝各庄"},{"pinyin":"huogezhuang","name":"霍各庄"},{"pinyin":"koudong","name":"口东"},{"pinyin":"lintingkou","name":"林亭口"},{"pinyin":"majiadian","name":"马家店"},{"pinyin":"niudaokou","name":"牛道口"},{"pinyin":"niujiapai","name":"牛家牌"},{"pinyin":"baodishigezhuang","name":"史各庄"},{"pinyin":"wangbozhuang","name":"王卜庄"},{"pinyin":"xinkaikou","name":"新开口"},{"pinyin":"xinan","name":"新安"},{"pinyin":"zhouliangzhuang","name":"周良庄"},{"pinyin":"baodiqita","name":"其他"}]},{"pinyin":"jixian","name":"蓟县","regions":[{"pinyin":"baijian","name":"白涧"},{"pinyin":"bangjun","name":"邦均"},{"pinyin":"bieshan","name":"别山"},{"pinyin":"jixianchengguan","name":"城关"},{"pinyin":"chutouling","name":"出头岭"},{"pinyin":"chuanfangyu","name":"穿芳峪"},{"pinyin":"dongzhaogezhuang","name":"东赵各庄"},{"pinyin":"dongerying","name":"东二营"},{"pinyin":"guanzhuang","name":"官庄"},{"pinyin":"houjiaying","name":"侯家营"},{"pinyin":"luozhuangzi","name":"罗庄子"},{"pinyin":"limingzhuang","name":"礼明庄"},{"pinyin":"mashenqiao","name":"马伸桥"},{"pinyin":"sangzi","name":"桑梓"},{"pinyin":"shigu","name":"施古"},{"pinyin":"shangcang","name":"上仓"},{"pinyin":"sungezhuangmanzu","name":"孙各庄满族"},{"pinyin":"wenchangjiedao","name":"文昌街道"},{"pinyin":"wubaihu","name":"五百户"},{"pinyin":"xiaying","name":"下营"},{"pinyin":"xilonghuyu","name":"西龙虎峪"},{"pinyin":"xiawotou","name":"下窝头"},{"pinyin":"xiacang","name":"下仓"},{"pinyin":"xujiatai","name":"许家台"},{"pinyin":"yinliu","name":"洇溜"},{"pinyin":"youguzhuang","name":"尤古庄"},{"pinyin":"yangjinzhuang","name":"杨津庄"},{"pinyin":"jixianqita","name":"其他"}]},{"pinyin":"jinghai","name":"静海","regions":[{"pinyin":"chenguantun","name":"陈官屯"},{"pinyin":"caigongzhuang","name":"蔡公庄"},{"pinyin":"duliu","name":"独流"},{"pinyin":"dafengdui","name":"大丰堆"},{"pinyin":"daqiuzhuang","name":"大邱庄"},{"pinyin":"jinghai1","name":"静海"},{"pinyin":"liangtou","name":"梁头"},{"pinyin":"liangwangzhuang","name":"良王庄"},{"pinyin":"shuangtang","name":"双塘"},{"pinyin":"taitou","name":"台头"},{"pinyin":"tangguantun","name":"唐官屯"},{"pinyin":"tuanbo","name":"团泊"},{"pinyin":"wangkou","name":"王口"},{"pinyin":"xizhaizhuang","name":"西翟庄"},{"pinyin":"yanzhuang","name":"沿庄"},{"pinyin":"yangchengzhuang","name":"杨成庄"},{"pinyin":"ziya","name":"子牙"},{"pinyin":"zhongwang","name":"中旺"},{"pinyin":"jinghaiqita","name":"其他"}]},{"pinyin":"ninghe","name":"宁河","regions":[{"pinyin":"banqiao","name":"板桥"},{"pinyin":"biaokou","name":"俵口"},{"pinyin":"beihuaidian","name":"北淮淀"},{"pinyin":"dongjituo","name":"东棘坨"},{"pinyin":"dabeijiangu","name":"大北涧沽"},{"pinyin":"fengtai","name":"丰台"},{"pinyin":"lutai","name":"芦台"},{"pinyin":"lianzhuang","name":"廉庄"},{"pinyin":"lutaijingjikaifaqu","name":"芦台经济开发区"},{"pinyin":"miaozhuang","name":"苗庄"},{"pinyin":"ninghe1","name":"宁河"},{"pinyin":"panzhuang","name":"潘庄"},{"pinyin":"qilihai","name":"七里海"},{"pinyin":"qinghenongchang","name":"清河农场"},{"pinyin":"yuelong","name":"岳龙"},{"pinyin":"zaojiacheng","name":"造甲城"},{"pinyin":"ningheqita","name":"其他"}]}]},{"cname":"武汉","cen":"wh","districts":[{"pinyin":"jianghan","name":"江汉","regions":[{"pinyin":"beihu","name":"北湖"},{"pinyin":"changqing","name":"常青"},{"pinyin":"hongqiqu","name":"红旗渠"},{"pinyin":"hanxing","name":"汉兴"},{"pinyin":"minyi","name":"民意"},{"pinyin":"manchun","name":"满春"},{"pinyin":"minzu","name":"民族"},{"pinyin":"minquan","name":"民权"},{"pinyin":"qianjin","name":"前进"},{"pinyin":"shuita","name":"水塔"},{"pinyin":"tangjiadun","name":"唐家墩"},{"pinyin":"wansong","name":"万松"},{"pinyin":"xinhua","name":"新华"},{"pinyin":"xibeihu","name":"西北湖"},{"pinyin":"yangchahu","name":"杨汊湖"},{"pinyin":"jianghanqita","name":"其他"}]},{"pinyin":"jiangan","name":"江岸","regions":[{"pinyin":"baibuting","name":"百步亭"},{"pinyin":"chezhan","name":"车站"},{"pinyin":"chenjiaji","name":"谌家矶"},{"pinyin":"dazhi","name":"大智街"},{"pinyin":"danshuichi","name":"丹水池"},{"pinyin":"daishan","name":"岱山"},{"pinyin":"erqi","name":"二七"},{"pinyin":"huaqiao","name":"花桥"},{"pinyin":"houhuxiang","name":"后湖"},{"pinyin":"hankouhuochezhan","name":"汉口火车站"},{"pinyin":"jianshedadao","name":"建设大道"},{"pinyin":"jianghanlu","name":"江汉路"},{"pinyin":"laodong","name":"劳动"},{"pinyin":"qiuchang","name":"球场街"},{"pinyin":"sanyanglu","name":"三阳路"},{"pinyin":"shanghai","name":"上海"},{"pinyin":"siwei","name":"四唯"},{"pinyin":"taibei","name":"台北路"},{"pinyin":"aomenluyinan","name":"香港路"},{"pinyin":"xima","name":"西马"},{"pinyin":"xincun","name":"新村"},{"pinyin":"yongqing","name":"永清"},{"pinyin":"yiyuan","name":"一元路"},{"pinyin":"zhuyeshan","name":"竹叶山"},{"pinyin":"jianganqita","name":"其他"}]},{"pinyin":"qiaokou","name":"硚口","regions":[{"pinyin":"baofeng","name":"宝丰"},{"pinyin":"chongren","name":"崇仁"},{"pinyin":"gutian","name":"古田"},{"pinyin":"hanzheng","name":"汉正"},{"pinyin":"hanzhong","name":"汉中"},{"pinyin":"hanshuiqiao","name":"汉水桥"},{"pinyin":"hanjiadun","name":"韩家墩"},{"pinyin":"liujiaoting","name":"六角亭"},{"pinyin":"ronghua","name":"荣华"},{"pinyin":"wushenglu","name":"武胜路"},{"pinyin":"qiaokouyouyidadao","name":"易家墩"},{"pinyin":"zongguan","name":"宗关"},{"pinyin":"qiaokouqita","name":"其他"}]},{"pinyin":"wuchang","name":"武昌","regions":[{"pinyin":"baishazhou","name":"白沙洲"},{"pinyin":"dongting","name":"东亭"},{"pinyin":"dingziqiao","name":"丁字桥"},{"pinyin":"fujiapo","name":"傅家坡"},{"pinyin":"huanghelou","name":"黄鹤楼"},{"pinyin":"jiyuqiao","name":"积玉桥"},{"pinyin":"luojiashan","name":"珞珈山"},{"pinyin":"liangdaojie","name":"粮道街"},{"pinyin":"liangdao","name":"粮道"},{"pinyin":"nanhuhuayuan","name":"南湖花园"},{"pinyin":"nanhu","name":"南湖"},{"pinyin":"shuiguohu","name":"水果湖"},{"pinyin":"simenkou","name":"司门口"},{"pinyin":"shouyilu","name":"首义路"},{"pinyin":"shidong","name":"石洞"},{"pinyin":"wuchanghuochezhan","name":"武昌火车站"},{"pinyin":"wutaizha","name":"武泰闸"},{"pinyin":"xujiapeng","name":"徐家棚"},{"pinyin":"xudong","name":"徐东"},{"pinyin":"xiaodongmen","name":"小东门"},{"pinyin":"xinhe","name":"新河"},{"pinyin":"yangyuan","name":"杨园"},{"pinyin":"zhongbeilu","name":"中北路"},{"pinyin":"zhongnanlu","name":"中南路"},{"pinyin":"zhonghualu","name":"中华路"},{"pinyin":"ziyang","name":"紫阳"},{"pinyin":"wuchangqita","name":"其他"}]},{"pinyin":"hongshan","name":"洪山","regions":[{"pinyin":"chenjiawan","name":"陈家湾"},{"pinyin":"guanshan","name":"关山"},{"pinyin":"guanggu","name":"光谷"},{"pinyin":"guangbutun","name":"广埠屯"},{"pinyin":"gehua","name":"葛化"},{"pinyin":"hongqi","name":"红旗"},{"pinyin":"huashan","name":"花山"},{"pinyin":"jiedaokou","name":"街道口"},{"pinyin":"luxiang","name":"鲁巷"},{"pinyin":"luonan","name":"珞南"},{"pinyin":"luoshinanlu","name":"珞狮南路"},{"pinyin":"ruanjianyuan","name":"软件园"},{"pinyin":"zhuodaoquan","name":"卓刀泉"},{"pinyin":"zhangjiawan","name":"张家湾"},{"pinyin":"zuoling","name":"左岭"},{"pinyin":"hongshanqita","name":"其他"}]},{"pinyin":"qingshan","name":"青山","regions":[{"pinyin":"baiyushan","name":"白玉山"},{"pinyin":"changqian","name":"厂前"},{"pinyin":"ganghuacun","name":"钢花村"},{"pinyin":"hongweilu","name":"钢都"},{"pinyin":"gongrencun","name":"工人村"},{"pinyin":"gongyedadao","name":"工业大道"},{"pinyin":"honggangcheng","name":"红钢城"},{"pinyin":"hepingdadao","name":"和平大道"},{"pinyin":"jiansheerlu","name":"建设二路"},{"pinyin":"jiansheqilu","name":"建设七路"},{"pinyin":"qingshan1","name":"青山"},{"pinyin":"wudong","name":"武东"},{"pinyin":"xingouqiao","name":"新沟桥"},{"pinyin":"yejin","name":"冶金"},{"pinyin":"qingshanyouyidadao","name":"友谊大道"},{"pinyin":"yujiatou","name":"余家头"},{"pinyin":"yejindadao","name":"冶金大道"},{"pinyin":"qingshanqita","name":"其他"}]},{"pinyin":"hanyang","name":"汉阳","regions":[{"pinyin":"cuiwei","name":"翠微"},{"pinyin":"guocikou","name":"郭茨口"},{"pinyin":"jianghanerqiao","name":"江汉二桥"},{"pinyin":"jianqiao","name":"建桥"},{"pinyin":"qinduankou","name":"琴断口"},{"pinyin":"qilimiao","name":"七里庙"},{"pinyin":"qingchuan","name":"晴川"},{"pinyin":"shengguandu","name":"升官渡"},{"pinyin":"wangjiawan","name":"王家湾"},{"pinyin":"wulidun","name":"五里墩"},{"pinyin":"yingwu","name":"鹦鹉"},{"pinyin":"yuehu","name":"月湖"},{"pinyin":"zhongjiacun","name":"钟家村"},{"pinyin":"zhoutou","name":"洲头"},{"pinyin":"hanyangqita","name":"其他"}]},{"pinyin":"jingjijishukaifaqu","name":"沌口开发区","regions":[{"pinyin":"chechenglu","name":"车城路"},{"pinyin":"guoxulingguangchang","name":"郭徐岭广场"},{"pinyin":"jinsegangwan","name":"金色港湾"},{"pinyin":"jianghandaxue","name":"江汉大学"},{"pinyin":"qiannianmeili","name":"千年美丽"},{"pinyin":"sixin","name":"四新"},{"pinyin":"tiyuzhongxin","name":"体育中心"},{"pinyin":"taojialing","name":"陶家岭"}]},{"pinyin":"dongxihu","name":"东西湖","regions":[{"pinyin":"baiquan","name":"柏泉"},{"pinyin":"changqinghuayuan","name":"常青花园"},{"pinyin":"cihuidun","name":"慈惠墩"},{"pinyin":"zhangqing","name":"长青"},{"pinyin":"dongshan","name":"东山"},{"pinyin":"hebaohu","name":"荷包湖"},{"pinyin":"jiangjunlu","name":"将军路"},{"pinyin":"jinyinhu","name":"金银湖"},{"pinyin":"jinghe","name":"径河"},{"pinyin":"lijiadun","name":"李家墩"},{"pinyin":"dongxihusandian","name":"三店"},{"pinyin":"wujiashan","name":"吴家山"},{"pinyin":"xingou","name":"新沟"},{"pinyin":"xinandu","name":"辛安渡"},{"pinyin":"zoumaling","name":"走马岭"},{"pinyin":"dongxihuqita","name":"其他"}]},{"pinyin":"caidian","name":"蔡甸","regions":[{"pinyin":"caidiancaidian","name":"蔡甸"},{"pinyin":"daji","name":"大集"},{"pinyin":"zhashan","name":"奓山"},{"pinyin":"xintianjie","name":"新天街"},{"pinyin":"yongan","name":"永安"},{"pinyin":"zhangwan","name":"张湾"},{"pinyin":"zhuru","name":"侏儒"},{"pinyin":"caidianqita","name":"其他"}]},{"pinyin":"huangbei","name":"黄陂","regions":[{"pinyin":"hengdian","name":"横店"},{"pinyin":"hankoubei","name":"汉口北"},{"pinyin":"luohansi","name":"罗汉寺"},{"pinyin":"liuzhidian","name":"六指店"},{"pinyin":"panlongcheng","name":"盘龙城"},{"pinyin":"qianchuan","name":"前川"},{"pinyin":"qijiawan","name":"祁家湾"},{"pinyin":"shekou","name":"滠口"},{"pinyin":"tianhe","name":"天河"},{"pinyin":"huangbeiqita","name":"其他"}]},{"pinyin":"xinzhou","name":"新洲","regions":[{"pinyin":"cangbu","name":"仓埠"},{"pinyin":"jiujie","name":"旧街"},{"pinyin":"liji","name":"李集"},{"pinyin":"pantang","name":"潘塘"},{"pinyin":"xinzhousandian","name":"三店"},{"pinyin":"shuangliu","name":"双柳"},{"pinyin":"wangji","name":"汪集"},{"pinyin":"yangluo","name":"阳逻"},{"pinyin":"zhucheng","name":"邾城"},{"pinyin":"xinzhouqita","name":"其他"}]},{"pinyin":"jiangxia","name":"江夏","regions":[{"pinyin":"canglongdao","name":"藏龙岛"},{"pinyin":"donghugaoxin","name":"东湖高新"},{"pinyin":"jinkou","name":"金口"},{"pinyin":"liufang","name":"流芳"},{"pinyin":"miaoshan","name":"庙山"},{"pinyin":"wulongquan","name":"乌龙泉"},{"pinyin":"yinhewan","name":"银河湾"},{"pinyin":"zhifang","name":"纸坊"},{"pinyin":"zhengdian","name":"郑店"},{"pinyin":"jiangxiaqita","name":"其他"}]},{"pinyin":"hannan","name":"汉南","regions":[{"pinyin":"dengnan","name":"邓南"},{"pinyin":"shamao","name":"纱帽"},{"pinyin":"hannanqita","name":"其他"}]}]},{"cname":"绵阳","cen":"mianyang","districts":[{"pinyin":"fucheng","name":"涪城","regions":[{"pinyin":"anchangqiao","name":"安昌桥"},{"pinyin":"changhongdadao","name":"长虹大道"},{"pinyin":"dongfanghongdaqiao","name":"东方红大桥"},{"pinyin":"fuledaqiao","name":"富乐大桥"},{"pinyin":"fujiangerqiao","name":"涪江二桥"},{"pinyin":"gaoshui","name":"高水"},{"pinyin":"huochezhan","name":"火车站"},{"pinyin":"huayuanxiaoqu","name":"花园小区"},{"pinyin":"jinzhuyuan","name":"金柱园"},{"pinyin":"jingzhongjie","name":"警钟街"},{"pinyin":"linyuankou","name":"临园口"},{"pinyin":"nanheba","name":"南河坝"},{"pinyin":"nanhedaqiao","name":"南河大桥"},{"pinyin":"pingzheng","name":"平政"},{"pinyin":"qixinglou","name":"七星楼"},{"pinyin":"shizhongqu","name":"市中区"},{"pinyin":"sanpengguangchang","name":"三鹏广场"},{"pinyin":"sanlicun","name":"三里村"},{"pinyin":"shengshuiqingyi","name":"圣水青义"},{"pinyin":"wuyiguangchang","name":"五一广场"},{"pinyin":"xinankejidaxue","name":"西南科技大学"},{"pinyin":"xiaodaohuayuan","name":"小岛花园"},{"pinyin":"yuyingba","name":"御营坝"},{"pinyin":"yuejinlu","name":"跃进路"}]},{"pinyin":"youxian","name":"游仙","regions":[{"pinyin":"chenjiaba","name":"沈家坝"},{"pinyin":"furonghancheng","name":"芙蓉汉城"},{"pinyin":"jinghuhuayuan","name":"景湖花园"},{"pinyin":"kaiyuanchang","name":"开元场"},{"pinyin":"kexuecheng","name":"科学城"},{"pinyin":"liulicun","name":"六里村"},{"pinyin":"oujiaba","name":"欧家坝"},{"pinyin":"sanyiyuan","name":"三医院"},{"pinyin":"wulidui","name":"五里堆"},{"pinyin":"xianhaizhen","name":"仙海镇"},{"pinyin":"xiaojian","name":"小枧"}]},{"pinyin":"jiangyou","name":"江油","regions":[]},{"pinyin":"santai","name":"三台","regions":[]},{"pinyin":"yanting","name":"盐亭","regions":[]},{"pinyin":"anxian","name":"安县","regions":[]},{"pinyin":"zitong","name":"梓潼","regions":[]},{"pinyin":"pingwu","name":"平武","regions":[]},{"pinyin":"beichuan","name":"北川","regions":[]},{"pinyin":"gaoxin","name":"高新","regions":[{"pinyin":"binhelu","name":"滨河路"},{"pinyin":"hongyuanlu","name":"虹苑路"},{"pinyin":"jiadiancheng","name":"家电城"},{"pinyin":"puming","name":"普明"},{"pinyin":"shuangbei","name":"双碑"},{"pinyin":"shiqiaopu","name":"石桥铺"},{"pinyin":"wenzhoushangmaocheng","name":"温州商贸城"},{"pinyin":"wanxiangqichecheng","name":"万向汽车城"},{"pinyin":"yongxingzhen","name":"永兴镇"},{"pinyin":"3536","name":"3536"},{"pinyin":"21shijihuayuan","name":"21世纪花园"}]},{"pinyin":"jingkai","name":"经开","regions":[{"pinyin":"nanhuqichezhan","name":"南湖汽车站"},{"pinyin":"tangxun","name":"塘汛"}]},{"pinyin":"kechuangyuan","name":"科创园","regions":[{"pinyin":"chuangyedadao","name":"创业大道"},{"pinyin":"jiuzhoudadao","name":"九洲大道"},{"pinyin":"yuanyishan","name":"园艺山"}]}]},{"cname":"泉州","cen":"quanzhou","districts":[{"pinyin":"licheng","name":"鲤城","regions":[{"pinyin":"baihuigouwuzhongxin","name":"百汇购物中心"},{"pinyin":"kaiyuan","name":"开元"},{"pinyin":"qiaonanpianqu","name":"桥南片区"},{"pinyin":"xihu","name":"西湖"}]},{"pinyin":"fengze","name":"丰泽","regions":[{"pinyin":"donghaiwan","name":"东海湾"},{"pinyin":"fengzejiedao","name":"丰泽街道"},{"pinyin":"fengzeshangcheng","name":"丰泽商城"},{"pinyin":"lizhonggongyequ","name":"鲤中工业区"},{"pinyin":"quanxiu","name":"泉秀"},{"pinyin":"yungugongyequ","name":"云谷工业区"},{"pinyin":"zhengfuguangchang","name":"政府广场"}]},{"pinyin":"luojiang","name":"洛江","regions":[]},{"pinyin":"quangang","name":"泉港","regions":[]},{"pinyin":"huian","name":"惠安","regions":[]},{"pinyin":"anxi","name":"安溪","regions":[]},{"pinyin":"yongchun","name":"永春","regions":[]},{"pinyin":"dehua","name":"德化","regions":[]},{"pinyin":"jinmen","name":"金门","regions":[]},{"pinyin":"shishi","name":"石狮","regions":[]},{"pinyin":"jinjiang","name":"晋江","regions":[]},{"pinyin":"nanan","name":"南安","regions":[]}]},{"cname":"唐山","cen":"tangshan","districts":[{"pinyin":"lubei","name":"路北区","regions":[{"pinyin":"beixindaobafang","name":"北新道八方"},{"pinyin":"baihuodalou","name":"百货大楼"},{"pinyin":"dachengshangongyuan","name":"大城山公园"},{"pinyin":"darunfa","name":"大润发"},{"pinyin":"huochezhan","name":"火车站"},{"pinyin":"tianyuandijing","name":"天元帝景"},{"pinyin":"yuanyangcheng","name":"远洋城"}]},{"pinyin":"lunan","name":"路南区","regions":[{"pinyin":"hehuakeng","name":"荷花坑"},{"pinyin":"lunan1","name":"路南"},{"pinyin":"wandaguangchang","name":"万达广场"},{"pinyin":"xinxidaxia","name":"信息大厦"}]},{"pinyin":"guye","name":"古冶区","regions":[]},{"pinyin":"kaiping","name":"开平区","regions":[]},{"pinyin":"fengnan","name":"丰南区","regions":[]},{"pinyin":"fengrun","name":"丰润区","regions":[{"pinyin":"fengrun1","name":"丰润"},{"pinyin":"hancheng","name":"韩城"}]},{"pinyin":"gaoxinqu","name":"高新区","regions":[]},{"pinyin":"zunhua","name":"遵化","regions":[]},{"pinyin":"qianan","name":"迁安","regions":[]},{"pinyin":"luanxian","name":"滦县","regions":[]},{"pinyin":"luannan","name":"滦南","regions":[]},{"pinyin":"leting","name":"乐亭","regions":[]},{"pinyin":"qianxi","name":"迁西","regions":[]},{"pinyin":"yutian","name":"玉田","regions":[]},{"pinyin":"tanghai","name":"唐海","regions":[]},{"pinyin":"nanpukaifa","name":"南堡开发区","regions":[]},{"pinyin":"caofeidian","name":"曹妃甸","regions":[]},{"pinyin":"haigangkaifa","name":"海港开发区","regions":[]},{"pinyin":"hangunongchang","name":"汉沽农场","regions":[]},{"pinyin":"lutainongchang","name":"芦台农场","regions":[]}]},{"cname":"宜昌","cen":"yichang","districts":[{"pinyin":"xiling","name":"西陵","regions":[]},{"pinyin":"wujiagang","name":"伍家岗","regions":[]},{"pinyin":"dongshankaifaqu","name":"东山开发区","regions":[]},{"pinyin":"dianjun","name":"点军","regions":[]},{"pinyin":"xiaoting","name":"猇亭","regions":[]},{"pinyin":"yiling","name":"夷陵","regions":[]},{"pinyin":"yidou","name":"宜都","regions":[]},{"pinyin":"dangyang","name":"当阳","regions":[]},{"pinyin":"zhijiang","name":"枝江","regions":[]},{"pinyin":"yuanan","name":"远安","regions":[]},{"pinyin":"xingshan","name":"兴山","regions":[]},{"pinyin":"zigui","name":"秭归","regions":[]},{"pinyin":"zhangyang","name":"长阳","regions":[]},{"pinyin":"wufeng","name":"五峰","regions":[]}]}]